featureName,gnisId,gnisClass,county,state,latitude,longitude,elevation,map,bgnDate,entryDate
Adamant,1456106,Populated Place,Washington,VT,441945N,0723010W,1053,Montpelier,,10/29/1980
Adams Grist Mill (historical),1920824,Locale,Windham,VT,430752N,0722634W,239,Bellows Falls,,5/8/2001
Adams Landing,1460478,Populated Place,Grand Isle,VT,444410N,0731955W,125,South Hero,,10/29/1980
Addison,1456113,Populated Place,Addison,VT,440519N,0731809W,285,Snake Mountain,,10/29/1980
Addison County,1461757,Civil,Addison,VT,440151N,0730827W,364,Middlebury,,2/1/1993
Addison Gardens,2723154,Locale,Addison,VT,440827N,0731618W,276,Vergennes West,,5/8/2012
Agenyateonnia (historical),1918555,Populated Place,Chittenden,VT,Unknown,Unknown,,Unknown,,5/8/2001
Albany,1456118,Populated Place,Orleans,VT,444351N,0722247W,951,Albany,,10/29/1980
Albany Center,1460391,Populated Place,Orleans,VT,444412N,0722058W,1280,Craftsbury,,10/29/1980
Alburg,1456120,Populated Place,Grand Isle,VT,445830N,0731800W,125,Rouses Point,,10/29/1980
Alburg Center,1456121,Populated Place,Grand Isle,VT,445713N,0731611W,121,Rouses Point,,10/29/1980
Alburg Country Club,1461784,Locale,Grand Isle,VT,445427N,0731818W,141,Rouses Point,,10/29/1980
Alburg Rouses Point Ferry (historical),1918503,Locale,Grand Isle,VT,445955N,0732039W,95,Rouses Point,,5/8/2001
Alburg Springs,1456123,Populated Place,Grand Isle,VT,445931N,0731322W,128,East Alburg,,10/29/1980
Alburg Travel Trailer Park,1918506,Populated Place,Grand Isle,VT,445744N,0731453W,108,East Alburg,,5/8/2001
Alburg-Swanton Ferry (historical),1918507,Locale,Grand Isle,VT,445823N,0731312W,95,East Alburg,,5/8/2001
Alfrecha,1456137,Populated Place,Rutland,VT,433351N,0725821W,558,Rutland,,10/29/1980
Algiers (historical),2027188,Populated Place,Windham,VT,424900N,0723358W,502,Brattleboro,,2/5/2004
Algonquin Camp,1456139,Locale,Chittenden,VT,443907N,0731245W,128,Georgia Plains,,10/29/1980
Allandra Farm,2723107,Locale,Addison,VT,441036N,0731236W,318,Vergennes East,,5/8/2012
Allendale Farm,2723106,Locale,Addison,VT,440934N,0732005W,174,Vergennes West,,5/8/2012
Alpine Village,1460527,Populated Place,Washington,VT,440407N,0725003W,1660,Warren,,10/29/1980
Ames Hill,1456154,Populated Place,Windham,VT,425117N,0724115W,1745,Governors Mountain,,10/29/1980
Amsden,1456159,Populated Place,Windsor,VT,432421N,0723021W,584,Cavendish,,10/29/1980
Anchor Island Marina,1918511,Locale,Grand Isle,VT,445304N,0731620W,95,Rouses Point,,5/8/2001
Andover,1456162,Populated Place,Windsor,VT,431638N,0724148W,1155,Andover,1/1/1974,10/29/1980
Andys Camp,1921730,Locale,Rutland,VT,434535N,0731143W,502,Sudbury,,5/11/2001
Apple Island Campground and Marina,1460482,Locale,Grand Isle,VT,443811N,0731605W,121,South Hero,,9/1/1992
Appletree Bay Campground,1918553,Locale,Grand Isle,VT,443813N,0731621W,131,South Hero,,5/8/2001
Arlington,1460530,Populated Place,Bennington,VT,430429N,0730914W,646,Arlington,,10/29/1980
Arlins,1460369,Populated Place,Essex,VT,445522N,0713040W,1014,Monadnock Mountain,,4/1/1990
Arshla Dairy Farm,2680738,Locale,Caledonia,VT,442916N,0720715W,1322,Saint Johnsbury,,6/15/2011
Ascutney,1456178,Populated Place,Windsor,VT,432425N,0722425W,407,Windsor,,10/29/1980
Athens,1456182,Populated Place,Windham,VT,430801N,0723404W,663,Saxtons River,,10/29/1980
Avalon Beach,1456190,Populated Place,Rutland,VT,433824N,0731330W,427,Bomoseen,,10/29/1980
Averill,1456192,Populated Place,Essex,VT,445953N,0714237W,1693,Averill,,10/29/1980
Avery's Gore,1462030,Civil,Essex,VT,445440N,0714906W,2356,Norton Pond,,9/1/1995
Bailey Mills,1460392,Populated Place,Windsor,VT,433019N,0723411W,1165,Woodstock South,,10/29/1980
Baileys Mills,1456209,Populated Place,Windsor,VT,431752N,0723617W,640,Chester,,10/29/1980
Bakersfield,1461775,Populated Place,Franklin,VT,444655N,0724810W,722,Bakersfield,,10/29/1980
Bald Hill Hatchery,1919427,Locale,Caledonia,VT,444304N,0715711W,1585,West Burke,,5/8/2001
Bald Mountain Campground,1920839,Locale,Windham,VT,430221N,0724026W,433,Townshend,,5/8/2001
Ball Mountain Dam Picnic Grounds,1461679,Locale,Windham,VT,430946N,0724818W,1053,Londonderry,,6/1/1991
Ball Mountain Dam Recreation Area,1920841,Locale,Windham,VT,430740N,0724613W,991,Londonderry,,5/8/2001
Baltimore,1456238,Populated Place,Windsor,VT,432137N,0723423W,1079,Chester,,10/29/1980
Baptist Hill,1919291,Populated Place,Essex,VT,442631N,0714326W,1509,Gilman,,5/8/2001
Barnard,1456258,Populated Place,Windsor,VT,434343N,0723708W,1309,Woodstock North,,10/29/1980
Barnes Camp,1456264,Locale,Lamoille,VT,443158N,0724711W,1539,Mount Mansfield,,10/29/1980
Barnet,1456266,Populated Place,Caledonia,VT,441749N,0720257W,571,Barnet,,10/29/1980
Barnet Center,1456267,Locale,Caledonia,VT,441847N,0720519W,883,Barnet,,10/29/1980
Barnumtown,1456272,Populated Place,Addison,VT,441229N,0730948W,472,Vergennes East,,10/29/1980
Barnumville,1460561,Populated Place,Bennington,VT,431123N,0730116W,755,Manchester,,10/29/1980
Barre,1456274,Populated Place,Washington,VT,441149N,0723007W,607,Barre West,,10/29/1980
Barre Country Club,1461785,Locale,Washington,VT,441458N,0722750W,1135,Barre East,,10/29/1980
Barrows Camp,1456277,Locale,Lamoille,VT,444122N,0724327W,1614,Johnson,,10/29/1980
Barton,1456281,Populated Place,Orleans,VT,444453N,0721034W,922,Crystal Lake,,10/29/1980
Bartonsville,1456284,Populated Place,Windham,VT,431332N,0723208W,512,Saxtons River,,10/29/1980
Basin Harbor Golf Course,1918027,Locale,Addison,VT,441028N,0732203W,95,Vergennes West,,5/8/2001
Bassett Development,1921737,Populated Place,Rutland,VT,433713N,0725640W,745,Rutland,,5/11/2001
Battell Shelter,1460570,Locale,Addison,VT,440638N,0725615W,3241,Lincoln,,10/29/1980
Battenkill Plaza Shopping Center,1920486,Locale,Bennington,VT,431039N,0730328W,748,Manchester,,5/8/2001
Bayonne Camp (historical),1921738,Locale,Rutland,VT,434649N,0725138W,1335,Rochester,,5/11/2001
Bazin Farm,2680834,Locale,Windham,VT,430455N,0722630W,253,Walpole,,6/15/2011
Beanville,1460393,Populated Place,Orange,VT,435452N,0721651W,938,Vershire,,10/29/1980
Beanville,1921318,Populated Place,Orange,VT,435403N,0723921W,728,Randolph,,5/8/2001
Beartown,1460394,Populated Place,Bennington,VT,431123N,0730746W,1434,West Rupert,,10/29/1980
Beattie Lumber Mill (historical),1919292,Locale,Essex,VT,Unknown,Unknown,,Unknown,,5/8/2001
Beattys Four Corners,1920533,Populated Place,Franklin,VT,445622N,0725144W,600,Enosburg Falls,,5/8/2001
Beaulieus Corner,1460395,Populated Place,Franklin,VT,445648N,0730056W,322,Highgate Center,,10/29/1980
Beebe Plain,1456365,Populated Place,Orleans,VT,450019N,0720826W,791,Newport OE N,,10/29/1980
Beecher Falls,1456368,Populated Place,Essex,VT,450029N,0713028W,1066,Monadnock Mountain OE N,,10/29/1980
Beechwood Camp,1456371,Locale,Rutland,VT,434433N,0731238W,541,Bomoseen,,10/29/1980
Beemans Corners (historical),1918031,Locale,Addison,VT,434813N,0731820W,318,Orwell,,5/8/2001
Beldens,1460396,Populated Place,Addison,VT,440304N,0731031W,299,Middlebury,,10/29/1980
Bellows Falls,1456381,Populated Place,Windham,VT,430800N,0722638W,312,Bellows Falls,,10/29/1980
Belmont,1460597,Populated Place,Rutland,VT,432456N,0724920W,1824,Mount Holly,,10/29/1980
Belvidere Center,1456386,Populated Place,Lamoille,VT,444500N,0724128W,860,Cold Hollow Mountains,,10/29/1980
Belvidere Junction,1456385,Populated Place,Lamoille,VT,444413N,0724433W,712,Johnson,,10/29/1980
Belview Campground,1921680,Locale,Orleans,VT,444505N,0720943W,991,Orleans,,5/8/2001
Belyidere Corners,1456388,Locale,Lamoille,VT,444559N,0723726W,1152,Hazens Notch,,10/29/1980
Bennington,1460600,Populated Place,Bennington,VT,425241N,0731148W,679,Bennington,,10/29/1980
Bennington County,1461758,Civil,Bennington,VT,430208N,0730535W,1867,Sunderland,,2/1/1993
Bennington Hatchery,1920184,Locale,Bennington,VT,425110N,0731019W,883,Pownal,,5/8/2001
Bennington Plaza Shopping Center,1920189,Locale,Bennington,VT,425458N,0731242W,784,Bennington,,5/8/2001
Bennington Square Shopping Center,1920191,Locale,Bennington,VT,425335N,0731153W,627,Bennington,,5/8/2001
Benson,1456394,Populated Place,Rutland,VT,434225N,0731840W,397,Benson,,10/29/1980
Benson Landing,1456396,Populated Place,Rutland,VT,434342N,0732203W,98,Benson,,10/29/1980
Berkshire,1456397,Populated Place,Franklin,VT,445818N,0724631W,722,Enosburg Falls,,10/29/1980
Berlin Corners,1456399,Populated Place,Washington,VT,441236N,0723433W,1020,Barre West,1/1/1979,10/29/1980
Berlin Mall Shopping Center,1918994,Locale,Washington,VT,441258N,0723353W,981,Barre West,,5/8/2001
Berlin Shopping Plaza Shopping Center,1918998,Locale,Washington,VT,441355N,0723308W,545,Barre West,,5/8/2001
Bernard J Leddy Park,1460506,Populated Place,Chittenden,VT,443014N,0731527W,115,Colchester Point,,10/1/1992
Bethel,1456402,Populated Place,Windsor,VT,435000N,0723802W,581,Bethel,,10/29/1980
Bethel Gilead,1456403,Locale,Windsor,VT,435235N,0724129W,912,Randolph,,10/29/1980
Big Branch Picnic Grounds,1461726,Locale,Rutland,VT,432151N,0725541W,1863,Danby,,2/1/1991
Big Branch Shelter,1461730,Locale,Rutland,VT,432151N,0725652W,1450,Danby,,2/1/1991
Big D Campground,1921746,Locale,Rutland,VT,434129N,0731101W,420,Bomoseen,,5/11/2001
Big Deer Campground,1919439,Locale,Caledonia,VT,441717N,0721608W,1142,Marshfield,,5/8/2001
Bigelow Shelter,1461666,Locale,Windham,VT,430607N,0725759W,2615,Stratton Mountain,,5/1/1991
Billings Mobile Manor,1921747,Populated Place,Rutland,VT,433531N,0725734W,633,Rutland,,5/11/2001
Binghamville,1456427,Populated Place,Franklin,VT,444030N,0725524W,584,Gilson Mountain,,10/29/1980
Bingo Camp (historical),1918034,Locale,Addison,VT,435309N,0725629W,1545,Bread Loaf,,5/8/2001
Birch Glen Camp,1460616,Locale,Chittenden,VT,441412N,0725549W,2021,Mount Ellen,,10/29/1980
Black Branch Recreation Site,1461723,Locale,Rutland,VT,432224N,0725801W,1670,Danby,,2/1/1991
Blissville,1456473,Populated Place,Rutland,VT,433535N,0731347W,430,Poultney,,10/29/1980
Bloomfield,1456483,Populated Place,Essex,VT,444514N,0713756W,902,Bloomfield,,10/29/1980
Blossoms Corners,1456487,Locale,Rutland,VT,432404N,0731332W,433,Wells,,10/29/1980
Blue Ridge Acres,1921752,Populated Place,Rutland,VT,433802N,0725743W,682,Chittenden,,5/11/2001
Blueberry Hill Winter Sports Area,1461697,Locale,Addison,VT,435334N,0730022W,1900,East Middlebury,,6/1/1991
Blueberry Lake Ski Touring Center,1919001,Locale,Washington,VT,440507N,0724936W,1604,Warren,,5/8/2001
Blush Hill Country Club,1919003,Locale,Washington,VT,442129N,0724513W,1027,Waterbury,,5/8/2001
Bodette Farm,2723109,Locale,Addison,VT,440247N,0732453W,154,Port Henry,,5/8/2012
Bolton,1456511,Populated Place,Chittenden,VT,442222N,0725250W,351,Huntington,,10/29/1980
Bolton Lodge,1456513,Locale,Chittenden,VT,442457N,0725213W,1634,Bolton Mountain,,10/29/1980
Bolton Notch,1456516,Locale,Chittenden,VT,442558N,0725346W,1207,Richmond,,10/29/1980
Bolton Valley Ski Area,1918565,Locale,Chittenden,VT,442457N,0725211W,1604,Bolton Mountain,,5/8/2001
Boltonville,1456517,Populated Place,Orange,VT,441015N,0720559W,659,Woodsville,,10/29/1980
Bomoseen,1456519,Populated Place,Rutland,VT,433837N,0731155W,430,Bomoseen,,10/29/1980
Bomoseen State Park Campground,1921757,Locale,Rutland,VT,433929N,0731350W,430,Bomoseen,,5/11/2001
Bondville,1461709,Populated Place,Bennington,VT,430841N,0725232W,1280,Peru,,2/1/1991
Bonnie Oaks Golf Course,1921328,Locale,Orange,VT,435420N,0720933W,427,Fairlee,,5/8/2001
Borderview Farm,2680838,Locale,Grand Isle,VT,450032N,0731823W,138,Rouses Point OE N,,6/15/2011
Bordoville,1456526,Populated Place,Franklin,VT,445036N,0724907W,741,Bakersfield,,10/29/1980
Bouplon Corner,1460397,Populated Place,Bennington,VT,425941N,0731559W,843,Hoosick Falls,,10/29/1980
Bourn Shelter,1460634,Locale,Bennington,VT,430629N,0730009W,2552,Sunderland,,10/29/1980
Bourne Brook,1920199,Populated Place,Bennington,VT,431025N,0730248W,709,Manchester,,5/8/2001
Bowlsville,1460636,Populated Place,Rutland,VT,432652N,0725107W,1299,Mount Holly,,10/29/1980
Bowman Corners,1456532,Populated Place,Chittenden,VT,443425N,0730325W,738,Essex Center,,10/29/1980
Boyce Shelter,1460638,Locale,Addison,VT,435816N,0725638W,3186,Bread Loaf,,10/29/1980
Bradford,1456538,Populated Place,Orange,VT,435933N,0720744W,446,Fairlee,,10/29/1980
Bradford Center,1456539,Populated Place,Orange,VT,440047N,0721014W,525,East Corinth,,10/29/1980
Bradford Golf Course,1921331,Locale,Orange,VT,435942N,0720734W,394,Fairlee,,5/8/2001
Brae Loch,1456544,Locale,Chittenden,VT,443427N,0731235W,121,Colchester,1/1/1998,8/27/2002
Bragg,1456545,Populated Place,Windsor,VT,434311N,0722020W,935,Hanover,,10/29/1980
Braintree Hill,1460390,Populated Place,Orange,VT,435810N,0724118W,1562,Randolph,1/1/1978,10/29/1980
Branch School (historical),1918038,Populated Place,Addison,VT,435541N,0725302W,1060,Bread Loaf,,5/8/2001
Brandon,1460649,Populated Place,Rutland,VT,434753N,0730515W,427,Brandon,,10/29/1980
Brandon Brook Picnic Ground,1460651,Locale,Windsor,VT,435024N,0725631W,1818,Mount Carmel,,10/29/1980
Brattleboro,1456556,Populated Place,Windham,VT,425103N,0723328W,239,Brattleboro,,10/29/1980
Brattleboro Country Club,1461786,Locale,Windham,VT,425224N,0723455W,394,Brattleboro,,10/29/1980
Brattleboro North Shopping Plaza Shopping Center,1920871,Locale,Windham,VT,425244N,0723341W,292,Putney,,5/8/2001
Brattleboro Transportation Center,2729659,Locale,Windham,VT,425105N,0723336W,272,Brattleboro,,7/23/2012
Bread Loaf,1460655,Populated Place,Addison,VT,435712N,0725933W,1437,Bread Loaf,,10/29/1980
Brewers Corner,1460398,Populated Place,Rutland,VT,433709N,0725236W,1785,Rutland,,10/29/1980
Bridgewater,1456564,Populated Place,Windsor,VT,433517N,0723730W,846,Plymouth,,10/29/1980
Bridgewater Center,1456565,Populated Place,Windsor,VT,433659N,0723933W,945,Plymouth,1/1/1967,10/29/1980
Bridgewater Corners,1456566,Populated Place,Windsor,VT,433518N,0723921W,860,Plymouth,,10/29/1980
Bridport,1456431,Populated Place,Addison,VT,435906N,0731845W,302,Bridport,,10/29/1980
Briggs Dairy Farm,2723110,Locale,Addison,VT,440550N,0731544W,233,Snake Mountain,,5/8/2012
Brighton (historical),1919296,Populated Place,Essex,VT,Unknown,Unknown,,Unknown,,5/8/2001
Brimstone Corner,1456571,Populated Place,Orange,VT,435616N,0721556W,778,Vershire,,10/29/1980
Brimstone Corners,1456572,Locale,Rutland,VT,432319N,0730804W,1024,Wells,,10/29/1980
Bristol,1460661,Populated Place,Addison,VT,440800N,0730444W,568,Bristol,,10/29/1980
Brockways Mills,1456580,Populated Place,Windham,VT,431225N,0723058W,390,Saxtons River,1/1/1960,10/29/1980
Brodeur Dairy Farm,2680736,Locale,Franklin,VT,445148N,0730620W,180,Saint Albans,,6/15/2011
Bromley Camp,1460666,Locale,Bennington,VT,431253N,0725754W,2126,Peru,,10/29/1980
Bromley Mountain Ski Resort,1460605,Locale,Bennington,VT,431315N,0725613W,2667,Peru,,10/29/1980
Bromley Ski Center,1920202,Locale,Bennington,VT,431238N,0725601W,1873,Peru,,5/8/2001
Bromley Trail Hut,1461688,Locale,Bennington,VT,431244N,0725804W,2024,Peru,,6/1/1991
Bromley Village,1920203,Populated Place,Bennington,VT,431243N,0725635W,2228,Peru,,5/8/2001
Brookfield,1456581,Populated Place,Orange,VT,440232N,0723612W,1276,Brookfield,,10/29/1980
Brookfield Center,1456582,Populated Place,Orange,VT,440113N,0723616W,1417,Brookfield,,10/29/1980
Brookline,1456584,Populated Place,Windham,VT,430154N,0723605W,571,Westminster West,,10/29/1980
Brooks House Mall Shopping Center,1921303,Locale,Windham,VT,425102N,0723333W,259,Brattleboro,,5/8/2001
Brookside,1461755,Populated Place,Windham,VT,425642N,0724511W,938,West Dover,,2/1/1991
Brookside,1918568,Populated Place,Chittenden,VT,443537N,0730231W,581,Essex Center,,5/8/2001
Brookside Trailer Park,1921771,Populated Place,Rutland,VT,433537N,0725751W,561,Rutland,,5/11/2001
Brooksville,1456592,Populated Place,Addison,VT,440356N,0731022W,266,Middlebury,,10/29/1980
Brookwood Estates,1921772,Populated Place,Rutland,VT,433648N,0725555W,925,Rutland,,5/11/2001
Brownington Center,1456604,Populated Place,Orleans,VT,444922N,0720853W,1001,Orleans,,10/29/1980
Brownington Village,1456606,Populated Place,Orleans,VT,444951N,0721018W,1211,Orleans,,10/29/1980
Browns Corners,1456608,Populated Place,Franklin,VT,445806N,0725807W,318,Sheldon Springs,,10/29/1980
Browns Mill,1460399,Populated Place,Essex,VT,444108N,0713804W,1102,Maidstone Lake,,10/29/1980
Brownsville,1456613,Populated Place,Windsor,VT,432807N,0722815W,682,Windsor,,10/29/1980
Brunswick Springs,1456615,Populated Place,Essex,VT,444411N,0713756W,984,Maidstone Lake,,10/29/1980
Buels Gore,1462058,Civil,Chittenden,VT,441218N,0725648W,2257,Mount Ellen,,9/1/1995
Bullthroat,1456644,Populated Place,Essex,VT,443950N,0713854W,1306,Maidstone Lake,,10/29/1980
Bulter Lodge,1456645,Locale,Lamoille,VT,443059N,0724915W,3038,Mount Mansfield,,10/29/1980
Buoy 39 Marina,1918055,Locale,Addison,VT,434934N,0732309W,98,Ticonderoga,,5/8/2001
Burbees Mill (historical),1920873,Locale,Windham,VT,430922N,0724338W,1634,Windham,,5/8/2001
Burke Hollow,1456660,Populated Place,Caledonia,VT,443721N,0715658W,965,Burke Mountain,,10/29/1980
Burke Mountain Campground,1919451,Locale,Caledonia,VT,443528N,0715358W,1483,Burke Mountain,,5/8/2001
Burke Mountain Club (historical),1919452,Locale,Caledonia,VT,Unknown,Unknown,,Unknown,,5/8/2001
Burke Mountain Ski Area,1919453,Locale,Caledonia,VT,443500N,0715405W,1706,Burke Mountain,,5/8/2001
Burke Mountain Ski Touring Center,1919454,Locale,Caledonia,VT,443555N,0715411W,1319,Burke Mountain,,5/8/2001
Burling Farm,2680836,Locale,Franklin,VT,450021N,0724631W,659,Enosburg Falls OE N,,6/15/2011
Burlington,1456663,Populated Place,Chittenden,VT,442833N,0731243W,197,Burlington,1/1/1944,10/29/1980
Burlington Country Club,1461787,Locale,Chittenden,VT,442751N,0731135W,371,Burlington,,10/29/1980
Burlington Ferr,1456665,Locale,Chittenden,VT,442932N,0731633W,95,Juniper Island,,10/29/1980
Burlington Plaza Shopping Center,1918576,Locale,Chittenden,VT,442657N,0731240W,210,Burlington,,5/8/2001
Burlington Square Shopping Center,1918578,Locale,Chittenden,VT,442844N,0731243W,223,Burlington,,5/8/2001
Burnham Hollow,1456667,Populated Place,Rutland,VT,432903N,0730850W,748,Wells,,10/29/1980
Burtland Farms,2633593,Locale,Franklin,VT,444532N,0730836W,262,Saint Albans Bay,,10/14/2010
Burtons Farm (historical),1920548,Locale,Franklin,VT,Unknown,Unknown,,Unknown,,5/8/2001
Butlers Corners,1456701,Populated Place,Chittenden,VT,443037N,0730502W,518,Essex Center,,8/27/2002
Butternut,1456697,Populated Place,Rutland,VT,432231N,0731208W,581,Wells,,10/29/1980
Cabot,1456711,Populated Place,Washington,VT,442405N,0721844W,1063,Cabot,,10/29/1980
Cabot Plains,1456712,Locale,Washington,VT,442459N,0721444W,1903,Joes Pond,,10/29/1980
Cadys Falls,1456716,Populated Place,Lamoille,VT,443441N,0723642W,558,Morrisville,,10/29/1980
Caledonia County,1461759,Civil,Caledonia,VT,442753N,0720608W,945,Saint Johnsbury,,2/1/1993
Caledonia County Fairgrounds,1919460,Locale,Caledonia,VT,443243N,0715931W,830,Burke Mountain,,5/8/2001
Calvin Coolidge Birthplace,1456720,Locale,Windsor,VT,433205N,0724316W,1404,Plymouth,,10/29/1980
Cambridge,1456721,Populated Place,Lamoille,VT,443841N,0725234W,443,Gilson Mountain,,10/29/1980
Cambridge Junction,1456722,Populated Place,Lamoille,VT,443857N,0724848W,482,Jeffersonville,,10/29/1980
Cambridgeport,1456723,Populated Place,Windham,VT,430905N,0723337W,614,Saxtons River,,10/29/1980
Camels Hump Nordic Ski Center,1918582,Locale,Chittenden,VT,441956N,0725636W,1539,Huntington,,5/8/2001
Camp Abnaki,1456725,Locale,Grand Isle,VT,444557N,0731831W,112,North Hero,,10/29/1980
Camp Avalon,1920208,Locale,Bennington,VT,430118N,0731043W,860,Arlington,,5/8/2001
Camp Awanee,1456726,Locale,Rutland,VT,434413N,0731108W,617,Bomoseen,,10/29/1980
Camp Betsey Cox,1921780,Locale,Rutland,VT,Unknown,Unknown,,Unknown,,5/11/2001
Camp Brebeuf for Boys,1918059,Locale,Addison,VT,435312N,0730458W,604,East Middlebury,,5/8/2001
Camp Brook,1456727,Populated Place,Windsor,VT,435101N,0724135W,1079,Bethel,9/8/1977,10/29/1980
Camp Casino,1460695,Locale,Bennington,VT,425000N,0730225W,2247,Stamford,,10/29/1980
Camp Charidan,1918060,Locale,Addison,VT,435833N,0730051W,1276,East Middlebury,,5/8/2001
Camp Derry,1460696,Locale,Windham,VT,431403N,0724524W,1558,Londonderry,,10/29/1980
Camp Ethan Allen,1921691,Locale,Orleans,VT,443534N,0722057W,1283,Caspian Lake,,5/8/2001
Camp Everest,1456729,Locale,Chittenden,VT,443843N,0731233W,112,Georgia Plains,,10/29/1980
Camp Grounds,1456730,Populated Place,Franklin,VT,445432N,0725300W,381,Sheldon Springs,,10/29/1980
Camp Hochelaga,1460502,Locale,Grand Isle,VT,443620N,0731755W,161,Colchester Point,,10/1/1992
Camp Keewaydin,1918061,Locale,Addison,VT,435530N,0730433W,584,East Middlebury,,5/8/2001
Camp Killooleet,1460697,Locale,Addison,VT,435533N,0725117W,955,Hancock,,10/29/1980
Camp Kiniya,1456732,Locale,Chittenden,VT,443614N,0731337W,148,Colchester,,10/29/1980
Camp Kinloch,1918584,Locale,Chittenden,VT,441832N,0731751W,102,Charlotte,,5/8/2001
Camp Kinni Kinnic,1456733,Locale,Rutland,VT,432839N,0731229W,495,Wells,,10/29/1980
Camp Mansfield,1456734,Locale,Chittenden,VT,443048N,0725214W,1109,Mount Mansfield,,10/29/1980
Camp Maquam,1456735,Populated Place,Franklin,VT,445410N,0730956W,125,East Alburg,,10/29/1980
Camp Merrycrest,1918512,Locale,Grand Isle,VT,444325N,0731628W,131,South Hero,,5/8/2001
Camp Norfleet,1456752,Locale,Chittenden,VT,443521N,0731332W,154,Colchester,,10/29/1980
Camp Number Eighteen,1456744,Locale,Essex,VT,445433N,0714131W,1575,Averill,,10/29/1980
Camp Number Eleven,1456737,Locale,Essex,VT,445241N,0714130W,1476,Averill,,10/29/1980
Camp Number Fifteen,1456741,Locale,Essex,VT,444753N,0714204W,1191,Bloomfield,,10/29/1980
Camp Number Five,1456750,Locale,Essex,VT,445106N,0713846W,1965,Bloomfield,,10/29/1980
Camp Number Five (historical),1460377,Locale,Essex,VT,445336N,0713446W,1549,Monadnock Mountain,,10/29/1980
Camp Number Four,1456749,Locale,Essex,VT,445028N,0714031W,1237,Bloomfield,,10/29/1980
Camp Number Four (historical),1460376,Locale,Essex,VT,445321N,0713547W,1972,Monadnock Mountain,,10/29/1980
Camp Number Fourteen,1456740,Locale,Essex,VT,445328N,0713833W,2402,Averill,,10/29/1980
Camp Number Nineteen,1456745,Locale,Essex,VT,445458N,0714220W,1686,Averill,,10/29/1980
Camp Number Seventeen,1456743,Locale,Essex,VT,444926N,0714151W,1302,Bloomfield,,10/29/1980
Camp Number Six,1456751,Locale,Essex,VT,445141N,0714110W,1306,Bloomfield,,10/29/1980
Camp Number Sixteen,1456742,Locale,Essex,VT,445358N,0714021W,1939,Averill,,10/29/1980
Camp Number Ten,1456736,Locale,Essex,VT,445219N,0714106W,1381,Bloomfield,,10/29/1980
Camp Number Thirteen,1456739,Locale,Essex,VT,445303N,0714056W,1460,Averill,,10/29/1980
Camp Number Three,1456748,Locale,Essex,VT,444914N,0714019W,1129,Bloomfield,,10/29/1980
Camp Number Three (historical),1460375,Locale,Essex,VT,445237N,0713720W,2041,Monadnock Mountain,,10/29/1980
Camp Number Twelve,1456738,Locale,Essex,VT,445328N,0714203W,1667,Averill,,10/29/1980
Camp Number Twenty,1456746,Locale,Essex,VT,445607N,0714236W,1749,Averill,,10/29/1980
Camp Number Twentyone,1456747,Locale,Essex,VT,445503N,0714001W,2155,Averill,,10/29/1980
Camp Plymouth,1456753,Locale,Windsor,VT,432836N,0724137W,1115,Ludlow,,10/29/1980
Camp Rich,1456754,Locale,Chittenden,VT,444153N,0731239W,108,Georgia Plains,,10/29/1980
Camp Saint Joseph,1918585,Locale,Chittenden,VT,443303N,0731628W,121,Colchester Point,,5/8/2001
Camp Sangamon,1921782,Locale,Rutland,VT,434141N,0725719W,1037,Chittenden,,5/11/2001
Camp Sky Acres,1921352,Locale,Orange,VT,440351N,0722723W,1680,Washington,,5/8/2001
Camp Sky Bird,1921781,Locale,Rutland,VT,434540N,0731111W,581,Sudbury,,5/11/2001
Camp Skyland,1460503,Locale,Grand Isle,VT,443553N,0731821W,141,Colchester Point,,10/1/1992
Camp Sunrise,1456755,Locale,Rutland,VT,434529N,0731549W,515,Orwell,,10/29/1980
Camp Twin Lake,1921783,Locale,Rutland,VT,434431N,0731054W,643,Bomoseen,,5/11/2001
Camp Underhill,1456756,Locale,Chittenden,VT,442939N,0725425W,1037,Richmond,,10/29/1980
Camp Wapanacki,1918302,Locale,Lamoille,VT,443326N,0722346W,1302,Wolcott,,5/8/2001
Camp Watson,1456757,Locale,Chittenden,VT,444105N,0731239W,138,Georgia Plains,,10/29/1980
Camp Wihakowi,1456758,Locale,Washington,VT,440625N,0724044W,928,Roxbury,,10/29/1980
Camp Winape,1921692,Locale,Orleans,VT,445216N,0715853W,1342,Island Pond,,5/8/2001
Camp Windsor,1921784,Locale,Rutland,VT,432536N,0724842W,1863,Mount Holly,,5/11/2001
Campbell Corner,1460400,Populated Place,Orange,VT,435001N,0721839W,722,South Strafford,,10/29/1980
Campbells Bay Campground,1920553,Locale,Franklin,VT,445424N,0731024W,95,East Alburg,,5/8/2001
Campbells Corner,1921693,Populated Place,Orleans,VT,443530N,0721953W,1503,Caspian Lake,,5/8/2001
Camperama Family Campground,1920879,Locale,Windham,VT,430224N,0724013W,440,Townshend,,5/8/2001
Campground A,1920209,Locale,Bennington,VT,431645N,0730015W,741,Dorset,,5/8/2001
Campground B,1920210,Locale,Bennington,VT,431617N,0730035W,866,Dorset,,5/8/2001
Campground C,1920211,Locale,Bennington,VT,431602N,0730041W,866,Dorset,,5/8/2001
Camping Area A,1919305,Locale,Essex,VT,443812N,0713842W,1332,Maidstone Lake,,5/8/2001
Camping Area B,1919306,Locale,Essex,VT,443808N,0713920W,1378,Maidstone Lake,,5/8/2001
Camping on the Batten Kill Campground,1920212,Locale,Bennington,VT,430505N,0730957W,1115,Arlington,,5/8/2001
Canaan,1456760,Populated Place,Essex,VT,445946N,0713218W,1043,Monadnock Mountain,,10/29/1980
Carinthia Ski Area,1461749,Locale,Windham,VT,425726N,0725350W,2382,Mount Snow,,2/1/1991
Carinthia Ski Center,1920880,Locale,Windham,VT,425733N,0725328W,1982,Mount Snow,,5/8/2001
Carmel Camp,1460703,Locale,Rutland,VT,434604N,0725519W,2552,Mount Carmel,,10/29/1980
Carry Bay Campground,1918513,Locale,Grand Isle,VT,445015N,0731623W,98,North Hero,,5/8/2001
Carrying Place,1456777,Locale,Grand Isle,VT,444946N,0731627W,98,North Hero,,10/29/1980
Castleton,1456785,Populated Place,Rutland,VT,433638N,0731047W,446,Poultney,,10/29/1980
Castleton Corners,1456786,Populated Place,Rutland,VT,433630N,0731228W,443,Poultney,,10/29/1980
Catamount Family Ski Area,1918589,Locale,Chittenden,VT,442728N,0730310W,538,Essex Junction,,5/8/2001
Catholic Youth Camp,1918303,Locale,Lamoille,VT,443105N,0724038W,955,Sterling Mountain,,5/8/2001
Catlinsburg (historical),1918591,Populated Place,Chittenden,VT,442851N,0731122W,312,Burlington,,5/8/2001
Caton Place Campground,1922293,Locale,Windsor,VT,432452N,0723307W,1197,Cavendish,,5/11/2001
Caughnawaga Shelter,1460713,Locale,Bennington,VT,430055N,0730236W,2779,Sunderland,,10/29/1980
Cavendish,1456794,Populated Place,Windsor,VT,432255N,0723629W,892,Cavendish,,10/29/1980
Cavendish Center,1456795,Populated Place,Windsor,VT,432436N,0723620W,1024,Cavendish,,10/29/1980
Cedar Beach,1456798,Populated Place,Chittenden,VT,441730N,0731810W,135,Charlotte,,10/29/1980
Center Rutland,1456822,Populated Place,Rutland,VT,433616N,0730041W,518,West Rutland,,10/29/1980
Centertown,1456825,Populated Place,Windsor,VT,433939N,0722252W,827,Quechee,,10/29/1980
Centervale Station (historical),1919464,Locale,Caledonia,VT,Unknown,Unknown,,Unknown,,5/8/2001
Centerville,1456826,Populated Place,Windsor,VT,434035N,0722311W,394,Quechee,,10/29/1980
Centerville,1456827,Populated Place,Lamoille,VT,443709N,0723510W,791,Morrisville,,10/29/1980
Centerville (historical),1921800,Populated Place,Rutland,VT,Unknown,Unknown,,Unknown,,5/11/2001
Central Park Station,1456830,Locale,Windham,VT,424548N,0723057W,279,Brattleboro,,10/29/1980
Central Plaza Shopping Center,1919016,Locale,Washington,VT,441328N,0723249W,554,Barre West,,5/8/2001
Champlain Bridge Marina,1918064,Locale,Addison,VT,440225N,0732455W,112,Port Henry,,5/8/2001
Champlain Council Campfire Girls Camp,1918598,Locale,Chittenden,VT,442510N,0725618W,666,Richmond,,5/8/2001
Champlain Country Club,1461788,Locale,Franklin,VT,445116N,0730527W,384,Saint Albans,,10/29/1980
Champlain Market Place Shopping Center,1918600,Locale,Chittenden,VT,442923N,0731116W,144,Burlington,,5/8/2001
Champlain Mill Shopping Center,1918601,Locale,Chittenden,VT,442923N,0731103W,154,Burlington,,5/8/2001
Champlain Valley Campground,1920552,Locale,Franklin,VT,445521N,0730935W,105,East Alburg,,5/8/2001
Champlain Valley Creamery,2723153,Locale,Addison,VT,441036N,0731442W,200,Vergennes East,,5/8/2012
Chargo Campground,1919959,Locale,Orleans,VT,445509N,0720600W,965,West Charleston,,5/8/2001
Charles Fantoni Roundabout,2557083,Locale,Washington,VT,440939N,0722654W,1086,Barre East,,5/15/2009
Charlotte,1456852,Populated Place,Chittenden,VT,441835N,0731539W,167,Charlotte,,10/29/1980
Chasanna Acres,1921803,Populated Place,Rutland,VT,433835N,0725735W,738,Chittenden,,5/11/2001
Chase Corners,1456858,Locale,Windsor,VT,433219N,0723548W,2064,Woodstock South,,10/29/1980
Chateauguay,1456862,Populated Place,Windsor,VT,433937N,0724141W,1424,Delectable Mountain,,10/29/1980
Checkerberry Village,1456864,Populated Place,Chittenden,VT,443745N,0730838W,328,Georgia Plains,,10/29/1980
Chelsea,1456865,Populated Place,Orange,VT,435923N,0722651W,820,Chelsea,,10/29/1980
Chester,1456872,Populated Place,Windsor,VT,431546N,0723542W,600,Chester,,10/29/1980
Chester Depot,1456873,Locale,Windsor,VT,431610N,0723512W,597,Chester,,10/29/1980
Chimney Corner,1460401,Populated Place,Chittenden,VT,443517N,0730958W,210,Colchester,,10/29/1980
Chimney Point,1460402,Populated Place,Addison,VT,440210N,0732505W,121,Port Henry,,10/29/1980
Chimney Point Farm,2723111,Locale,Addison,VT,440255N,0732501W,154,Port Henry,,5/8/2012
Chipman Point Marina,1460484,Locale,Addison,VT,434800N,0732224W,148,Orwell,,9/1/1992
Chipmans Point Marina,1918067,Locale,Addison,VT,434800N,0732232W,95,Ticonderoga,,5/8/2001
Chippenhook,1456884,Populated Place,Rutland,VT,433106N,0730050W,850,West Rutland,,10/29/1980
Chiselville,1460722,Populated Place,Bennington,VT,430416N,0730804W,748,Arlington,,10/29/1980
Chittenden,1460723,Populated Place,Rutland,VT,434228N,0725653W,1135,Chittenden,,10/29/1980
Chittenden Brook Campground,1460725,Locale,Rutland,VT,434932N,0725435W,1768,Mount Carmel,,10/29/1980
Chittenden County,1461760,Civil,Chittenden,VT,442740N,0730451W,610,Essex Junction,,2/1/1993
Church Street Marketplace Shopping Center,1918618,Locale,Chittenden,VT,442842N,0731237W,223,Burlington,,5/8/2001
Churchhill House Ski Area,1461824,Locale,Rutland,VT,434954N,0730307W,591,Brandon,,2/1/1991
City of Barre,1462035,Civil,Washington,VT,441159N,0723030W,594,Barre West,,9/1/1995
City of Burlington,1462060,Civil,Chittenden,VT,442915N,0731353W,98,Burlington,,9/1/1995
City of Montpelier,1462152,Civil,Washington,VT,441557N,0723418W,531,Montpelier,,9/1/1995
City of Newport,1462161,Civil,Orleans,VT,445615N,0721232W,679,Newport,,9/1/1995
City of Rutland,1462193,Civil,Rutland,VT,433633N,0725841W,571,Rutland,,9/1/1995
City of Saint Albans,1462196,Civil,Franklin,VT,444842N,0730505W,397,Saint Albans,,9/1/1995
City of South Burlington,1462212,Civil,Chittenden,VT,442817N,0731629W,95,Juniper Island,,9/1/1995
City of Vergennes,1462233,Civil,Addison,VT,441001N,0731520W,141,Vergennes West,,9/1/1995
City of Winooski,1462268,Civil,Chittenden,VT,442942N,0731103W,246,Burlington,,9/1/1995
Clarendon,1456894,Populated Place,Rutland,VT,433058N,0725811W,591,Rutland,,10/29/1980
Clarendon Springs,1456897,Populated Place,Rutland,VT,433252N,0730120W,682,West Rutland,,10/29/1980
Claycreek Farm,2680832,Locale,Rutland,VT,433951N,0731732W,243,Benson,,6/15/2011
Cleveland Corners,1456918,Populated Place,Lamoille,VT,443537N,0723345W,948,Morrisville,,10/29/1980
Clover Set Farm,2680829,Locale,Addison,VT,440807N,0730704W,397,Bristol,,6/15/2011
Cloverdale,1456927,Populated Place,Chittenden,VT,443623N,0725552W,653,Underhill,,10/29/1980
Cochran Ski Center,1918621,Locale,Chittenden,VT,442345N,0725855W,361,Richmond,,5/8/2001
Col Seth Warner Camp,1460741,Locale,Bennington,VT,424624N,0730821W,2129,Pownal,,10/29/1980
Colbyville,1456959,Populated Place,Washington,VT,442101N,0724432W,594,Middlesex,,10/29/1980
Colchester,1457561,Populated Place,Chittenden,VT,443238N,0730852W,272,Colchester,,10/29/1980
Colchester Shopping Plaza Shopping Center,1918625,Locale,Chittenden,VT,443216N,0731449W,138,Colchester,,5/8/2001
Cold River,1460403,Populated Place,Rutland,VT,433222N,0725230W,1365,Rutland,,10/29/1980
Cold Spring,1460404,Populated Place,Rutland,VT,434017N,0732424W,118,Putnam,,10/29/1980
Cold Spring Camp (historical),1919317,Locale,Essex,VT,445905N,0714106W,1686,Averill,,5/8/2001
Cold Springs Camp,1456976,Locale,Chittenden,VT,443958N,0731241W,151,Georgia Plains,,10/29/1980
Coleman Corner,1456982,Populated Place,Addison,VT,441531N,0731318W,210,Mount Philo,,10/29/1980
Coles Corner,1460405,Populated Place,Caledonia,VT,442937N,0720327W,1066,Saint Johnsbury,,10/29/1980
Collins-Perley Sports Center,1920558,Locale,Franklin,VT,444738N,0730431W,499,Saint Albans,,5/8/2001
Colonial Estates,1921823,Populated Place,Rutland,VT,433916N,0725801W,725,Chittenden,,5/11/2001
Colony Club,1921824,Locale,Rutland,VT,433919N,0724733W,1834,Pico Peak,,5/11/2001
Concord,1456992,Populated Place,Essex,VT,442544N,0715324W,876,Concord,,10/29/1980
Concord Corner,1456993,Populated Place,Essex,VT,442405N,0715141W,1519,Miles Pond,,10/29/1980
Congdon Camp,1461665,Locale,Bennington,VT,425051N,0730640W,2123,Stamford,,5/1/1991
Conicut Station (historical),1921367,Locale,Orange,VT,440246N,0720433W,420,Newbury,,5/8/2001
Conrad Antique Mall Shopping Center,1922316,Locale,Windsor,VT,434253N,0721732W,413,Hanover,,5/11/2001
Cookville,1457008,Populated Place,Orange,VT,440125N,0721723W,1112,West Topsham,,10/29/1980
Cooley Glen Shelter,1460754,Locale,Addison,VT,440300N,0725450W,3130,Lincoln,,10/29/1980
Copenhagen (historical),1919472,Populated Place,Caledonia,VT,Unknown,Unknown,,Unknown,,5/8/2001
Copley Country Club,1461789,Locale,Lamoille,VT,443332N,0723521W,751,Morrisville,,10/29/1980
Copper Flat,1460406,Populated Place,Orange,VT,435006N,0722002W,820,South Strafford,,10/29/1980
Copperfield (historical),1926761,Populated Place,Orange,VT,435435N,0721714W,1135,Vershire,,6/27/2001
Corinth Corner,1457022,Populated Place,Orange,VT,440120N,0721621W,1027,West Topsham,,10/29/1980
Corinth Corners,1457023,Populated Place,Orange,VT,440036N,0722056W,1483,West Topsham,,10/29/1980
Cornerford Station (historical),1919473,Locale,Caledonia,VT,Unknown,Unknown,,Unknown,,5/8/2001
Cornwall,1457024,Populated Place,Addison,VT,435739N,0731237W,358,Cornwall,,10/29/1980
Countryside Estates,1921830,Populated Place,Rutland,VT,433834N,0725819W,732,Chittenden,,5/11/2001
Coventry,1457029,Populated Place,Orleans,VT,445156N,0721553W,728,Irasburg,,10/29/1980
Cow Meadow Crossing (historical),1921376,Locale,Orange,VT,440605N,0720315W,407,Newbury,,5/8/2001
Cowles Cove Shelter,1919028,Locale,Washington,VT,441539N,0725357W,2707,Huntington,,5/8/2001
Cozy Corner,1457040,Populated Place,Chittenden,VT,443725N,0730704W,338,Essex Center,,10/29/1980
Cozy Meadow Mobile Home Park,1920226,Populated Place,Bennington,VT,424800N,0731312W,958,Pownal,,5/8/2001
Craftsbury,1457041,Populated Place,Orleans,VT,443812N,0722221W,919,Craftsbury,,10/29/1980
Craftsbury Common,1457042,Populated Place,Orleans,VT,443915N,0722255W,1240,Albany,,10/29/1980
Craftsbury Nordic Center,1919969,Locale,Orleans,VT,444044N,0722203W,1158,Craftsbury,,5/8/2001
Crazy Acres Farm,2723155,Locale,Addison,VT,441215N,0732050W,171,Vergennes West,,5/8/2012
Cream Hill,1457054,Populated Place,Addison,VT,435553N,0732023W,328,Bridport,,10/29/1980
Creek's Edge Farm,2723151,Locale,Addison,VT,440728N,0731552W,164,Snake Mountain,,5/8/2012
Crown Point Camping Area,1922319,Locale,Windsor,VT,432306N,0723005W,512,Cavendish,,5/11/2001
Crown Point Country Club,1461790,Locale,Windsor,VT,432030N,0722816W,1070,Springfield,,10/29/1980
Crystal Beach,1457064,Populated Place,Rutland,VT,433934N,0731124W,436,Bomoseen,,10/29/1980
Cuttingsville,1460770,Populated Place,Rutland,VT,432918N,0725256W,1014,Wallingford,,10/29/1980
Damon Crossing,1460407,Populated Place,Essex,VT,443140N,0714906W,1135,Gallup Mills,,10/29/1980
Danby,1460774,Populated Place,Rutland,VT,432046N,0725943W,692,Danby,,10/29/1980
Danby Four Corners,1460775,Populated Place,Rutland,VT,432117N,0730248W,1450,Dorset,,10/29/1980
Daniels Corner (historical),1918078,Locale,Addison,VT,Unknown,Unknown,,Unknown,,5/8/2001
Danville,1457105,Populated Place,Caledonia,VT,442440N,0720821W,1411,Joes Pond,,10/29/1980
Danville Center,1457104,Populated Place,Caledonia,VT,442512N,0720713W,1325,Saint Johnsbury,,10/29/1980
Darlings Mill (historical),1919480,Locale,Caledonia,VT,Unknown,Unknown,,Unknown,,5/8/2001
De La Bruere Dairy,2680835,Locale,Franklin,VT,445937N,0730407W,108,Highgate Center,,6/15/2011
Deansboro (historical),1919978,Populated Place,Orleans,VT,Unknown,Unknown,,Unknown,,5/8/2001
Deer Park,1457140,Locale,Windham,VT,424729N,0724241W,1519,Governors Mountain,,10/29/1980
Derby Center,1457153,Populated Place,Orleans,VT,445652N,0720758W,1010,Newport,,10/29/1980
Derby Line,1457154,Populated Place,Orleans,VT,450018N,0720556W,1030,West Charleston OE N,,10/29/1980
Deweys Mills,1457165,Populated Place,Windsor,VT,433829N,0722418W,551,Quechee,,10/29/1980
Diamond Run Mall Shopping Center,1921846,Locale,Rutland,VT,433503N,0725743W,633,Rutland,,5/11/2001
Dorset,1460794,Populated Place,Bennington,VT,431517N,0730555W,958,Dorset,,10/29/1980
Dorset Square Mall Shopping Center,1918637,Locale,Chittenden,VT,442804N,0731045W,315,Burlington,,5/8/2001
Dothan,1457183,Populated Place,Windsor,VT,434150N,0722035W,997,Hanover,,10/29/1980
Douglas Shelter,1461683,Locale,Bennington,VT,430841N,0725926W,2224,Peru,,6/1/1991
Dover,1460802,Populated Place,Windham,VT,425637N,0724814W,1916,West Dover,,10/29/1980
Dowdey Corner,1460408,Populated Place,Orange,VT,435329N,0723737W,942,Randolph,,10/29/1980
Downer 4-H Camp,1922332,Locale,Windsor,VT,434857N,0722449W,1342,Sharon,,5/11/2001
Downers,1457190,Populated Place,Windsor,VT,432401N,0723051W,610,Cavendish,,10/29/1980
Downingville,1460807,Populated Place,Addison,VT,440759N,0725856W,1325,Mount Ellen,,10/29/1980
Dows Crossing,1460409,Populated Place,Caledonia,VT,443003N,0721712W,1417,Caspian Lake,,10/29/1980
Dowsville,1460410,Populated Place,Washington,VT,441621N,0724927W,1289,Waterbury,,10/29/1980
Dubois Farm,2723149,Locale,Addison,VT,440511N,0731705W,200,Snake Mountain,,5/8/2012
Dummerston Center,1457211,Populated Place,Windham,VT,425612N,0723420W,751,Putney,,10/29/1980
Dunstable Farm,2680831,Locale,Washington,VT,442427N,0721954W,1362,Cabot,,6/15/2011
Durgy Hill Heights,1921849,Populated Place,Rutland,VT,433639N,0730252W,643,West Rutland,,5/11/2001
Dutch Hill Winter Sports Area,1461664,Locale,Bennington,VT,424901N,0730021W,1890,Stamford,,5/1/1991
Duxbury,1457229,Populated Place,Washington,VT,441937N,0724509W,420,Waterbury,,10/29/1980
Eagle Mountain Camp,1457237,Locale,Chittenden,VT,444038N,0731233W,157,Georgia Plains,,10/29/1980
Eagle Rock Camp,1457241,Locale,Rutland,VT,434338N,0731102W,725,Bomoseen,,10/29/1980
East Albany,1457244,Populated Place,Orleans,VT,444352N,0721858W,1168,Craftsbury,,10/29/1980
East Alburg,1457245,Populated Place,Grand Isle,VT,445823N,0731346W,112,East Alburg,,10/29/1980
East Arlington,1460821,Populated Place,Bennington,VT,430337N,0730826W,741,Arlington,,10/29/1980
East Barnard,1457246,Populated Place,Windsor,VT,434445N,0723234W,1010,Woodstock North,,10/29/1980
East Barnet Inwood Station,1457247,Populated Place,Caledonia,VT,441936N,0720215W,518,Barnet,,10/29/1980
East Barre,1457248,Populated Place,Washington,VT,440929N,0722701W,1132,Barre East,,10/29/1980
East Berkshire,1457251,Populated Place,Franklin,VT,445607N,0724233W,420,Richford,,10/29/1980
East Bethel,1457252,Populated Place,Windsor,VT,435224N,0723503W,581,South Royalton,,10/29/1980
East Braintree,1457253,Populated Place,Orange,VT,435945N,0723905W,718,Randolph,,10/29/1980
East Brighton,1457260,Populated Place,Essex,VT,444709N,0714825W,1158,Spectacle Pond,,10/29/1980
East Brookfield,1457262,Populated Place,Orange,VT,440139N,0723417W,702,Brookfield,,10/29/1980
East Brownington,1919986,Populated Place,Orleans,VT,444803N,0720508W,1384,Westmore,,5/8/2001
East Burke,1457264,Populated Place,Caledonia,VT,443521N,0715625W,886,Burke Mountain,,10/29/1980
East Cabot,1460411,Populated Place,Washington,VT,442323N,0721504W,1591,Cabot,,10/29/1980
East Calais,1457265,Populated Place,Washington,VT,442159N,0722547W,843,Plainfield,,10/29/1980
East Charleston,1457268,Populated Place,Orleans,VT,445017N,0715922W,1171,Island Pond,,10/29/1980
East Charlotte,1457269,Populated Place,Chittenden,VT,441911N,0731119W,377,Mount Philo,,10/29/1980
East Clarendon,1461815,Populated Place,Rutland,VT,433129N,0725620W,745,Rutland,,10/29/1980
East Concord,1457270,Populated Place,Essex,VT,442529N,0714513W,876,Miles Pond,,10/29/1980
East Corinth,1457271,Populated Place,Orange,VT,440350N,0721320W,702,East Corinth,,10/29/1980
East Craftsbury,1457272,Populated Place,Orleans,VT,443833N,0722035W,1299,Craftsbury,,10/29/1980
East Dorset,1460824,Populated Place,Bennington,VT,431423N,0730033W,787,Manchester,,10/29/1980
East Dover,1460825,Populated Place,Windham,VT,425704N,0724608W,1119,West Dover,,10/29/1980
East Dummerston,1457274,Populated Place,Windham,VT,425556N,0723311W,427,Putney,,10/29/1980
East Enosburg,1457275,Populated Place,Franklin,VT,445147N,0724410W,781,Cold Hollow Mountains,,10/29/1980
East Fairfield,1457276,Populated Place,Franklin,VT,444704N,0725130W,420,Bakersfield,,10/29/1980
East Fletcher,1457277,Populated Place,Franklin,VT,444247N,0725016W,430,Jeffersonville,,10/29/1980
East Franklin,1457278,Populated Place,Franklin,VT,445946N,0724955W,453,Enosburg Falls,,10/29/1980
East Georgia,1460412,Populated Place,Franklin,VT,444048N,0730459W,328,Milton,,10/29/1980
East Granville,1460826,Populated Place,Addison,VT,440101N,0724534W,860,Warren,,10/29/1980
East Greensboro,1460413,Populated Place,Orleans,VT,443417N,0721502W,1257,Caspian Lake,,10/29/1980
East Hardwick,1457279,Populated Place,Caledonia,VT,443118N,0721831W,1083,Caspian Lake,,10/29/1980
East Haven,1457280,Populated Place,Essex,VT,443951N,0715318W,1014,West Burke,,10/29/1980
East Highgate,1457283,Populated Place,Franklin,VT,445538N,0725916W,200,Sheldon Springs,,10/29/1980
East Hubbardton,1457293,Populated Place,Rutland,VT,434135N,0730817W,961,Bomoseen,,10/29/1980
East Jamaica,1460828,Populated Place,Windham,VT,430426N,0724405W,551,Townshend,,10/29/1980
East Johnson,1457295,Populated Place,Lamoille,VT,443824N,0723941W,581,Johnson,,10/29/1980
East Kansas,1460829,Populated Place,Bennington,VT,430328N,0730706W,928,Sunderland,,10/29/1980
East Lyndon,1457297,Populated Place,Caledonia,VT,443111N,0715728W,951,Burke Mountain,,10/29/1980
East Middlebury,1460830,Populated Place,Addison,VT,435824N,0730622W,407,East Middlebury,,10/29/1980
East Monkton,1460831,Populated Place,Addison,VT,441232N,0730652W,525,Bristol,,10/29/1980
East Montpelier,1457298,Populated Place,Washington,VT,441616N,0722913W,741,Plainfield,,10/29/1980
East Montpelier Center,1457299,Populated Place,Washington,VT,441701N,0723131W,1148,Montpelier,,10/29/1980
East Orange,1457304,Populated Place,Orange,VT,440541N,0722029W,1220,West Topsham,,10/29/1980
East Peacham,1457308,Populated Place,Caledonia,VT,442017N,0720926W,974,Peacham,,10/29/1980
East Pittsford,1460835,Populated Place,Rutland,VT,434016N,0725634W,1001,Chittenden,,10/29/1980
East Poultney,1457309,Populated Place,Rutland,VT,433135N,0731216W,502,Poultney,,10/29/1980
East Putney,1457310,Populated Place,Windham,VT,425938N,0722900W,377,Spofford,,10/29/1980
East Putney Station,1457312,Locale,Windham,VT,425853N,0722813W,299,Spofford,,10/29/1980
East Randolph,1457313,Populated Place,Orange,VT,435624N,0723318W,614,Randolph Center,,10/29/1980
East Richford,1457315,Populated Place,Franklin,VT,450040N,0723509W,509,Jay Peak OE N,,10/29/1980
East Roxbury,1457317,Populated Place,Washington,VT,440447N,0723906W,1181,Roxbury,,10/29/1980
East Rupert,1460836,Populated Place,Bennington,VT,431623N,0730730W,827,Pawlet,,10/29/1980
East Ryegate,1457318,Populated Place,Caledonia,VT,441218N,0720340W,489,Woodsville,,10/29/1980
East Saint Johnsbury,1457319,Populated Place,Caledonia,VT,442619N,0715644W,787,Concord,,10/29/1980
East Salisbury (historical),1918086,Populated Place,Addison,VT,Unknown,Unknown,,Unknown,,5/8/2001
East Sheldon,1457320,Populated Place,Franklin,VT,445356N,0725226W,574,Enosburg Falls,,10/29/1980
East Shoreham,1457321,Populated Place,Addison,VT,435137N,0731510W,269,Orwell,,10/29/1980
East Sutton Ridge,1457324,Locale,Caledonia,VT,444033N,0715909W,1522,West Burke,,10/29/1980
East Thetford,1457325,Populated Place,Orange,VT,434842N,0721119W,410,Lyme,,10/29/1980
East Topsham,1457326,Populated Place,Orange,VT,440716N,0721358W,942,East Corinth,,10/29/1980
East Wallingford,1460837,Populated Place,Rutland,VT,432658N,0725233W,1194,Wallingford,,10/29/1980
East Warren,1460838,Populated Place,Washington,VT,440634N,0724911W,1388,Warren,,10/29/1980
East Wells,1460414,Populated Place,Rutland,VT,432518N,0730828W,1125,Wells,,10/29/1980
Eastridge Acres,1921859,Populated Place,Rutland,VT,433639N,0725553W,925,Rutland,,5/11/2001
Ecole Champlain,1457333,Populated Place,Addison,VT,441430N,0731747W,131,Vergennes West,,10/29/1980
Eden,1457336,Populated Place,Lamoille,VT,444226N,0723244W,1138,Eden,,10/29/1980
Eden Mills,1457337,Populated Place,Lamoille,VT,444248N,0723148W,1132,Eden,,10/29/1980
Edgewater,1457341,Populated Place,Washington,VT,441925N,0722003W,1299,Marshfield,,10/29/1980
Edson Hill Cross Country Ski Center,1918323,Locale,Lamoille,VT,443040N,0724333W,1401,Sterling Mountain,,5/8/2001
Egypt,1460415,Populated Place,Caledonia,VT,443427N,0715914W,807,Burke Mountain,,10/29/1980
Ekwanok Country Club,1461791,Locale,Bennington,VT,430924N,0730410W,823,Manchester,,10/29/1980
Elephant Mountain Camping Area,1918091,Locale,Addison,VT,440426N,0730502W,518,South Mountain,,5/8/2001
Ely,1457366,Populated Place,Orange,VT,435235N,0721035W,430,Fairlee,,10/29/1980
Emerson,1460851,Populated Place,Windsor,VT,435027N,0724749W,807,Rochester,,10/29/1980
Emily Proctor Shelter,1460852,Locale,Addison,VT,440005N,0725556W,3458,Lincoln,,10/29/1980
Enosburg Center,1457372,Populated Place,Franklin,VT,445300N,0724517W,866,Enosburg Falls,,10/29/1980
Enosburg Falls,1457373,Populated Place,Franklin,VT,445425N,0724823W,423,Enosburg Falls,,10/29/1980
Enosburg Falls Golf Course,1920590,Locale,Franklin,VT,445440N,0724829W,400,Enosburg Falls,,5/8/2001
Enosburg Falls Shopping Center,1920594,Locale,Franklin,VT,445426N,0724855W,384,Enosburg Falls,,5/8/2001
Equinox Square Shopping Center,1920254,Locale,Bennington,VT,431034N,0730311W,699,Manchester,,5/8/2001
Essex Center,1457376,Populated Place,Chittenden,VT,443043N,0730334W,486,Essex Center,,10/29/1980
Essex County,1461761,Civil,Essex,VT,444340N,0714410W,1699,Maidstone Lake,,2/1/1993
Essex Farm,2723152,Locale,Addison,VT,441125N,0731929W,118,Vergennes West,,5/8/2012
Essex Junction,1457378,Populated Place,Chittenden,VT,442926N,0730639W,344,Essex Junction,,10/29/1980
Ethan Allen Shopping Center,1918660,Locale,Chittenden,VT,443022N,0731443W,167,Colchester,,5/8/2001
Ethan Allen Tower,1460501,Locale,Chittenden,VT,443017N,0731424W,187,Colchester,,10/1/1992
Evansville,1457381,Populated Place,Orleans,VT,444811N,0720749W,1106,Orleans,,10/29/1980
Ewells Mills,1457387,Populated Place,Caledonia,VT,442136N,0721017W,1289,Peacham,,10/29/1980
Fair Haven,1457388,Populated Place,Rutland,VT,433541N,0731556W,384,Thorn Hill,,10/29/1980
Fairbanks (historical),1919502,Populated Place,Caledonia,VT,Unknown,Unknown,,Unknown,,5/8/2001
Fairbanks Mills,1457390,Locale,Caledonia,VT,443009N,0721109W,2110,Stannard,,10/29/1980
Fairfax,1457391,Populated Place,Franklin,VT,443955N,0730031W,364,Milton,,10/29/1980
Fairfax Falls,1457392,Populated Place,Franklin,VT,443901N,0725916W,443,Gilson Mountain,,10/29/1980
Fairfield,1457393,Populated Place,Franklin,VT,444807N,0725644W,531,Fairfield,,10/29/1980
Fairfield Plaza Shopping Center,1920939,Locale,Windham,VT,425227N,0723341W,289,Brattleboro,,5/8/2001
Fairfield Station,1457397,Locale,Franklin,VT,444902N,0725538W,394,Fairfield,,10/29/1980
Fairlee,1457398,Populated Place,Orange,VT,435427N,0720836W,427,Fairlee,,10/29/1980
Fairlee Drive-In,2633590,Locale,Orange,VT,435521N,0720734W,420,Fairlee,,10/14/2010
Fairview Farm (historical),1922345,Locale,Windsor,VT,Unknown,Unknown,,Unknown,,5/11/2001
Fairview Village,1920940,Populated Place,Windham,VT,425025N,0723359W,427,Brattleboro,,5/8/2001
Falls of Lana Picnic Grounds,1461695,Locale,Addison,VT,435433N,0730333W,965,East Middlebury,,6/1/1991
Farm Resort Golf Course,1918334,Locale,Lamoille,VT,443132N,0723721W,764,Morrisville,,5/8/2001
Farmingdale,1460416,Populated Place,Addison,VT,435753N,0730806W,387,Cornwall,,10/29/1980
Fay Fuller Camp,1460864,Locale,Bennington,VT,425445N,0730636W,1404,Woodford,,10/29/1980
Fays Corner,1457415,Populated Place,Chittenden,VT,442406N,0730228W,568,Essex Junction,,10/29/1980
Fayville,1460866,Populated Place,Bennington,VT,430022N,0730641W,1821,Sunderland,,10/29/1980
Felchville,1457418,Populated Place,Windsor,VT,432723N,0723216W,758,Cavendish,1/1/1962,10/29/1980
Fernville,1460870,Populated Place,Addison,VT,435139N,0730404W,600,Brandon,,10/29/1980
Ferrisburgh,1457424,Populated Place,Addison,VT,441220N,0731446W,194,Vergennes East,,8/27/2002
Fieldsville,1460417,Populated Place,Windsor,VT,433219N,0722636W,689,Hartland,,10/29/1980
Five Corners,1457443,Locale,Windsor,VT,433136N,0724037W,1325,Plymouth,,10/29/1980
Five Corners,1457444,Locale,Orange,VT,435222N,0721349W,965,Lyme,,10/29/1980
Fletcher,1457453,Populated Place,Franklin,VT,444100N,0725449W,617,Gilson Mountain,,10/29/1980
Florence,1457459,Populated Place,Rutland,VT,434259N,0730341W,433,Proctor,,10/29/1980
Folsom,1460418,Populated Place,Caledonia,VT,443503N,0715849W,738,Burke Mountain,,10/29/1980
Fonda,1457467,Populated Place,Franklin,VT,445217N,0730551W,239,Saint Albans,,10/29/1980
Forest Dale,1460880,Populated Place,Rutland,VT,434940N,0730313W,594,Brandon,1/1/1968,10/29/1980
Forest Farms,1920263,Populated Place,Bennington,VT,430740N,0725237W,2083,Peru,,5/8/2001
Forestdale Iron Furnace,1921885,Locale,Rutland,VT,434755N,0730526W,371,Brandon,,5/11/2001
Fort Montgomery Ruins,950485,Locale,Clinton,NY,450021N,0732055W,105,Rouses Point OE N,,1/23/1980
Fosters Pond Neighborhood,1919512,Locale,Caledonia,VT,Unknown,Unknown,,Unknown,,5/8/2001
Four Corners,1457478,Locale,Orange,VT,440914N,0720513W,627,Woodsville,,10/29/1980
Four Corners,1920964,Locale,Windham,VT,425127N,0724650W,1798,Jacksonville,,5/8/2001
Fox Run Cross Country Ski Center,1922363,Locale,Windsor,VT,432503N,0724200W,1033,Ludlow,,5/11/2001
Fox Run Golf Course,1922364,Locale,Windsor,VT,432503N,0724200W,1033,Ludlow,,5/11/2001
Foxville,1457487,Populated Place,Orange,VT,440814N,0722856W,1493,Barre East,,10/29/1980
Frank D Comerford Hydro-Electric Plant,1461792,Locale,Caledonia,VT,441938N,0720010W,607,Barnet,,10/29/1980
Franklin,1457488,Populated Place,Franklin,VT,445855N,0725458W,446,Sheldon Springs,,10/29/1980
Franklin County,1461762,Civil,Franklin,VT,445127N,0725443W,715,Fairfield,,2/1/1993
Franklin County Rod and Gun Club (historical),1920617,Locale,Franklin,VT,445116N,0730529W,377,Saint Albans,,5/8/2001
Franklin Rod and Gun Club (historical),1920619,Locale,Franklin,VT,Unknown,Unknown,,Unknown,,5/8/2001
Freedleyville,1460882,Populated Place,Bennington,VT,431527N,0730028W,794,Dorset,,10/29/1980
French Hollow,1460886,Populated Place,Bennington,VT,431045N,0725254W,1519,Peru,,10/29/1980
Frost Mill,1922368,Locale,Windsor,VT,433739N,0723053W,676,Woodstock North,,5/11/2001
Fryslan Farm,2723150,Locale,Addison,VT,440934N,0731715W,154,Vergennes West,,5/8/2012
Gallup Mills,1457512,Populated Place,Essex,VT,443430N,0714703W,1302,Gallup Mills,,10/29/1980
Garfield,1457522,Populated Place,Lamoille,VT,443609N,0723210W,1093,Morrisville,,10/29/1980
Gassetts,1457524,Populated Place,Windsor,VT,431928N,0723624W,715,Chester,,10/29/1980
Gaysville,1457531,Populated Place,Windsor,VT,434642N,0724156W,630,Bethel,,10/29/1980
Gebbie Corner,1460419,Populated Place,Orleans,VT,443755N,0721705W,1863,Craftsbury,,10/29/1980
Georgia Center,1461772,Populated Place,Franklin,VT,444339N,0730703W,384,Milton,,10/29/1980
Georgia Plains,1457534,Populated Place,Franklin,VT,444316N,0730950W,262,Georgia Plains,,10/29/1980
Gilberts Tannery,1457541,Populated Place,Franklin,VT,445145N,0724536W,564,Bakersfield,,10/29/1980
Gilman,1457547,Populated Place,Essex,VT,442444N,0714320W,863,Gilman,,10/29/1980
Glastenbury,1460349,Populated Place,Bennington,VT,430001N,0730458W,3002,Sunderland,5/15/1900,1/1/1991
Glastenbury Camp,1460904,Locale,Bennington,VT,425828N,0730422W,3570,Woodford,,10/29/1980
Glastenbury Mountain Lookout,1461659,Locale,Bennington,VT,425841N,0730417W,3743,Woodford,,5/1/1991
Gleason (historical),1919516,Populated Place,Caledonia,VT,Unknown,Unknown,,Unknown,,5/8/2001
Glen Ellen Ski Area,1461793,Locale,Washington,VT,441025N,0725422W,1886,Mount Ellen,,10/29/1980
Glover,1457558,Populated Place,Orleans,VT,444225N,0721113W,951,Crystal Lake,,10/29/1980
Godrey Ochee Bed and Mill,1920268,Locale,Bennington,VT,Unknown,Unknown,,Unknown,,5/8/2001
Gold Brook Campground,1918344,Locale,Lamoille,VT,442630N,0724143W,784,Stowe,,5/8/2001
Goodrich Corner,1460420,Populated Place,Addison,VT,440547N,0732244W,203,Port Henry,,10/29/1980
Goodrich Four Corners,1457567,Populated Place,Windsor,VT,434518N,0721645W,617,South Strafford,,10/29/1980
Goose City,1460912,Populated Place,Windham,VT,425740N,0724729W,1286,West Dover,,10/29/1980
Goose Green,1457573,Locale,Orange,VT,440047N,0721540W,817,West Topsham,,10/29/1980
Goose Point Campground,1918519,Locale,Grand Isle,VT,445524N,0731615W,95,Rouses Point,,5/8/2001
Gordon Landing,1460421,Populated Place,Grand Isle,VT,444119N,0732048W,121,South Hero,,10/29/1980
Gorhamtown,1460422,Populated Place,Rutland,VT,433422N,0731126W,627,Poultney,,10/29/1980
Goshen,1457581,Populated Place,Orange,VT,440257N,0720853W,1096,East Corinth,,10/29/1980
Goshen,1460914,Populated Place,Addison,VT,435058N,0730119W,1132,Brandon,,10/29/1980
Goshen Four Corners,1460918,Locale,Addison,VT,435032N,0725944W,1453,Mount Carmel,,10/29/1980
Goslant Mill (historical),1919069,Locale,Washington,VT,Unknown,Unknown,,Unknown,,5/8/2001
Goslants Mill,1460423,Populated Place,Caledonia,VT,442752N,0721309W,1686,Joes Pond,,10/29/1980
Goulds Mill,1457586,Populated Place,Windsor,VT,431616N,0722657W,292,Springfield,,10/29/1980
Grafton,1457591,Populated Place,Windham,VT,431018N,0723622W,843,Saxtons River,,10/29/1980
Grafton Cross Country Ski Center,1920974,Locale,Windham,VT,430904N,0723721W,906,Saxtons River,,5/8/2001
Grahamsville,1457594,Populated Place,Windsor,VT,432511N,0724224W,1027,Ludlow,5/8/2008,10/29/1980
Granby,1457595,Populated Place,Essex,VT,443414N,0714531W,1411,Gallup Mills,,10/29/1980
Grand Isle,1457600,Populated Place,Grand Isle,VT,444321N,0731732W,174,South Hero,,10/29/1980
Grand Isle County,1461763,Civil,Grand Isle,VT,444749N,0731741W,138,North Hero,,2/1/1993
Grand Isle Ferry,1457602,Locale,Grand Isle,VT,444134N,0732142W,95,South Hero,,10/29/1980
Grand Isle Station,1457604,Populated Place,Grand Isle,VT,444202N,0731945W,220,South Hero,,10/29/1980
Grandview Acres,1921901,Populated Place,Rutland,VT,433644N,0725635W,846,Rutland,,5/11/2001
Grandview Grange,1918110,Locale,Addison,VT,440521N,0731809W,285,Snake Mountain,,5/8/2001
Grangerville,1921902,Populated Place,Rutland,VT,434324N,0730020W,522,Proctor,,5/11/2001
Graniteville,1457608,Populated Place,Washington,VT,440904N,0722934W,1276,Barre East,,10/29/1980
Granville,1460925,Populated Place,Addison,VT,435905N,0725046W,1001,Hancock,,10/29/1980
Greeleys Mill (historical),1921904,Locale,Rutland,VT,Unknown,Unknown,,Unknown,,5/11/2001
Green Acres,1921905,Populated Place,Rutland,VT,433728N,0725623W,814,Rutland,,5/11/2001
Green Bay,1457627,Populated Place,Caledonia,VT,441817N,0721208W,1555,Peacham,,10/29/1980
Green Mountain Cabins,1457630,Locale,Washington,VT,442133N,0724752W,423,Waterbury,,10/29/1980
Green Mountain Camp,1457631,Locale,Rutland,VT,434453N,0731157W,591,Bomoseen,,10/29/1980
Green Mountain Dairy Farm,2680740,Locale,Franklin,VT,445423N,0730142W,315,Highgate Center,,6/15/2011
Green Mountain Golf Course,1921908,Locale,Rutland,VT,434206N,0724927W,1316,Pico Peak,,5/11/2001
Green Mountain Mall Shopping Center,1919522,Locale,Caledonia,VT,442739N,0720050W,597,Saint Johnsbury,,5/8/2001
Green Mountain Shopping Plaza Shopping Center,1921910,Locale,Rutland,VT,433510N,0725815W,568,Rutland,,5/11/2001
Green Mountain Touring Center,1921427,Locale,Orange,VT,435514N,0723848W,666,Randolph,,5/8/2001
Green River,1457635,Populated Place,Windham,VT,424633N,0724005W,702,Governors Mountain,,10/29/1980
Green Valley Campground,1919066,Locale,Washington,VT,441609N,0723006W,774,Montpelier,,5/8/2001
Greenbank Hollow,1460454,Populated Place,Caledonia,VT,442238N,0720716W,1119,Saint Johnsbury,,8/27/2002
Greenbush,1457640,Populated Place,Windsor,VT,432501N,0723104W,604,Cavendish,,10/29/1980
Greendale Camp and Picnic Grounds,1461698,Locale,Windsor,VT,432103N,0724918W,1713,Weston,,6/1/1991
Greens Corners,1457643,Populated Place,Franklin,VT,445137N,0730156W,400,Saint Albans,,10/29/1980
Greensboro,1457644,Populated Place,Orleans,VT,443435N,0721744W,1394,Caspian Lake,,10/29/1980
Greensboro Bend,1457645,Populated Place,Orleans,VT,443256N,0721553W,1178,Caspian Lake,,10/29/1980
Greensboro Depot,1920010,Locale,Orleans,VT,443249N,0721550W,1165,Caspian Lake,,5/8/2001
Greenwall Shelter,1461740,Locale,Rutland,VT,432628N,0725542W,2014,Wallingford,,2/1/1991
Greenwood Lodge and Tent Sites,1920271,Locale,Bennington,VT,425244N,0730438W,2169,Woodford,,5/8/2001
Griffins Ten Acre Campground,1918113,Locale,Addison,VT,440152N,0732412W,121,Port Henry,,5/8/2001
Griffith Shelter,1461734,Locale,Rutland,VT,431809N,0725730W,2582,Danby,,2/1/1991
Griswold Station (historical),1919523,Locale,Caledonia,VT,Unknown,Unknown,,Unknown,,5/8/2001
Groton,1457657,Populated Place,Caledonia,VT,441237N,0721143W,791,Groton,,10/29/1980
Grout Pond Recreation Site,1461667,Locale,Windham,VT,430244N,0725713W,2320,Stratton Mountain,,5/1/1991
Grove,1460424,Populated Place,Windham,VT,424510N,0724236W,1453,Governors Mountain,,10/29/1980
Grove Picnic Shelter,1920272,Locale,Bennington,VT,430108N,0731053W,850,Arlington,,5/8/2001
Guildhall,1457666,Populated Place,Essex,VT,443354N,0713335W,866,Groveton,,10/29/1980
Guildhall Station,1457667,Locale,Essex,VT,443357N,0713528W,879,Groveton,,10/29/1980
Guilford,1457668,Populated Place,Windham,VT,424904N,0723435W,443,Brattleboro,,10/29/1980
Guilford Center,1457669,Populated Place,Windham,VT,424732N,0723729W,712,Governors Mountain,,10/29/1980
Haines Manor,1920274,Populated Place,Bennington,VT,431024N,0730234W,758,Manchester,,5/8/2001
Half Moon State Park Campground,1921912,Locale,Rutland,VT,434131N,0731258W,627,Bomoseen,,5/11/2001
Halfway House,1457688,Locale,Chittenden,VT,443145N,0725033W,1841,Mount Mansfield,,10/29/1980
Halifax,1457691,Populated Place,Windham,VT,424611N,0724443W,1581,Governors Mountain,,10/29/1980
Hamilton Farm,2680837,Locale,Windham,VT,425240N,0724020W,1184,Newfane,,6/15/2011
Hammondsville,1457708,Populated Place,Windsor,VT,432925N,0723311W,997,Cavendish,,10/29/1980
Hancock,1460955,Populated Place,Addison,VT,435534N,0725028W,906,Hancock,,10/29/1980
Hanksville,1460960,Populated Place,Chittenden,VT,441452N,0725743W,886,Mount Ellen,,10/29/1980
Hapgood Pond Camp and Picnic Grounds,1461716,Locale,Bennington,VT,431518N,0725237W,1496,Danby,,2/1/1991
Hapgood Pond Camping Area,1920276,Locale,Bennington,VT,431511N,0725321W,1542,Danby,,5/8/2001
Happy Hill Cabin,1457719,Locale,Windsor,VT,434338N,0722159W,1470,Hanover,,10/29/1980
Harbor View Plaza Shopping Center,1918697,Locale,Chittenden,VT,443303N,0731345W,131,Colchester,,5/8/2001
Hardscrabble Corner,1457723,Populated Place,Windsor,VT,431542N,0722833W,627,Springfield,,10/29/1980
Hardwick,1457725,Populated Place,Caledonia,VT,443017N,0722205W,814,Caspian Lake,,10/29/1980
Hardwick Center,1457726,Populated Place,Caledonia,VT,443147N,0722013W,1168,Caspian Lake,,10/29/1980
Hardwick Street,1457727,Populated Place,Caledonia,VT,443259N,0721758W,1381,Caspian Lake,,10/29/1980
Harmonyville,1460964,Populated Place,Windham,VT,430218N,0723945W,463,Townshend,,10/29/1980
Harriman Power Plant,1461794,Locale,Windham,VT,424527N,0725540W,1158,Readsboro,,10/29/1980
Harris Hill Ski Jump,2729630,Locale,Windham,VT,425136N,0723418W,515,Brattleboro,,7/23/2012
Harrisville,1457742,Populated Place,Windham,VT,424856N,0724432W,1365,Governors Mountain,,10/29/1980
Hartford,1457745,Populated Place,Windsor,VT,433938N,0722018W,394,Hanover,,10/29/1980
Hartland,1457747,Populated Place,Windsor,VT,433226N,0722356W,597,Hartland,,10/29/1980
Hartland Four Corners,1457748,Populated Place,Windsor,VT,433247N,0722528W,627,Hartland,,10/29/1980
Hartwellville,1457752,Populated Place,Essex,VT,443848N,0715335W,1001,West Burke,,10/29/1980
Harvey Hollow,1457754,Populated Place,Caledonia,VT,442300N,0720836W,1240,Joes Pond,,10/29/1980
Harwood Farm,2723157,Locale,Addison,VT,440512N,0731630W,249,Snake Mountain,,5/8/2012
Hatch Farm,2723158,Locale,Addison,VT,441003N,0731954W,148,Vergennes West,,5/8/2012
Haystack Golf and Country Club,1921006,Locale,Windham,VT,425502N,0725257W,1732,Mount Snow,,5/8/2001
Haystack Mountain Ski Area,1461747,Locale,Windham,VT,425525N,0725421W,2684,Mount Snow,,2/1/1991
Haystack Ski Center,1921007,Locale,Windham,VT,425527N,0725344W,2011,Mount Snow,,5/8/2001
Hazens Notch Ski Touring Center,1920637,Locale,Franklin,VT,445237N,0723512W,850,Jay Peak,,5/8/2001
Head of Lake Champlain,952479,Locale,Washington,NY,433434N,0732453W,95,Whitehall,,1/23/1980
Healdville,1460979,Populated Place,Rutland,VT,432553N,0724556W,1444,Mount Holly,,10/29/1980
Hearts Bend Boys and Girls Camp,1921008,Locale,Windham,VT,425950N,0724108W,922,Newfane,,5/8/2001
Heartwellville,1460980,Populated Place,Bennington,VT,424947N,0725915W,1781,Readsboro,,10/29/1980
Hectorville,1457789,Populated Place,Franklin,VT,445018N,0723630W,738,Hazens Notch,,10/29/1980
Heritage Hill Development,1921917,Populated Place,Rutland,VT,433724N,0725639W,758,Rutland,,5/11/2001
Hermitage Touring Center,1921010,Locale,Windham,VT,425541N,0725355W,2205,Mount Snow,,5/8/2001
Hewitts Corners,1457807,Populated Place,Windsor,VT,434324N,0722955W,1070,Quechee,,10/29/1980
Hidden Acres Campground,1921011,Locale,Windham,VT,425550N,0723215W,338,Putney,,5/8/2001
Hidden Pasture Farm,2723114,Locale,Bennington,VT,424751N,0731456W,686,Pownal,,5/8/2012
Hidden Valley,1920283,Populated Place,Bennington,VT,430003N,0731146W,978,Arlington,,5/8/2001
Hidden Valley Campground,1922401,Locale,Windsor,VT,431738N,0723151W,846,Chester,,5/11/2001
Hideaway Campgrounds,1922402,Locale,Windsor,VT,432334N,0724031W,1096,Ludlow,,5/11/2001
Highgate Center,1457820,Populated Place,Franklin,VT,445620N,0730236W,302,Highgate Center,,10/29/1980
Highgate Falls,1457822,Populated Place,Franklin,VT,445539N,0730259W,236,Highgate Center,,10/29/1980
Highgate Shopping Plaza Shopping Center,1920647,Locale,Franklin,VT,445025N,0730443W,384,Saint Albans,,5/8/2001
Highgate Springs,1457823,Populated Place,Franklin,VT,445846N,0730619W,118,Highgate Center,,10/29/1980
Highland Golf Course,1922403,Locale,Windsor,VT,433859N,0722648W,682,Quechee,,5/11/2001
Highland Green Camp,1919545,Locale,Caledonia,VT,441945N,0721253W,1558,Peacham,,5/8/2001
Hildene Ski Touring Center,1920285,Locale,Bennington,VT,430849N,0730517W,997,Manchester,,5/8/2001
Hildene Winter Sports Area,1461675,Locale,Bennington,VT,430942N,0730351W,791,Manchester,,6/1/1991
Hill Farm Estates,1920649,Populated Place,Franklin,VT,444840N,0730400W,587,Saint Albans,,5/8/2001
Hill Top Farm,2723115,Locale,Bennington,VT,424707N,0731355W,1063,Pownal,,5/8/2012
Hinesburg,1457839,Populated Place,Chittenden,VT,441945N,0730638W,341,Hinesburg,,10/29/1980
Hogback Ski Area (historical),1457858,Locale,Windham,VT,425106N,0724755W,2221,Jacksonville,,10/29/1980
Holden-Leonard Mill Complex,1920286,Locale,Bennington,VT,425320N,0731203W,643,Bennington,,5/8/2001
Holiday Hill Camp,1920024,Locale,Orleans,VT,444150N,0722117W,1191,Craftsbury,,5/8/2001
Holland,1457867,Populated Place,Orleans,VT,445801N,0720008W,1417,West Charleston,,10/29/1980
Holy Cross Camp,1457877,Locale,Chittenden,VT,443302N,0731547W,125,Colchester Point,,10/29/1980
Holyoke Farm,2633592,Locale,Franklin,VT,444639N,0730436W,597,Saint Albans,,10/14/2010
Homestead Campgrounds,1920655,Locale,Franklin,VT,444127N,0730623W,387,Milton,,5/8/2001
Horseshoe Acres,1922408,Locale,Windsor,VT,431710N,0724246W,1273,Andover,,5/11/2001
Hortonia,1457899,Populated Place,Rutland,VT,434443N,0731323W,486,Bomoseen,1/1/1963,10/29/1980
Hortonville,1461006,Populated Place,Rutland,VT,432811N,0724817W,1542,Mount Holly,,10/29/1980
Hough Crossing,1460425,Populated Place,Addison,VT,434935N,0731903W,239,Orwell,1/1/1959,10/29/1980
Houghtonville,1457910,Populated Place,Windham,VT,431150N,0723845W,1106,Windham,,10/29/1980
Houghtonville,1921016,Populated Place,Windham,VT,431154N,0723850W,1122,Windham,,5/8/2001
Hour Glass Country Club and Golf Course,1922409,Locale,Windsor,VT,433010N,0722323W,318,Hartland,,5/11/2001
Howells Camping Area,1920288,Locale,Bennington,VT,430328N,0730820W,840,Arlington,,5/8/2001
Hoyts Landing,1922413,Locale,Windsor,VT,431540N,0722558W,285,Springfield,,5/11/2001
Hubbard Corner,1457923,Populated Place,Franklin,VT,444447N,0730646W,394,Milton,,10/29/1980
Hubbardton,1457926,Populated Place,Rutland,VT,434226N,0731103W,420,Bomoseen,,10/29/1980
Huizenga Dairy Farm,2680739,Locale,Addison,VT,441257N,0730944W,453,Vergennes East,,6/15/2011
Hump Brook Tent Platforms,1919076,Locale,Washington,VT,441825N,0725244W,2762,Huntington,,5/8/2001
Huntington,1457937,Populated Place,Chittenden,VT,441931N,0725914W,617,Huntington,,10/29/1980
Huntington Center,1457938,Populated Place,Chittenden,VT,441749N,0725803W,689,Huntington,,10/29/1980
Huntsville,1457941,Populated Place,Franklin,VT,444159N,0725903W,479,Gilson Mountain,,10/29/1980
Hutchins,1457949,Populated Place,Orleans,VT,445134N,0723635W,650,Hazens Notch,,10/29/1980
Hyde Manor,1457954,Populated Place,Rutland,VT,434700N,0731209W,404,Sudbury,,10/29/1980
Hyde Park,1457955,Populated Place,Lamoille,VT,443538N,0723659W,666,Morrisville,,10/29/1980
Hydeville,1457957,Populated Place,Rutland,VT,433620N,0731341W,436,Poultney,,10/29/1980
Idle Hours Campground,1919551,Locale,Caledonia,VT,442914N,0722158W,942,Cabot,,5/8/2001
Ingalls 4-H Camp,1918524,Locale,Grand Isle,VT,444624N,0731915W,138,North Hero,,5/8/2001
Intervale,1920290,Populated Place,Bennington,VT,430839N,0725319W,1345,Peru,,5/8/2001
Ira,1457969,Populated Place,Rutland,VT,433204N,0730343W,856,West Rutland,,10/29/1980
Irasburg,1457972,Populated Place,Orleans,VT,444812N,0721646W,932,Irasburg,,10/29/1980
Irasville,1461016,Populated Place,Washington,VT,441053N,0725025W,774,Waitsfield,,10/29/1980
Iroquois Land Family Campground,1921945,Locale,Rutland,VT,433333N,0725628W,906,Rutland,,5/11/2001
Island Pond,1457977,Populated Place,Essex,VT,444853N,0715249W,1188,Island Pond,,10/29/1980
Isle La Motte Lighthouse,1918528,Locale,Grand Isle,VT,445424N,0732036W,118,Rouses Point,,5/8/2001
Isle la Motte,1457979,Populated Place,Grand Isle,VT,445237N,0732019W,184,Rouses Point,,10/29/1980
Ithiel Falls,1460426,Populated Place,Lamoille,VT,443857N,0724328W,548,Johnson,,10/29/1980
Jackson Corner,1460427,Populated Place,Orange,VT,440514N,0723101W,1480,Brookfield,,10/29/1980
Jacksonville,1457983,Populated Place,Windham,VT,424749N,0724918W,1358,Jacksonville,,10/29/1980
Jakes Marina,1460500,Locale,Chittenden,VT,443245N,0731306W,128,Colchester,,10/1/1992
Jamaica,1461018,Populated Place,Windham,VT,430601N,0724642W,715,Jamaica,,10/29/1980
Jay,1457991,Populated Place,Orleans,VT,445651N,0722613W,922,North Troy,,10/29/1980
Jay Camp,1457994,Locale,Orleans,VT,445448N,0723018W,2257,Jay Peak,,10/29/1980
Jeffersonville,1457997,Populated Place,Lamoille,VT,443838N,0724945W,466,Jeffersonville,,10/29/1980
Jenneville,1460428,Populated Place,Windsor,VT,433204N,0722921W,994,Hartland,,10/29/1980
Jericho,1458000,Populated Place,Windsor,VT,434210N,0722223W,1063,Hanover,,10/29/1980
Jericho,1458001,Populated Place,Chittenden,VT,443014N,0725951W,564,Underhill,,10/29/1980
Jericho Center,1458003,Populated Place,Chittenden,VT,442808N,0725820W,758,Richmond,,10/29/1980
Jerusalem,1461021,Populated Place,Windsor,VT,435018N,0724625W,1647,Rochester,,10/29/1980
Jerusalem,1461022,Populated Place,Addison,VT,441011N,0725813W,1463,Mount Ellen,,10/29/1980
Jerusalem (historical),1918128,Populated Place,Addison,VT,Unknown,Unknown,,Unknown,,5/8/2001
Johnson,1458021,Populated Place,Lamoille,VT,443808N,0724049W,499,Johnson,,10/29/1980
Johnson Shopping Center,1918376,Locale,Lamoille,VT,443807N,0724056W,492,Johnson,,5/8/2001
Jones Dock,1458034,Locale,Addison,VT,435831N,0732422W,125,Crown Point,,10/29/1980
Jonesville,1458039,Populated Place,Chittenden,VT,442302N,0725615W,325,Richmond,,10/29/1980
Joslin Turn,1458043,Locale,Essex,VT,442140N,0715041W,856,Littleton,,10/29/1980
Journeys End Camp,1458044,Locale,Orleans,VT,450017N,0722838W,1598,North Troy OE N,,10/29/1980
Kamp Kill Kare (historical),1920670,Locale,Franklin,VT,444553N,0731053W,95,Saint Albans Bay,,5/8/2001
Kansas,1461036,Populated Place,Bennington,VT,430328N,0730751W,827,Arlington,,10/29/1980
Kayhart Dairy,2723112,Locale,Addison,VT,440239N,0732454W,148,Port Henry,,5/8/2012
Keeler Bay,1458056,Populated Place,Grand Isle,VT,443935N,0731910W,108,South Hero,,10/29/1980
Keenes Corner (historical),1920044,Locale,Orleans,VT,Unknown,Unknown,,Unknown,,5/8/2001
Kelley Stand,1461039,Locale,Bennington,VT,430312N,0730317W,2149,Sunderland,,10/29/1980
Kendricks Corner,1458067,Populated Place,Windsor,VT,432044N,0723116W,581,Chester,,10/29/1980
Kennedy Corners,1921453,Populated Place,Orange,VT,440055N,0722548W,1145,Washington,,5/8/2001
Kennland Farms,2723159,Locale,Addison,VT,440758N,0731713W,184,Vergennes West,,5/8/2012
Kenolie Village Campground,1921042,Locale,Windham,VT,425900N,0723821W,479,Newfane,,5/8/2001
Kents Corners,1458073,Populated Place,Washington,VT,442207N,0722906W,1125,Plainfield,,10/29/1980
Kenyon Sawmill (historical),1919093,Locale,Washington,VT,442345N,0724634W,751,Bolton Mountain,,5/8/2001
Kettle Pond Group Camping Area,1919565,Locale,Caledonia,VT,441740N,0721828W,1470,Marshfield,,5/8/2001
Kid Gore Shelter,1461674,Locale,Bennington,VT,430055N,0730233W,2749,Sunderland,,6/1/1991
Killington,1848619,Populated Place,Rutland,VT,434039N,0724647W,1286,Pico Peak,,8/26/1999
Killington Basin Ski Center,1921951,Locale,Rutland,VT,433813N,0724741W,2005,Pico Peak,,5/11/2001
Killington Gateway,1921952,Locale,Rutland,VT,433915N,0725313W,1529,Chittenden,,5/11/2001
Killington Golf Course,1921953,Locale,Rutland,VT,433742N,0724749W,2218,Pico Peak,,5/11/2001
Killington Heights,1921954,Populated Place,Rutland,VT,433617N,0725635W,784,Rutland,,5/11/2001
Killington Ski Area,1458087,Locale,Rutland,VT,433712N,0724823W,2585,Killington Peak,,10/29/1980
Killington Village,1921955,Populated Place,Rutland,VT,433824N,0724736W,2008,Pico Peak,,5/11/2001
Kirby Corner,1458110,Populated Place,Chittenden,VT,442718N,0730723W,341,Essex Junction,,10/29/1980
Knee Lookout,1922432,Locale,Windsor,VT,432725N,0722704W,1991,Windsor,,5/11/2001
Koes (historical),1921459,Populated Place,Orange,VT,Unknown,Unknown,,Unknown,,5/8/2001
Kurn Hattin Home,1458123,Locale,Windham,VT,430353N,0722832W,492,Walpole,,10/29/1980
Kwiniaska Golf Course,1918743,Locale,Chittenden,VT,442348N,0731151W,361,Burlington,,5/8/2001
Lake,1458133,Locale,Essex,VT,445705N,0715035W,1348,Norton Pond,,10/29/1980
Lake Bomoseen Campground,1921957,Locale,Rutland,VT,434113N,0731112W,430,Bomoseen,,5/11/2001
Lake Champagne Campground,1921461,Locale,Orange,VT,435652N,0723620W,1375,Randolph Center,,5/8/2001
Lake Dumore Kampersville,1918137,Locale,Addison,VT,435524N,0730504W,597,East Middlebury,,5/8/2001
Lake Dunmore,1461054,Populated Place,Addison,VT,435432N,0730513W,571,East Middlebury,,10/29/1980
Lake Elmore,1458136,Populated Place,Lamoille,VT,443233N,0723131W,1152,Morrisville,1/1/1950,10/29/1980
Lake Park,1458139,Populated Place,Orleans,VT,445940N,0721139W,709,Newport,,10/29/1980
Lake Saint Catherine Golf Course,1921958,Locale,Rutland,VT,432920N,0731203W,509,Wells,,5/11/2001
Lake Station (historical),1919355,Locale,Essex,VT,Unknown,Unknown,,Unknown,,5/8/2001
Lakeland Golf Course,1922434,Locale,Windsor,VT,433848N,0722625W,614,Quechee,,5/11/2001
Lakeside,1460429,Populated Place,Caledonia,VT,441506N,0721544W,1142,Marshfield,,10/29/1980
Lakeview Campground,1918381,Locale,Lamoille,VT,444310N,0723048W,1263,Eden,,5/8/2001
Lakewood Campground,1920674,Locale,Franklin,VT,445734N,0731218W,115,East Alburg,,5/8/2001
Lamoille County,1461764,Civil,Lamoille,VT,443621N,0723829W,574,Sterling Mountain,,2/1/1993
Lamoille Valley Railroad Depot,1918388,Locale,Lamoille,VT,443428N,0723600W,679,Morrisville,,5/8/2001
Lamothe Dairy Farm,2680737,Locale,Caledonia,VT,442153N,0720130W,830,Barnet,,6/15/2011
Landgrove Town Center,1920300,Populated Place,Bennington,VT,431412N,0725153W,1453,Londonderry,,5/8/2001
Lanesboro,1458159,Populated Place,Washington,VT,441826N,0721840W,1381,Marshfield,,10/29/1980
Larrabees Point Station,1458169,Locale,Addison,VT,435056N,0732201W,105,Orwell,,10/29/1980
Laura Woodward Camp,1458170,Locale,Orleans,VT,445614N,0723159W,2615,Jay Peak,,10/29/1980
Lawrence Four Corners,1458175,Locale,Windham,VT,431149N,0724308W,1795,Windham,,10/29/1980
Lawrence Mill (historical),1920302,Locale,Bennington,VT,Unknown,Unknown,,Unknown,,5/8/2001
Lazy Lions Campground,1919099,Locale,Washington,VT,440925N,0722943W,1230,Barre East,,5/8/2001
Leicester,1461063,Populated Place,Addison,VT,435200N,0730628W,443,Brandon,1/1/1967,10/29/1980
Leicester Junction,1458191,Populated Place,Addison,VT,435121N,0730901W,361,Sudbury,,10/29/1980
Lennington,1460430,Populated Place,Essex,VT,445129N,0713303W,997,Tinkerville,,10/29/1980
Lewiston,1458202,Populated Place,Windsor,VT,434214N,0721800W,397,Hanover,,10/29/1980
Lilliesville,1458207,Populated Place,Windsor,VT,434910N,0724138W,1004,Bethel,1/1/1977,10/29/1980
Limehurst Lake Campground,1921466,Locale,Orange,VT,440601N,0723254W,922,Brookfield,,5/8/2001
Lincoln,1461069,Populated Place,Addison,VT,440621N,0725949W,965,Lincoln,,10/29/1980
Lindsay Beach,1460431,Populated Place,Orleans,VT,445815N,0721119W,689,Newport,,10/29/1980
Little Rock Pond Shelter,1461736,Locale,Rutland,VT,432405N,0725724W,1909,Wallingford,,2/1/1991
Little Woolen Company Mill (historical),1919101,Locale,Washington,VT,441812N,0722650W,702,Plainfield,,5/8/2001
Living Memorial Park Ski Area,1921056,Locale,Windham,VT,425045N,0723512W,535,Brattleboro,,5/8/2001
Londonderry,1461093,Populated Place,Windham,VT,431335N,0724823W,1145,Londonderry,,10/29/1980
Lone Oak Farm,2680830,Locale,Windsor,VT,435048N,0723518W,548,South Royalton,,6/15/2011
Lone Pine Campsite,1918747,Locale,Chittenden,VT,443334N,0731102W,144,Colchester,,5/8/2001
Lost Nation,1460432,Populated Place,Essex,VT,444149N,0715037W,1578,Seneca Mountain,,10/29/1980
Lost Pond Shelter,1461731,Locale,Rutland,VT,432044N,0725710W,2231,Danby,,2/1/1991
Lowell,1458296,Populated Place,Orleans,VT,444757N,0722653W,981,Lowell,,10/29/1980
Lowell Plain,1920054,Locale,Orleans,VT,444802N,0722650W,997,Lowell,,5/8/2001
Lower Branch,1921469,Locale,Orange,VT,435650N,0724238W,722,Randolph,,5/8/2001
Lower Cabot,1458298,Populated Place,Washington,VT,442325N,0721957W,932,Cabot,,10/29/1980
Lower Granville,1461104,Populated Place,Addison,VT,435806N,0725034W,965,Hancock,,10/29/1980
Lower Plain Piermont Station,1458303,Locale,Orange,VT,435854N,0720712W,446,Piermont,,10/29/1980
Lower Village,1458306,Populated Place,Lamoille,VT,442722N,0724139W,692,Stowe,,10/29/1980
Lower Waterford,1458307,Populated Place,Caledonia,VT,442116N,0715425W,807,Lower Waterford,,10/29/1980
Lower Websterville,1458309,Populated Place,Washington,VT,441005N,0722841W,1188,Barre East,,10/29/1980
Ludlow,1458312,Populated Place,Windsor,VT,432345N,0724202W,1001,Ludlow,,10/29/1980
Ludlow Shopping Plaza Shopping Center,1922451,Locale,Windsor,VT,432347N,0724201W,988,Ludlow,,5/11/2001
Lula Tye Shelter,1461738,Locale,Rutland,VT,432352N,0725720W,1886,Wallingford,,2/1/1991
Lunenburg,1458315,Populated Place,Essex,VT,442747N,0714055W,1178,Gilman,,10/29/1980
Lympus,1458842,Populated Place,Windsor,VT,434920N,0724308W,1263,Bethel,1/1/1977,10/29/1980
Lyndon,1458321,Populated Place,Caledonia,VT,443051N,0720039W,735,Lyndonville,,10/29/1980
Lyndon Center,1458322,Populated Place,Caledonia,VT,443214N,0720046W,715,Lyndonville,,10/29/1980
Lyndon Center,1919576,Populated Place,Caledonia,VT,443222N,0720045W,725,Lyndonville,,5/8/2001
Lyndon Outing Club Ski Area,1919584,Locale,Caledonia,VT,443101N,0715827W,1102,Burke Mountain,,5/8/2001
Lyndonville,1458324,Populated Place,Caledonia,VT,443201N,0720011W,709,Lyndonville,,10/29/1980
MacIntyre,1461112,Populated Place,Bennington,VT,430126N,0730416W,2073,Sunderland,,10/29/1980
Mackville,1458328,Populated Place,Caledonia,VT,442924N,0722205W,935,Cabot,,10/29/1980
Mad River Glen Nordic Ski Center,1919104,Locale,Washington,VT,441208N,0725505W,1650,Mount Ellen,,5/8/2001
Mad River Glen Ski Area,1461798,Locale,Washington,VT,441203N,0725528W,2073,Mount Ellen,,10/29/1980
Mad Tom Shelter,1461689,Locale,Bennington,VT,431448N,0725615W,2861,Peru,,6/1/1991
Magic Mountain Winter Sports Area,1461680,Locale,Windham,VT,431148N,0724553W,2057,Londonderry,,6/1/1991
Maidstone,1460433,Populated Place,Essex,VT,443855N,0713419W,860,Stratford,,10/29/1980
Maille Dairy Farm,2680735,Locale,Chittenden,VT,442402N,0731036W,377,Burlington,,6/15/2011
Majic Mountain Ski Center,1921060,Locale,Windham,VT,431207N,0724621W,1368,Londonderry,,5/8/2001
Mallets Bay Yacht Club,1460498,Locale,Chittenden,VT,443303N,0731335W,105,Colchester,,10/1/1992
Malletts Bay,1456301,Populated Place,Chittenden,VT,443240N,0731255W,141,Colchester,1/1/1975,10/29/1980
Malletts Bay Campground,1918753,Locale,Chittenden,VT,443238N,0731259W,144,Colchester,,5/8/2001
Malletts Bay Marina,1460499,Locale,Chittenden,VT,443247N,0731313W,125,Colchester,,10/1/1992
Manchester,1461117,Populated Place,Bennington,VT,430949N,0730420W,883,Manchester,,10/29/1980
Manchester Center,1461118,Populated Place,Bennington,VT,431037N,0730325W,745,Manchester,,10/29/1980
Manchester Commons Shopping Center,1920312,Locale,Bennington,VT,431035N,0730323W,728,Manchester,,5/8/2001
Manchester Depot,1461119,Populated Place,Bennington,VT,431026N,0730208W,709,Manchester,,10/29/1980
Manchester Golf Course,1920314,Locale,Bennington,VT,431220N,0730121W,755,Manchester,,5/8/2001
Manchester Shopping Center,1920316,Locale,Bennington,VT,431031N,0730312W,699,Manchester,,5/8/2001
Manchester Square Shopping Center,1920317,Locale,Bennington,VT,431023N,0730258W,686,Manchester,,5/8/2001
Maple Corner,1458345,Populated Place,Washington,VT,442233N,0722941W,1250,Woodbury,,8/27/2002
Maple Grove Campground,1920680,Locale,Franklin,VT,444227N,0730213W,646,Milton,,5/8/2001
Maple Leaf Campground,1922456,Locale,Windsor,VT,433825N,0722047W,574,Hanover,,5/11/2001
Maple Valley Ski Center,1921062,Locale,Windham,VT,425633N,0723737W,932,Newfane,,5/8/2001
Maquam,1458351,Populated Place,Franklin,VT,445503N,0730939W,112,East Alburg,,10/29/1980
Marble Island Golf and Yacht Club,1460497,Locale,Chittenden,VT,443409N,0731357W,112,Colchester,,10/1/1992
Marina International,1918534,Locale,Grand Isle,VT,445008N,0731813W,95,North Hero,,5/8/2001
Marlboro,1458357,Populated Place,Windham,VT,425134N,0724333W,1745,Governors Mountain,,10/29/1980
Marolin Acres,1921968,Populated Place,Rutland,VT,433716N,0725802W,692,Rutland,,5/11/2001
Marshfield,1458364,Populated Place,Washington,VT,442103N,0722114W,804,Marshfield,,10/29/1980
Marshfield Station,1458368,Locale,Washington,VT,442014N,0722119W,1181,Marshfield,,10/29/1980
Maryville Campground,1920326,Locale,Bennington,VT,431541N,0730032W,771,Dorset,,5/8/2001
Maycrest Camp,1460481,Locale,Grand Isle,VT,444325N,0731628W,131,South Hero,,9/1/1992
Mayes Boat Landing Ramp,1460505,Locale,Chittenden,VT,443146N,0731621W,112,Colchester Point,,10/1/1992
Maynard Sawmill (historical),1920325,Locale,Bennington,VT,431701N,0730009W,718,Dorset,,5/8/2001
McCuen Slang Waterfowl Area,1918157,Locale,Addison,VT,440125N,0732351W,105,Port Henry,,5/8/2001
McIndoe Falls,1458395,Populated Place,Caledonia,VT,441541N,0720345W,486,Barnet,,10/29/1980
Meadow Brook Farms Campground,1922460,Locale,Windsor,VT,432718N,0723903W,1306,Ludlow,,5/11/2001
Meadow Brook Girl Scout Camp,1920059,Locale,Orleans,VT,445944N,0720517W,1293,West Charleston,,5/8/2001
Mechanicsville,1458412,Populated Place,Chittenden,VT,442038N,0730619W,443,Hinesburg,,10/29/1980
Medburyville,1461138,Populated Place,Windham,VT,425213N,0725513W,1535,Readsboro,,10/29/1980
Mellville Nanheim Shelter,1461662,Locale,Bennington,VT,425324N,0730546W,2398,Woodford,,5/1/1991
Melville Landing,1458417,Populated Place,Franklin,VT,444541N,0730955W,98,Saint Albans Bay,,10/29/1980
Mendon,1461139,Populated Place,Rutland,VT,433905N,0725537W,1030,Chittenden,,10/29/1980
Mendon Fish and Game Club,1921973,Locale,Rutland,VT,434027N,0725633W,1027,Chittenden,,5/11/2001
Merrill Corner,1460434,Populated Place,Orleans,VT,444212N,0722019W,1168,Craftsbury,,10/29/1980
Merrill Four Corners,1920688,Locale,Franklin,VT,444520N,0730201W,869,Saint Albans,,5/8/2001
Michigan,1461143,Populated Place,Rutland,VT,434722N,0725305W,1450,Mount Carmel,,10/29/1980
Middlebury,1458435,Populated Place,Addison,VT,440055N,0731002W,390,Middlebury,,10/29/1980
Middlebury College Snow Bowl,1461147,Area,Addison,VT,435550N,0725721W,2231,Bread Loaf,,10/29/1980
Middlebury Country Club,1461799,Locale,Addison,VT,435958N,0731056W,466,Cornwall,,10/29/1980
Middlebury Waterworks,1461800,Locale,Addison,VT,440012N,0730558W,436,South Mountain,,10/29/1980
Middlesex,1458438,Populated Place,Washington,VT,441734N,0724045W,535,Middlesex,,10/29/1980
Middlesex Center,1458439,Locale,Washington,VT,442009N,0723804W,1194,Middlesex,,10/29/1980
Middletown,1458443,Populated Place,Windsor,VT,431702N,0724348W,1558,Andover,,10/29/1980
Middletown Springs,1458445,Populated Place,Rutland,VT,432908N,0730705W,896,Middletown Springs,,10/29/1980
Miles Pond,1458451,Populated Place,Essex,VT,442650N,0714747W,1040,Miles Pond,,10/29/1980
Mill Brook Campground,1920060,Locale,Orleans,VT,445312N,0722553W,837,North Troy,,5/8/2001
Mill Pond Campground,1920690,Locale,Franklin,VT,445935N,0725041W,427,Enosburg Falls,,5/8/2001
Mill Village,1458471,Populated Place,Orange,VT,435738N,0721756W,1017,Vershire,,10/29/1980
Mill Village,1458472,Populated Place,Washington,VT,442029N,0724452W,436,Middlesex,,10/29/1980
Mill Village,1458473,Populated Place,Essex,VT,442951N,0713935W,1240,Gilman,,10/29/1980
Mill Village,1458474,Populated Place,Orleans,VT,443958N,0722231W,1063,Albany,,10/29/1980
Millbrook,1460435,Populated Place,Windsor,VT,434328N,0722722W,666,Quechee,,10/29/1980
Miller Camp (historical),1920689,Locale,Franklin,VT,445913N,0725120W,443,Enosburg Falls,,5/8/2001
Miller and Ayers Mill (historical),1919598,Locale,Caledonia,VT,Unknown,Unknown,,Unknown,,5/8/2001
Milton,1458483,Populated Place,Chittenden,VT,443823N,0730637W,299,Milton,,10/29/1980
Milton Square Shopping Center,1918773,Locale,Chittenden,VT,443732N,0730708W,338,Milton,,5/8/2001
Miltonboro,1458485,Populated Place,Chittenden,VT,444148N,0731113W,154,Georgia Plains,,10/29/1980
Missiasuk (historical),1920692,Populated Place,Franklin,VT,Unknown,Unknown,,Unknown,,5/8/2001
Missisquoi Station,1458503,Locale,Orleans,VT,450029N,0723520W,522,Jay Peak OE N,,10/29/1980
Mobile Acres Trailer Park,1921485,Locale,Orange,VT,435552N,0724201W,689,Randolph,,5/8/2001
Moccasin Mill,1460436,Populated Place,Essex,VT,443601N,0714805W,1460,Gallup Mills,,10/29/1980
Monkton Boro,1458516,Populated Place,Addison,VT,441415N,0730838W,535,Vergennes East,1/1/1972,10/29/1980
Monkton Ridge,1458517,Populated Place,Addison,VT,441516N,0730727W,600,Hinesburg,,10/29/1980
Montague Golf Course,1921487,Locale,Orange,VT,435515N,0723920W,679,Randolph,,5/8/2001
Montcalm Landing (historical),1918173,Locale,Addison,VT,435008N,0732253W,102,Ticonderoga,,5/8/2001
Montclair Glen Camp,1458520,Locale,Washington,VT,441804N,0725255W,2756,Huntington,,10/29/1980
Montgomery,1458521,Populated Place,Franklin,VT,445409N,0723817W,499,Richford,,10/29/1980
Montgomery Center,1458522,Populated Place,Orleans,VT,445241N,0723608W,591,Jay Peak,,10/29/1980
Montpelier,1461834,Populated Place,Washington,VT,441536N,0723431W,525,Montpelier,1/1/1931,10/29/1980
Montpelier Elks Country Club,1919124,Locale,Washington,VT,441505N,0723251W,692,Montpelier,,5/8/2001
Montpelier Junction,1458523,Populated Place,Washington,VT,441525N,0723628W,518,Montpelier,,10/29/1980
Montpelier Municipal Swimming Pool,1919129,Locale,Washington,VT,441637N,0723421W,535,Montpelier,,5/8/2001
Monument Plaza Shopping Center,1920335,Locale,Bennington,VT,425401N,0731303W,577,Bennington,,5/8/2001
Moore and Thompson Paper Mill (historical),1921069,Locale,Windham,VT,430802N,0722630W,282,Bellows Falls,,5/8/2001
Moosalamoo Campground,1461694,Locale,Addison,VT,435509N,0730141W,1565,East Middlebury,,6/1/1991
Moose River Campground,1919600,Locale,Caledonia,VT,442544N,0715758W,718,Concord,,5/8/2001
Moretown,1461170,Populated Place,Washington,VT,441503N,0724539W,600,Waterbury,,10/29/1980
Moretown Common,1458530,Locale,Washington,VT,441542N,0724353W,1083,Middlesex,,10/29/1980
Morgan,1458532,Populated Place,Orleans,VT,445449N,0720051W,1398,West Charleston,,10/29/1980
Morgan Center,1458534,Populated Place,Orleans,VT,445433N,0715844W,1286,Morgan Center,,10/29/1980
Morgan Corners,1458535,Populated Place,Windsor,VT,434410N,0723833W,1089,Delectable Mountain,,10/29/1980
Morristown,1458546,Populated Place,Lamoille,VT,443326N,0723725W,755,Morrisville,,10/29/1980
Morristown Bog Natural Area,1918399,Locale,Lamoille,VT,443010N,0723733W,748,Sterling Mountain,,5/8/2001
Morrisville,1458547,Populated Place,Lamoille,VT,443342N,0723554W,673,Morrisville,,10/29/1980
Morrisville Plaza Shopping Center,1918410,Locale,Lamoille,VT,443434N,0723532W,725,Morrisville,,5/8/2001
Morses Line,1458553,Populated Place,Franklin,VT,450044N,0725841W,295,Sheldon Springs OE N,,10/29/1980
Morses Mill,1458554,Populated Place,Lamoille,VT,443518N,0724729W,1060,Mount Mansfield,,10/29/1980
Morses Mill (historical),1919602,Locale,Caledonia,VT,Unknown,Unknown,,Unknown,,5/8/2001
Morses Mills,1458555,Populated Place,Caledonia,VT,442248N,0720531W,886,Saint Johnsbury,,10/29/1980
Moscow,1458556,Populated Place,Lamoille,VT,442629N,0724255W,663,Stowe,,10/29/1980
Mosquitoville,1460437,Populated Place,Caledonia,VT,441613N,0720838W,1004,Peacham,,10/29/1980
Moss Hollow Campground,1921072,Locale,Windham,VT,424908N,0724428W,1371,Governors Mountain,,5/8/2001
Moulds Lodge,1458564,Locale,Lamoille,VT,443402N,0724430W,2221,Sterling Mountain,,10/29/1980
Mount Anthony Country Club,1461801,Locale,Bennington,VT,425330N,0731228W,650,Bennington,,10/29/1980
Mount Ascuteney Ski Area,1922472,Locale,Windsor,VT,432748N,0722758W,820,Windsor,,5/11/2001
Mount Ascutney State Park Campground,1922473,Locale,Windsor,VT,432614N,0722428W,607,Windsor,,5/11/2001
Mount Equinox Skyline Drive Point of Interest,1461672,Locale,Bennington,VT,430717N,0730718W,922,Sunderland,,6/1/1991
Mount Holly,1461178,Populated Place,Rutland,VT,432708N,0724929W,1555,Mount Holly,,10/29/1980
Mount Holly Heights,1921988,Populated Place,Rutland,VT,432616N,0724602W,1457,Mount Holly,,5/11/2001
Mount Mansfield Ski Area,1918417,Locale,Lamoille,VT,443139N,0724743W,2110,Mount Mansfield,,5/8/2001
Mount Mansfield Ski Touring Center,1918418,Locale,Lamoille,VT,443039N,0724558W,1280,Mount Mansfield,,5/8/2001
Mount Norris Boy Scout Reservation,1918419,Locale,Lamoille,VT,444326N,0722943W,1280,Albany,,5/8/2001
Mount Pleasant,1461180,Populated Place,Rutland,VT,434830N,0730520W,659,Brandon,,10/29/1980
Mount Snow Golf Course,1921077,Locale,Windham,VT,425605N,0725208W,1939,West Dover,,5/8/2001
Mount Snow Ski Area,1461748,Locale,Windham,VT,425750N,0725421W,2582,Mount Snow,,2/1/1991
Mount Snow Ski Resort,1921078,Locale,Windham,VT,425804N,0725340W,1975,Mount Snow,,5/8/2001
Mount Tabor,1461722,Populated Place,Rutland,VT,432102N,0725857W,686,Danby,,2/1/1991
Mountain Home Trailer Park,1921080,Populated Place,Windham,VT,425212N,0723644W,489,Brattleboro,,5/8/2001
Mountain Meadows Ski Touring Center,1921983,Locale,Rutland,VT,434005N,0724758W,1585,Pico Peak,,5/11/2001
Mountain Top Club,1461187,Locale,Rutland,VT,434349N,0725618W,1798,Chittenden,,10/29/1980
Mountain Trails Campground,1461188,Locale,Windsor,VT,435443N,0724841W,1424,Hancock,,10/29/1980
Mountain View Cottages and Campgrounds,1918415,Locale,Lamoille,VT,443406N,0723246W,666,Morrisville,,5/8/2001
Mountain View Estates,1920340,Populated Place,Bennington,VT,431010N,0730253W,722,Manchester,,5/8/2001
Mountain View Estates,1921985,Populated Place,Rutland,VT,433949N,0725938W,676,Chittenden,,5/11/2001
Mud Dock,1458601,Locale,Addison,VT,434743N,0732126W,95,Orwell,,10/29/1980
Nashville,1458649,Populated Place,Chittenden,VT,442707N,0725618W,751,Richmond,,10/29/1980
Naulahka,1458654,Locale,Windham,VT,425355N,0723356W,650,Putney,,10/29/1980
Nelsons Corner,1460438,Populated Place,Windsor,VT,432437N,0722922W,689,Windsor,,10/29/1980
Neshobe Beach,1458664,Populated Place,Rutland,VT,433821N,0731230W,446,Bomoseen,,10/29/1980
Neshobe Golf Course,1921995,Locale,Rutland,VT,434855N,0730422W,476,Brandon,,5/11/2001
Nevesville,1458666,Populated Place,Caledonia,VT,442700N,0721321W,1644,Joes Pond,,10/29/1980
New Boston,1461204,Populated Place,Windsor,VT,434915N,0724551W,1644,Rochester,,10/29/1980
New Boston (historical),1921996,Populated Place,Rutland,VT,Unknown,Unknown,,Unknown,,5/11/2001
New Discovery Campground,1919608,Locale,Caledonia,VT,441912N,0721723W,1749,Marshfield,,5/8/2001
New Haven,1458671,Populated Place,Addison,VT,440728N,0730913W,453,Middlebury,,10/29/1980
New Haven Junction,1460439,Populated Place,Addison,VT,440724N,0731101W,279,Middlebury,,10/29/1980
New Haven Junction Depot,1918181,Locale,Addison,VT,440724N,0731058W,279,Middlebury,,5/8/2001
New Haven Mills,1461206,Populated Place,Addison,VT,440530N,0730631W,351,South Mountain,,10/29/1980
Newark Hollow,1458674,Populated Place,Caledonia,VT,444159N,0715544W,1276,West Burke,,10/29/1980
Newark Street,1458676,Locale,Caledonia,VT,444113N,0715705W,1742,West Burke,,10/29/1980
Newbury,1458677,Populated Place,Orange,VT,440445N,0720330W,466,Newbury,,10/29/1980
Newbury Center,1460440,Populated Place,Orange,VT,440725N,0720854W,1017,East Corinth,,10/29/1980
Newfane,1458679,Populated Place,Windham,VT,425908N,0723921W,551,Newfane,,10/29/1980
Newport,1461773,Populated Place,Orleans,VT,445611N,0721218W,682,Newport,,10/29/1980
Newport Center,1458682,Populated Place,Orleans,VT,445703N,0721823W,778,Newport Center,,10/29/1980
Newton Cabin,1458684,Locale,Windsor,VT,434234N,0722005W,1184,Hanover,,10/29/1980
Nor Dic Farm,2723147,Locale,Addison,VT,440706N,0732114W,180,Snake Mountain,,5/8/2012
Nordio Cross Country Ski Area,1461685,Locale,Bennington,VT,431356N,0725113W,1401,Londonderry,,6/1/1991
North Avenue Shopping Center,1918793,Locale,Chittenden,VT,443028N,0731451W,167,Colchester,,5/8/2001
North Bennington,1461213,Populated Place,Bennington,VT,425549N,0731433W,640,Bennington,,10/29/1980
North Breakwater Light,1461819,Locale,Chittenden,VT,442849N,0731347W,98,Burlington,,10/1/1992
North Calais,1458714,Populated Place,Washington,VT,442324N,0722647W,1017,Woodbury,,10/29/1980
North Cambridge,1458716,Populated Place,Lamoille,VT,444113N,0725125W,571,Jeffersonville,,10/29/1980
North Chester,1458719,Populated Place,Windsor,VT,431622N,0723521W,600,Chester,,10/29/1980
North Chittenden,1461223,Populated Place,Rutland,VT,434425N,0725833W,1001,Chittenden,,10/29/1980
North Clarendon,1458721,Populated Place,Rutland,VT,433400N,0725755W,591,Rutland,,10/29/1980
North Concord,1458722,Populated Place,Essex,VT,442806N,0715119W,1073,Miles Pond,,10/29/1980
North Danville,1458723,Populated Place,Caledonia,VT,442732N,0720538W,974,Saint Johnsbury,,10/29/1980
North Derby,1458724,Populated Place,Orleans,VT,450020N,0721016W,728,Newport OE N,,10/29/1980
North Dorset,1461224,Populated Place,Bennington,VT,431702N,0730008W,718,Dorset,,10/29/1980
North Dorset Farms (historical),1920350,Locale,Bennington,VT,431705N,0730009W,732,Dorset,,5/8/2001
North Duxbury,1458725,Populated Place,Washington,VT,442130N,0724944W,367,Waterbury,,10/29/1980
North Enosburg,1458728,Populated Place,Franklin,VT,445513N,0724526W,400,Enosburg Falls,,10/29/1980
North Fairfax,1458729,Populated Place,Franklin,VT,444538N,0730344W,718,Saint Albans,,10/29/1980
North Fayston,1461225,Populated Place,Washington,VT,441431N,0725017W,1102,Waitsfield,,10/29/1980
North Ferrisburgh,1458730,Populated Place,Addison,VT,441534N,0731240W,197,Mount Philo,,8/27/2002
North Ferrisburgh Station,1458731,Locale,Addison,VT,441505N,0731520W,128,Charlotte,,8/27/2002
North Hardwick (historical),1919617,Populated Place,Caledonia,VT,Unknown,Unknown,,Unknown,,5/8/2001
North Hartland,1458736,Populated Place,Windsor,VT,433534N,0722106W,364,North Hartland,,10/29/1980
North Hero,1458739,Populated Place,Grand Isle,VT,444903N,0731721W,95,North Hero,,10/29/1980
North Hero Station,1458743,Locale,Grand Isle,VT,444819N,0731835W,98,North Hero,,10/29/1980
North Hyde Park,1458745,Populated Place,Lamoille,VT,444014N,0723553W,873,Eden,,10/29/1980
North Kirby,1919619,Populated Place,Caledonia,VT,443057N,0715620W,1296,Burke Mountain,,5/8/2001
North Landgrove,1461230,Populated Place,Bennington,VT,431535N,0725055W,1404,Weston,,10/29/1980
North Montpelier,1458748,Populated Place,Washington,VT,441813N,0722647W,709,Plainfield,,10/29/1980
North Moretown,1919160,Populated Place,Washington,VT,441927N,0724441W,436,Middlesex,,5/8/2001
North Orwell,1458750,Locale,Addison,VT,435023N,0731705W,266,Orwell,,10/29/1980
North Pawlet,1458751,Populated Place,Rutland,VT,432258N,0731214W,614,Wells,,10/29/1980
North Pomfret,1458752,Populated Place,Windsor,VT,434322N,0722847W,883,Quechee,,10/29/1980
North Pownal,1458754,Populated Place,Bennington,VT,424751N,0731552W,528,North Pownal,,10/29/1980
North Randolph,1458755,Populated Place,Orange,VT,435826N,0723321W,689,Randolph Center,,10/29/1980
North River Winery,1921094,Locale,Windham,VT,424740N,0724911W,1332,Jacksonville,,5/8/2001
North Royalton,1458757,Populated Place,Windsor,VT,434938N,0723359W,512,South Royalton,,10/29/1980
North Rupert,1458758,Populated Place,Bennington,VT,431758N,0730844W,755,Pawlet,,10/29/1980
North Sheldon,1458759,Populated Place,Franklin,VT,445438N,0725425W,427,Sheldon Springs,,10/29/1980
North Sherburne,1461233,Populated Place,Rutland,VT,434237N,0724938W,1220,Pico Peak,,10/29/1980
North Shrewsbury,1458760,Populated Place,Rutland,VT,433144N,0724937W,1752,Killington Peak,,10/29/1980
North Springfield,1458761,Populated Place,Windsor,VT,431958N,0723131W,479,Chester,,10/29/1980
North Springfield Industrial Park,1922490,Locale,Windsor,VT,431945N,0723214W,591,Chester,,5/11/2001
North Street Shopping Center,1920358,Locale,Bennington,VT,425241N,0731148W,679,Bennington,,5/8/2001
North Thetford,1458764,Populated Place,Orange,VT,435035N,0721108W,407,Lyme,1/1/1977,10/29/1980
North Troy,1458765,Populated Place,Orleans,VT,445940N,0722359W,548,North Troy,,10/29/1980
North Tunbridge,1458766,Populated Place,Orange,VT,435453N,0722842W,627,Chelsea,,10/29/1980
North Underhill,1458767,Populated Place,Chittenden,VT,443507N,0725556W,797,Underhill,,10/29/1980
North Vernon,1458769,Populated Place,Windham,VT,424656N,0723125W,269,Brattleboro,,10/29/1980
North Walden,1919623,Populated Place,Caledonia,VT,443018N,0721547W,1676,Caspian Lake,,5/8/2001
North Westminster,1458771,Populated Place,Windham,VT,430708N,0722718W,413,Walpole,,10/29/1980
North Williston,1458772,Populated Place,Chittenden,VT,442801N,0730246W,305,Essex Junction,,10/29/1980
North Windham,1458773,Populated Place,Windham,VT,431303N,0724423W,1499,Windham,,10/29/1980
North Wolcott,1461859,Populated Place,Lamoille,VT,443640N,0722737W,846,Wolcott,,10/29/1980
Northfield,1461817,Populated Place,Washington,VT,440904N,0723923W,732,Northfield,,10/29/1980
Northfield Center,1458778,Populated Place,Washington,VT,440805N,0723939W,804,Northfield,,10/29/1980
Northfield Falls,1458779,Populated Place,Washington,VT,441019N,0723903W,663,Northfield,,10/29/1980
Northfield Golf Course,1919150,Locale,Washington,VT,440645N,0724058W,837,Roxbury,,5/8/2001
Northfield Shopping Center,1919155,Locale,Washington,VT,440913N,0723918W,689,Northfield,,5/8/2001
Northgate Plaza Shopping Center,1918422,Locale,Lamoille,VT,443423N,0723536W,702,Morrisville,,5/8/2001
Norton,1458782,Populated Place,Essex,VT,450036N,0714741W,1240,Norton Pond OE N,,10/29/1980
Norwich,1458786,Populated Place,Windsor,VT,434255N,0721828W,531,Hanover,,10/29/1980
Norwich University Ski Area,1919163,Locale,Washington,VT,440820N,0723832W,1673,Northfield,,5/8/2001
Notown,1460441,Populated Place,Windsor,VT,434142N,0724305W,1286,Delectable Mountain,,10/29/1980
Nourses Corner,1918798,Populated Place,Chittenden,VT,443317N,0731127W,118,Colchester,,5/8/2001
Nutting Corners,1458800,Locale,Franklin,VT,445713N,0724159W,417,Richford,,10/29/1980
Oakland,1458815,Populated Place,Franklin,VT,444435N,0730506W,440,Milton,,10/29/1980
Oakledge Park,1460488,Populated Place,Chittenden,VT,442711N,0731346W,115,Burlington,,10/1/1992
Okemo Mountain Ski Area,1461802,Locale,Windsor,VT,432416N,0724356W,2146,Ludlow,,10/29/1980
Olcot Falls Mobile Home Park,1922504,Populated Place,Windsor,VT,434053N,0721828W,427,Hanover,,5/11/2001
Old Bennington,1461243,Populated Place,Bennington,VT,425300N,0731248W,807,Bennington,1/1/1972,10/29/1980
Old City,1458821,Populated Place,Orange,VT,435249N,0722204W,1197,Vershire,,10/29/1980
Old Heerman Mill (historical),1920088,Locale,Orleans,VT,Unknown,Unknown,,Unknown,,5/8/2001
Old Job,1461244,Locale,Rutland,VT,432113N,0725543W,1686,Danby,,10/29/1980
Old Job Shelter,1461724,Locale,Rutland,VT,432114N,0725542W,1673,Danby,,2/1/1991
Old Maid Place Lighthouse (historical),1460358,Locale,Rutland,VT,433937N,0732443W,95,Putnam,12/31/1891,1/1/1991
Old Red Mill and Mill House (historical),1918807,Locale,Chittenden,VT,443017N,0725955W,528,Underhill,,5/8/2001
Old Stone Mill (historical),1920365,Locale,Bennington,VT,Unknown,Unknown,,Unknown,,5/8/2001
Oles Cross Country Ski Center,1919168,Locale,Washington,VT,440640N,0724921W,1358,Warren,,5/8/2001
Ondawa 4-H Camp,1920366,Locale,Bennington,VT,430645N,0730659W,663,Sunderland,,5/8/2001
One Hundred River Street Complex Shopping Center,1922512,Locale,Windsor,VT,431804N,0722910W,449,Springfield,,5/11/2001
Onion River Camp Area,1919169,Locale,Washington,VT,441800N,0722345W,774,Plainfield,,5/8/2001
Orange,1458846,Populated Place,Orange,VT,440854N,0722409W,1499,Barre East,,10/29/1980
Orange County,1461765,Civil,Orange,VT,440020N,0722236W,1850,Washington,,2/1/1993
Orleans,1458854,Populated Place,Orleans,VT,444900N,0721358W,1138,Orleans,,8/27/2002
Orleans County,1461766,Civil,Orleans,VT,444944N,0721438W,984,Orleans,,2/1/1993
Orleans Golf Course,1920097,Locale,Orleans,VT,444755N,0721051W,958,Orleans,,5/8/2001
Orwell,1458855,Populated Place,Addison,VT,434814N,0731752W,374,Orwell,,10/29/1980
Orwell Bluff Light,1460483,Locale,Addison,VT,434640N,0732058W,95,Orwell,,9/1/1992
Orwell Landing,1460485,Locale,Addison,VT,434739N,0732223W,95,Orwell,,9/1/1992
Osmore Pond Picnic Shelter,1919636,Locale,Caledonia,VT,441835N,0721653W,1489,Marshfield,,5/8/2001
Otter Creek Campground,1922020,Locale,Rutland,VT,432243N,0725956W,653,Wallingford,,5/11/2001
Outing Club,1921105,Locale,Windham,VT,425126N,0723410W,384,Brattleboro,,5/8/2001
P.O.R.C. Winter Sports Area (historical),1461721,Locale,Bennington,VT,431648N,0725316W,1634,Danby,,2/1/1991
Packer Corner,1458873,Populated Place,Windham,VT,424420N,0723835W,1093,Colrain,,10/29/1980
Paddock (historical),1919638,Populated Place,Caledonia,VT,Unknown,Unknown,,Unknown,,5/8/2001
Paddock Iron Works (historical),1919639,Locale,Caledonia,VT,Unknown,Unknown,,Unknown,,5/8/2001
Pages Corner,1458882,Populated Place,Chittenden,VT,443205N,0730429W,584,Essex Center,,10/29/1980
Palmer Corner,1460442,Populated Place,Addison,VT,440016N,0732223W,213,Snake Mountain,,10/29/1980
Panton,1458888,Populated Place,Addison,VT,440855N,0732025W,171,Vergennes West,,10/29/1980
Paper Mill Village,1461252,Populated Place,Bennington,VT,425442N,0731408W,561,Bennington,,10/29/1980
Papermill Village (historical),1918197,Locale,Addison,VT,Unknown,Unknown,,Unknown,,5/8/2001
Park Meadows Camping Area,1922023,Locale,Rutland,VT,432742N,0724612W,1762,Mount Holly,,5/11/2001
Parker Camp,1458893,Locale,Lamoille,VT,444237N,0724057W,1768,Johnson,,10/29/1980
Passumpsic,1458901,Populated Place,Caledonia,VT,442236N,0720139W,545,Saint Johnsbury,,10/29/1980
Pastureview Farm,2723146,Locale,Addison,VT,441145N,0732104W,141,Vergennes West,,5/8/2012
Patten Camp,1920716,Locale,Franklin,VT,445902N,0725235W,453,Sheldon Springs,,5/8/2001
Pawlet,1458912,Populated Place,Rutland,VT,432048N,0731034W,705,Pawlet,,10/29/1980
Peabodys Mill (historical),1919642,Locale,Caledonia,VT,Unknown,Unknown,,Unknown,,5/8/2001
Peach Four Corners,1458915,Populated Place,Orange,VT,440359N,0720535W,627,Newbury,,10/29/1980
Peacham,1458916,Populated Place,Caledonia,VT,441944N,0721008W,1280,Peacham,,10/29/1980
Peacham Corner,1460443,Populated Place,Caledonia,VT,442024N,0721606W,1375,Marshfield,,10/29/1980
Peacham Hollow (historical),1919650,Locale,Caledonia,VT,Unknown,Unknown,,Unknown,,5/8/2001
Pearl,1458923,Populated Place,Grand Isle,VT,444115N,0731936W,200,South Hero,,10/29/1980
Perkins Pier,1918815,Locale,Chittenden,VT,442815N,0731315W,105,Burlington,,5/8/2001
Perkinsville,1458942,Populated Place,Windsor,VT,432225N,0723049W,551,Chester,,10/29/1980
Perkinsville,1919172,Populated Place,Washington,VT,441315N,0722353W,1394,Barre East,,5/8/2001
Perry,1458943,Populated Place,Caledonia,VT,444146N,0720510W,1201,Sutton,,10/29/1980
Peru,1461264,Populated Place,Bennington,VT,431347N,0725352W,1686,Peru,,10/29/1980
Peru Peak Shelter,1461732,Locale,Rutland,VT,431803N,0725719W,2598,Danby,,2/1/1991
Peru Town Center,1920375,Locale,Bennington,VT,431346N,0725403W,1696,Peru,,5/8/2001
Peters Four Corners,1461267,Locale,Bennington,VT,425744N,0731454W,833,Bennington,,10/29/1980
Peth,1458948,Populated Place,Orange,VT,435812N,0724004W,856,Randolph,,10/29/1980
Phelps Falls (historical),1920101,Populated Place,Orleans,VT,Unknown,Unknown,,Unknown,,5/8/2001
Pico Peak Ski Area,1922032,Locale,Rutland,VT,433942N,0725033W,2005,Pico Peak,,5/11/2001
Pico Peak Winter Sprorts Area,1461705,Locale,Rutland,VT,433858N,0725020W,2782,Pico Peak,,6/1/1992
Pico Trail Shelter,1461706,Locale,Rutland,VT,433821N,0724950W,3510,Pico Peak,,6/1/1992
Pierces Corner,1460444,Populated Place,Rutland,VT,433228N,0725714W,712,Rutland,,10/29/1980
Pikes Falls,1461274,Populated Place,Windham,VT,430549N,0725118W,1489,Jamaica,,10/29/1980
Pine Hollow Campground,1920378,Locale,Bennington,VT,424651N,0731129W,1493,Pownal,,5/8/2001
Pine Valley Resort Campground,1922530,Locale,Windsor,VT,433908N,0722321W,837,Quechee,,5/11/2001
Pinecrest Acres,1922034,Populated Place,Rutland,VT,433913N,0725721W,860,Chittenden,,5/11/2001
Pinecrest Camping Area,1918817,Locale,Chittenden,VT,442632N,0730533W,404,Essex Junction,,5/8/2001
Pinnacle Ridge,1922035,Populated Place,Rutland,VT,433936N,0725954W,705,Chittenden,,5/11/2001
Piper Crossing,1460445,Populated Place,Addison,VT,435808N,0730953W,361,Cornwall,,10/29/1980
Piper Ridge,1920379,Populated Place,Bennington,VT,430856N,0725311W,1460,Peru,,5/8/2001
Pitts Ford (historical),1922040,Locale,Rutland,VT,Unknown,Unknown,,Unknown,,5/11/2001
Pittsfield,1461283,Populated Place,Rutland,VT,434620N,0724846W,889,Rochester,,10/29/1980
Pittsford,1458990,Populated Place,Rutland,VT,434224N,0730141W,531,Proctor,,10/29/1980
Pittsford Mills (historical),1922041,Locale,Rutland,VT,Unknown,Unknown,,Unknown,,5/11/2001
Plainfield,1461779,Populated Place,Washington,VT,441641N,0722535W,758,Plainfield,,10/29/1980
Pleasant Valley,1459000,Populated Place,Lamoille,VT,443533N,0725145W,617,Mount Mansfield,,10/29/1980
Pleasant Valley Campground,1919657,Locale,Caledonia,VT,441123N,0720604W,922,Woodsville,,5/8/2001
Pleiad Shelter,1461647,Locale,Addison,VT,435604N,0725714W,2159,Bread Loaf,,6/1/1991
Plymouth,1459015,Populated Place,Windsor,VT,433209N,0724317W,1407,Plymouth,,10/29/1980
Plymouth Kingdom,1459016,Locale,Windsor,VT,432809N,0724016W,1640,Ludlow,,10/29/1980
Plymouth Notch Ski Area,1459265,Locale,Windsor,VT,433202N,0724455W,1532,Plymouth,,10/29/1980
Plymouth Union,1459020,Populated Place,Windsor,VT,433148N,0724419W,1214,Plymouth,,10/29/1980
Plymouth Village Campground,1922536,Locale,Windsor,VT,433202N,0724426W,1270,Plymouth,,5/11/2001
Podunk,1461289,Populated Place,Windham,VT,430031N,0725131W,1893,Jamaica,,10/29/1980
Point Bay Marina,1918822,Locale,Chittenden,VT,441625N,0731708W,95,Charlotte,,5/8/2001
Point of Pines,1459024,Populated Place,Rutland,VT,433722N,0731350W,427,Poultney,,10/29/1980
Pomfret,1459027,Populated Place,Windsor,VT,434217N,0723057W,1316,Woodstock North,,10/29/1980
Pompanoosuc,1460446,Populated Place,Windsor,VT,434520N,0721351W,387,Lyme,,10/29/1980
Ponnesoon Knolls Camp,1918823,Locale,Chittenden,VT,443532N,0731341W,161,Colchester,,5/8/2001
Popes Paradise (historical),1918204,Locale,Addison,VT,Unknown,Unknown,,Unknown,,5/8/2001
Post Mills,1459054,Populated Place,Orange,VT,435308N,0721538W,702,Vershire,1/1/1896,10/29/1980
Pottersville,1461862,Populated Place,Lamoille,VT,443220N,0722709W,738,Wolcott,,10/29/1980
Poultney,1459064,Populated Place,Rutland,VT,433101N,0731410W,427,Poultney,,10/29/1980
Pownal,1461291,Populated Place,Bennington,VT,424556N,0731409W,587,Pownal,,10/29/1980
Pownal Center,1461292,Populated Place,Bennington,VT,424747N,0731323W,971,Pownal,,10/29/1980
Prindle Corners,1459073,Populated Place,Chittenden,VT,441805N,0730942W,433,Mount Philo,,10/29/1980
Proctor,1459076,Populated Place,Rutland,VT,433938N,0730208W,502,Proctor,,10/29/1980
Proctor Lookout,1461296,Locale,Addison,VT,435006N,0730106W,1722,Brandon,,10/29/1980
Proctorsville,1459078,Populated Place,Windsor,VT,432256N,0723818W,935,Ludlow,,10/29/1980
Prospect Hill,1461298,Populated Place,Rutland,VT,433925N,0725825W,781,Chittenden,,10/29/1980
Prospect Mountain Ski Center,1920388,Locale,Bennington,VT,425231N,0730431W,2234,Woodford,,5/8/2001
Prospect Mountain Winter Sports Area,1461653,Locale,Bennington,VT,425227N,0730402W,2753,Stamford,,5/1/1991
Prosper,1459090,Populated Place,Windsor,VT,433857N,0723337W,863,Woodstock North,,8/27/2002
Providence Orphan Assylum and Hospital,1918824,Locale,Chittenden,VT,442927N,0731341W,230,Burlington,,5/8/2001
Pumpkin Hill (historical),1919662,Populated Place,Caledonia,VT,442522N,0720437W,1010,Saint Johnsbury,,5/8/2001
Putnamville,1459110,Populated Place,Washington,VT,442030N,0723357W,679,Montpelier,,10/29/1980
Putney,1459111,Populated Place,Windham,VT,425829N,0723118W,374,Putney,,10/29/1980
Putney Station,1459115,Locale,Windham,VT,425748N,0723111W,249,Putney,,10/29/1980
Que-Chee Club,1922548,Locale,Windsor,VT,433923N,0722605W,574,Quechee,,5/11/2001
Quechee,1459125,Populated Place,Windsor,VT,433846N,0722506W,558,Quechee,,10/29/1980
Queen City Park,1459127,Populated Place,Chittenden,VT,442636N,0731312W,164,Burlington,,10/29/1980
Ralph Myhre Golf Course of Middlebury College,1918207,Locale,Addison,VT,440018N,0731030W,397,Middlebury,,5/8/2001
Ralston Corner,1459135,Populated Place,Essex,VT,442545N,0715001W,1365,Miles Pond,,10/29/1980
Ramsey Corner,1460447,Populated Place,Caledonia,VT,443414N,0720638W,1509,Lyndonville,,10/29/1980
Ranch Camp,1459137,Locale,Lamoille,VT,443013N,0724659W,1280,Mount Mansfield,,10/29/1980
Randall Drive-In,2633589,Locale,Windsor,VT,435208N,0723833W,666,Bethel,,10/14/2010
Randolph,1459140,Populated Place,Orange,VT,435530N,0723957W,663,Randolph,,10/29/1980
Randolph Center,1459141,Populated Place,Orange,VT,435627N,0723627W,1362,Randolph Center,,10/29/1980
Ransomvale,1922065,Populated Place,Rutland,VT,433927N,0730753W,686,Bomoseen,,5/11/2001
Raponda Turn,1921127,Locale,Windham,VT,425119N,0724923W,1808,Jacksonville,,5/8/2001
Rawsonville,1461313,Populated Place,Windham,VT,430845N,0725025W,1142,Londonderry,,10/29/1980
Reading Center,1459149,Locale,Windsor,VT,433007N,0723443W,1352,Woodstock South,,10/29/1980
Readsboro,1461314,Populated Place,Bennington,VT,424618N,0725650W,1250,Readsboro,,10/29/1980
Readsboro Falls,1461315,Populated Place,Bennington,VT,424812N,0725829W,1709,Readsboro,,10/29/1980
Red Mill Brook Campground,1461660,Locale,Bennington,VT,425358N,0730106W,2195,Woodford,,5/1/1991
Red Mill Brook Camping Area,1920398,Locale,Bennington,VT,425359N,0730237W,2362,Woodford,,5/8/2001
Red Spruce Seed Production Area,1461833,Locale,Windsor,VT,435052N,0725201W,1673,Rochester,,6/1/1991
Redstone Park,1460489,Populated Place,Chittenden,VT,442657N,0731347W,108,Burlington,,10/1/1992
Reedville,1459162,Populated Place,Windsor,VT,431543N,0723928W,856,Andover,,10/29/1980
Reid Hollow,1460448,Populated Place,Windham,VT,424837N,0724307W,1224,Governors Mountain,,10/29/1980
Rest N'Nest Campground,1921534,Locale,Orange,VT,434900N,0721241W,617,Lyme,,5/8/2001
Rhode Island Corner,1459171,Populated Place,Chittenden,VT,442140N,0730426W,761,Hinesburg,,10/29/1980
Rices Mills,1459174,Populated Place,Orange,VT,434929N,0721709W,577,South Strafford,,10/29/1980
Richford,1459178,Populated Place,Franklin,VT,445949N,0724016W,453,Richford,,10/29/1980
Richford Country Club,1461803,Locale,Franklin,VT,450027N,0723825W,771,Richford OE N,,10/29/1980
Richford Country Club,1920728,Locale,Franklin,VT,450018N,0723853W,686,Richford OE N,,5/8/2001
Richmond,1459179,Populated Place,Chittenden,VT,442419N,0725934W,341,Richmond,,10/29/1980
Richville,1460449,Populated Place,Addison,VT,435226N,0731618W,295,Orwell,,10/29/1980
Richville,1461327,Populated Place,Bennington,VT,430921N,0730306W,663,Manchester,,10/29/1980
Ricker Campground,1919669,Locale,Caledonia,VT,441505N,0721451W,1063,Peacham,,5/8/2001
Ricker Mills,1459183,Populated Place,Caledonia,VT,441419N,0721421W,1129,Groton,,10/29/1980
Ricker Mills (historical),1919670,Locale,Caledonia,VT,Unknown,Unknown,,Unknown,,5/8/2001
Rickers Mill Station (historical),1919672,Locale,Caledonia,VT,Unknown,Unknown,,Unknown,,5/8/2001
Riders Corners,1459187,Locale,Orange,VT,440103N,0722240W,1768,Washington,,10/29/1980
Rikert Ski Touring Center Bread Loaf Campus,1918211,Locale,Addison,VT,435615N,0725714W,2014,Bread Loaf,,5/8/2001
Ripton,1461330,Populated Place,Addison,VT,435825N,0730202W,1076,East Middlebury,,10/29/1980
Ritterbush Camp,1459191,Locale,Lamoille,VT,444446N,0723612W,1063,Eden,,10/29/1980
Rivers Bend Campground,1918215,Locale,Addison,VT,440346N,0731101W,289,Middlebury,,5/8/2001
Riverside,1459198,Populated Place,Windsor,VT,434533N,0724324W,686,Bethel,,10/29/1980
Riverside,1459199,Populated Place,Chittenden,VT,443113N,0725651W,689,Underhill,,10/29/1980
Riverside Reformatory,1461804,Locale,Rutland,VT,433632N,0725925W,564,Rutland,,10/29/1980
Robert Frost Wayside,1918217,Locale,Addison,VT,435741N,0730104W,1345,East Middlebury,,5/8/2001
Robinson,1461343,Populated Place,Windsor,VT,435133N,0725220W,1001,Rochester,,10/29/1980
Rochester,1461345,Populated Place,Windsor,VT,435228N,0724828W,873,Rochester,,10/29/1980
Rochester Ranger Station,1461830,Locale,Windsor,VT,435214N,0724826W,840,Rochester,,6/1/1991
Rock Landing,1460450,Populated Place,Addison,VT,441156N,0731854W,98,Vergennes West,,10/29/1980
Rockingham,1459235,Populated Place,Windham,VT,431115N,0722920W,489,Bellows Falls,,10/29/1980
Rockville,1461347,Populated Place,Addison,VT,441444N,0730351W,548,Bristol,,10/29/1980
Rocky Dale,1461348,Populated Place,Addison,VT,440745N,0730256W,666,Bristol,1/1/1964,10/29/1980
Rocky Ridge Golf Course,1918839,Locale,Chittenden,VT,442204N,0730753W,371,Mount Philo,,5/8/2001
Rolston Rest Shelter,1461703,Locale,Rutland,VT,434246N,0725140W,2162,Pico Peak,,6/1/1992
Round Barn,1459249,Locale,Franklin,VT,445516N,0730433W,118,Highgate Center,,10/29/1980
Roxbury,1459273,Populated Place,Washington,VT,440539N,0724358W,1007,Roxbury,,10/29/1980
Roxbury Flat,1459274,Locale,Washington,VT,440413N,0724439W,1033,Roxbury,,10/29/1980
Royalton,1459277,Populated Place,Windsor,VT,434857N,0723244W,502,South Royalton,,10/29/1980
Running Bear Campground,1922573,Locale,Windsor,VT,432508N,0722419W,420,Windsor,,5/11/2001
Rupert,1459283,Populated Place,Bennington,VT,431535N,0731322W,833,Pawlet,,10/29/1980
Russellville,1461727,Populated Place,Rutland,VT,432255N,0725029W,2539,Mount Holly,,2/1/1991
Russtown,1459293,Populated Place,Windsor,VT,433701N,0722118W,597,North Hartland,,10/29/1980
Rustic Haven Campground,1919398,Locale,Essex,VT,442557N,0715253W,938,Concord,,5/8/2001
Rutland,1461361,Populated Place,Rutland,VT,433638N,0725821W,646,Rutland,,10/29/1980
Rutland City Swimming Pool,1922071,Locale,Rutland,VT,433556N,0725808W,561,Rutland,,5/11/2001
Rutland Country Club,1922072,Locale,Rutland,VT,433723N,0725918W,577,Rutland,,5/11/2001
Rutland County,1461767,Civil,Rutland,VT,433448N,0730212W,509,West Rutland,,2/1/1993
Rutland Golf Course,1922078,Locale,Rutland,VT,433737N,0725918W,597,Chittenden,,5/11/2001
Rutland Mall Shopping Center,1922084,Locale,Rutland,VT,433725N,0725718W,650,Rutland,,5/11/2001
Rutland Plaza Shopping Center,1922088,Locale,Rutland,VT,433616N,0725847W,548,Rutland,,5/11/2001
Ryegate Corner,1459297,Populated Place,Caledonia,VT,441230N,0720613W,1050,Woodsville,,10/29/1980
Sacred Heart Camp (historical),1918544,Locale,Grand Isle,VT,445354N,0732037W,148,Rouses Point,,5/8/2001
Saint Albans,1459306,Populated Place,Franklin,VT,444839N,0730459W,417,Saint Albans,,10/29/1980
Saint Albans Bay,1459308,Populated Place,Franklin,VT,444828N,0730821W,112,Saint Albans Bay,,10/29/1980
Saint Albans Drive-In,2633591,Locale,Franklin,VT,445036N,0730501W,367,Saint Albans,,10/14/2010
Saint Albans Shopping Center,1920749,Locale,Franklin,VT,444856N,0730453W,443,Saint Albans,,5/8/2001
Saint Albans Town Industrial Park,1920751,Locale,Franklin,VT,444803N,0730558W,361,Saint Albans,,5/8/2001
Saint Johnsbury,1459328,Populated Place,Caledonia,VT,442509N,0720054W,594,Saint Johnsbury,,10/29/1980
Saint Johnsbury Center,1459329,Populated Place,Caledonia,VT,442724N,0720056W,597,Saint Johnsbury,,10/29/1980
Saint Johnsbury Country Club,1461805,Locale,Caledonia,VT,442930N,0720022W,666,Saint Johnsbury,,10/29/1980
Saint Johnsbury Plain (historical),1919690,Populated Place,Caledonia,VT,Unknown,Unknown,,Unknown,,5/8/2001
Saint Marks Youth Center,1459337,Locale,Chittenden,VT,443035N,0731500W,167,Colchester Point,,10/29/1980
Saint Rocks,1459346,Populated Place,Franklin,VT,445103N,0725639W,371,Fairfield,,10/29/1980
Salisbury,1461370,Populated Place,Addison,VT,435347N,0730559W,423,East Middlebury,,10/29/1980
Salisbury Hatchery,1918230,Locale,Addison,VT,435525N,0730601W,436,East Middlebury,,5/8/2001
Salisbury Station,1459354,Populated Place,Addison,VT,435505N,0730939W,377,Cornwall,,10/29/1980
Samsonville,1459356,Populated Place,Franklin,VT,445525N,0724357W,413,Richford,,10/29/1980
Sanderson Corner,1459365,Populated Place,Franklin,VT,444016N,0725825W,505,Gilson Mountain,,10/29/1980
Sandgate,1459366,Populated Place,Bennington,VT,430853N,0731156W,804,West Rupert,,10/29/1980
Satans Kingdom,1461375,Populated Place,Addison,VT,435235N,0730351W,636,East Middlebury,,10/29/1980
Saw Mill Mall Shopping Center,1919203,Locale,Washington,VT,442018N,0724522W,430,Waterbury,,5/8/2001
Saxtons River,1459397,Populated Place,Windham,VT,430816N,0723035W,472,Saxtons River,,10/29/1980
Scottsville,1459436,Populated Place,Rutland,VT,432333N,0730028W,837,Middletown Springs,,10/29/1980
Searsburg,1461382,Populated Place,Bennington,VT,425325N,0725708W,1703,Mount Snow,,10/29/1980
Seth Warners Camping Ground (historical),1920426,Locale,Bennington,VT,Unknown,Unknown,,Unknown,,5/8/2001
Seyon Ranch,1919699,Locale,Caledonia,VT,441337N,0721813W,1801,Knox Mountain,,5/8/2001
Shadowbrook Farm,1920429,Locale,Bennington,VT,425156N,0731240W,833,Pownal,,5/8/2001
Shady Acres Campground,1920428,Locale,Bennington,VT,424842N,0731235W,915,Pownal,,5/8/2001
Shady Rill,1459454,Populated Place,Washington,VT,442039N,0723521W,791,Montpelier,,10/29/1980
Shaftsbury,1461385,Populated Place,Bennington,VT,430031N,0731128W,922,Arlington,,10/29/1980
Shaftsbury Center,1461386,Populated Place,Bennington,VT,425857N,0731223W,1089,Bennington,,10/29/1980
Sharon,1459459,Populated Place,Windsor,VT,434704N,0722715W,486,Sharon,,10/29/1980
Shawville,1459470,Populated Place,Franklin,VT,445511N,0725756W,394,Sheldon Springs,,10/29/1980
Sheddsville,1459472,Populated Place,Windsor,VT,432921N,0722948W,1165,Windsor,,10/29/1980
Sheffield,1459474,Populated Place,Caledonia,VT,443607N,0720650W,906,Lyndonville,,10/29/1980
Sheffield Square,1460451,Populated Place,Caledonia,VT,443721N,0720924W,1660,Stannard,,10/29/1980
Shelburne,1459476,Populated Place,Chittenden,VT,442250N,0731339W,154,Burlington,,10/29/1980
Shelburne Bay Plaza Shopping Center,1918870,Locale,Chittenden,VT,442606N,0731248W,161,Burlington,,5/8/2001
Shelburne Camping Area,1918871,Locale,Chittenden,VT,442404N,0731251W,164,Burlington,,5/8/2001
Shelburne Falls,1459478,Populated Place,Chittenden,VT,442214N,0731255W,167,Mount Philo,,10/29/1980
Shelburne Road Plaza Shopping Center,1918877,Locale,Chittenden,VT,442707N,0731228W,210,Burlington,,5/8/2001
Shelburne Shipyard,1460493,Locale,Chittenden,VT,442604N,0731454W,105,Burlington,,10/1/1992
Shelburne Shopping Park Shopping Center,1918879,Locale,Chittenden,VT,442252N,0731335W,154,Burlington,,5/8/2001
Sheldon,1459481,Populated Place,Franklin,VT,445254N,0725634W,341,Sheldon Springs,,10/29/1980
Sheldon Junction,1459485,Populated Place,Franklin,VT,445406N,0725651W,344,Sheldon Springs,,10/29/1980
Sheldon Springs,1459486,Populated Place,Franklin,VT,445422N,0725839W,292,Sheldon Springs,,10/29/1980
Sherburne Center,1461395,Populated Place,Rutland,VT,433933N,0724626W,1243,Pico Peak,,10/29/1980
Sherman Hollow Ski Touring Center,1918882,Locale,Chittenden,VT,442124N,0730129W,915,Hinesburg,,5/8/2001
Sherwood Forest,1461684,Populated Place,Windham,VT,431342N,0725026W,1227,Londonderry,,6/1/1991
Shipman Hill,1459497,Populated Place,Chittenden,VT,443137N,0731223W,190,Colchester,,10/29/1980
Shoreham,1459499,Populated Place,Addison,VT,435337N,0731857W,338,Bridport,,10/29/1980
Shortsleve Mink Farm (historical),1920116,Locale,Orleans,VT,444631N,0722728W,994,Lowell,,5/8/2001
Shrewsbury,1459502,Populated Place,Rutland,VT,433032N,0725200W,1650,Killington Peak,,10/29/1980
Silver Lake Camp and Picnic Grounds,1461700,Locale,Addison,VT,435342N,0730302W,1260,East Middlebury,,6/1/1991
Silver Lake Camping Area,1922595,Locale,Windsor,VT,434334N,0723703W,1391,Woodstock North,,5/11/2001
Silver Lake Recreation Area,1918244,Locale,Addison,VT,435354N,0730302W,1266,East Middlebury,,5/8/2001
Silver Towers Camp,1461690,Locale,Addison,VT,435716N,0730127W,1302,East Middlebury,,6/1/1991
Silver Towers Camp,1918245,Locale,Addison,VT,435723N,0730133W,1257,East Middlebury,,5/8/2001
Simms Hill,1460452,Populated Place,Essex,VT,445137N,0713517W,1729,Tinkerville,,8/27/2002
Simonsville,1459516,Populated Place,Windsor,VT,431528N,0724257W,1155,Andover,,10/29/1980
Simpsonville,1461403,Populated Place,Windham,VT,430421N,0723859W,705,Townshend,,10/29/1980
Sitzmark Cross Country Ski Center,1921172,Locale,Windham,VT,425518N,0725014W,1594,West Dover,,5/8/2001
Sitzmark Golf Course,1921173,Locale,Windham,VT,425515N,0725024W,1578,West Dover,,5/8/2001
Skeels Corner,1459526,Populated Place,Franklin,VT,445356N,0730359W,322,Highgate Center,,10/29/1980
Skylight Lodge,1461645,Locale,Addison,VT,435913N,0725611W,3373,Bread Loaf,,6/1/1991
Smith Corner,1460453,Populated Place,Caledonia,VT,442800N,0721616W,1453,Cabot,,10/29/1980
Smithville,1459547,Populated Place,Windsor,VT,432317N,0724004W,958,Ludlow,,10/29/1980
Smoke Rise Family Campground,1922128,Locale,Rutland,VT,434911N,0730610W,479,Brandon,,5/11/2001
Smugglers Notch Natural Area,1918451,Locale,Lamoille,VT,443314N,0724746W,2119,Mount Mansfield,,5/8/2001
Snow Valley Ski Area (historical),1461416,Locale,Bennington,VT,431155N,0725809W,1913,Peru,,10/29/1980
Snow Valley Ski Center,1920444,Locale,Bennington,VT,431202N,0725928W,1407,Peru,,5/8/2001
Sodom,1459558,Populated Place,Bennington,VT,425610N,0731556W,525,Hoosick Falls,,10/29/1980
Somerset,1461418,Populated Place,Windham,VT,425701N,0725911W,1893,Mount Snow,,10/29/1980
Songadeewin Camp,1459562,Locale,Orleans,VT,444624N,0720425W,1306,Westmore,,10/29/1980
Sonneberg Ski Area,1922639,Locale,Windsor,VT,434328N,0723518W,1588,Woodstock North,,5/11/2001
South Albany,1459564,Populated Place,Orleans,VT,444129N,0721843W,1342,Craftsbury,,10/29/1980
South Alburg,1459565,Populated Place,Grand Isle,VT,445315N,0731642W,112,Rouses Point,,10/29/1980
South Barre,1459567,Populated Place,Washington,VT,441037N,0723020W,732,Barre West,,10/29/1980
South Bourn Shelter,1461422,Locale,Bennington,VT,430612N,0730018W,2582,Sunderland,,10/29/1980
South Breakwater Light,1461820,Locale,Chittenden,VT,442810N,0731333W,98,Burlington,,10/1/1992
South Burlington,1459577,Populated Place,Chittenden,VT,442801N,0731015W,315,Burlington,,10/29/1980
South Burlington Factory Outlet Center Shopping Center,1918888,Locale,Chittenden,VT,442657N,0731227W,213,Burlington,,5/8/2001
South Cabot,1459578,Populated Place,Washington,VT,442203N,0721632W,1424,Marshfield,,10/29/1980
South Cambridge,1459579,Populated Place,Lamoille,VT,443636N,0724837W,853,Mount Mansfield,,10/29/1980
South Corinth,1459581,Populated Place,Orange,VT,440058N,0721357W,784,East Corinth,,10/29/1980
South Dorset,1461428,Populated Place,Bennington,VT,431321N,0730424W,896,Manchester,,10/29/1980
South Duxbury,1461429,Populated Place,Washington,VT,441455N,0724711W,725,Waitsfield,,10/29/1980
South End,1461430,Populated Place,Rutland,VT,431902N,0725933W,686,Danby,,10/29/1980
South Franklin,1459586,Populated Place,Franklin,VT,445441N,0725158W,367,Enosburg Falls,,10/29/1980
South Franklin,1920781,Populated Place,Franklin,VT,445630N,0725048W,666,Enosburg Falls,,5/8/2001
South Hero,1459588,Populated Place,Grand Isle,VT,443843N,0731808W,151,South Hero,,10/29/1980
South Hill Riverside Campground,1918892,Locale,Chittenden,VT,443057N,0725651W,663,Underhill,,5/8/2001
South Hinesburg,1459593,Populated Place,Chittenden,VT,441732N,0730411W,463,Hinesburg,,10/29/1980
South Kirby,1919710,Populated Place,Caledonia,VT,442813N,0715408W,1217,Concord,,5/8/2001
South Lincoln,1461438,Populated Place,Addison,VT,440417N,0725821W,1306,Lincoln,,10/29/1980
South Londonderry,1461439,Populated Place,Windham,VT,431134N,0724851W,1056,Londonderry,,8/27/2002
South Lunenburg,1459595,Populated Place,Essex,VT,442545N,0714045W,863,Gilman,,10/29/1980
South Newbury,1459599,Populated Place,Orange,VT,440246N,0720505W,476,Newbury,,10/29/1980
South Newfane,1459600,Populated Place,Windham,VT,425617N,0724219W,620,Newfane,,10/29/1980
South Newport,1460455,Populated Place,Orleans,VT,445249N,0722008W,1401,Newport Center,,10/29/1980
South Northfield,1459601,Populated Place,Washington,VT,440655N,0723915W,837,Roxbury,,10/29/1980
South Peacham,1459602,Populated Place,Caledonia,VT,441853N,0720957W,1010,Peacham,,10/29/1980
South Pomfret,1459604,Populated Place,Windsor,VT,433954N,0723222W,728,Woodstock North,,10/29/1980
South Poultney,1459608,Populated Place,Rutland,VT,432832N,0731409W,571,Wells,,10/29/1980
South Randolph,1459609,Populated Place,Orange,VT,435341N,0723434W,561,Randolph Center,,10/29/1980
South Reading,1459610,Populated Place,Windsor,VT,432827N,0723521W,1263,Cavendish,,10/29/1980
South Richford,1459611,Populated Place,Franklin,VT,445603N,0723906W,810,Richford,,10/29/1980
South Royalton,1459612,Populated Place,Windsor,VT,434915N,0723116W,492,South Royalton,,10/29/1980
South Ryegate,1459613,Populated Place,Caledonia,VT,441118N,0720827W,748,Groton,,10/29/1980
South Shaftsbury,1461445,Populated Place,Bennington,VT,425647N,0731238W,745,Bennington,,10/29/1980
South Sherburne,1854091,Populated Place,Rutland,VT,433619N,0724508W,1122,Killington Peak,,3/15/2000
South Starksboro,1461446,Populated Place,Addison,VT,440945N,0730049W,1093,Bristol,,10/29/1980
South Strafford,1459616,Populated Place,Orange,VT,435007N,0722158W,919,South Strafford,,10/29/1980
South Tunbridge,1459617,Populated Place,Orange,VT,435119N,0723010W,541,South Royalton,,10/29/1980
South Vernon,1461818,Populated Place,Windham,VT,424339N,0722752W,262,Northfield,,10/29/1980
South Vershire,1460456,Populated Place,Orange,VT,435520N,0721900W,1365,Vershire,,10/29/1980
South Walden,1460457,Populated Place,Caledonia,VT,442828N,0721723W,1230,Cabot,,10/29/1980
South Wallingford,1461450,Populated Place,Rutland,VT,432446N,0725933W,640,Wallingford,,10/29/1980
South Wardsboro,1461451,Populated Place,Windham,VT,430041N,0724700W,1578,Jamaica,,10/29/1980
South Washington,1460458,Populated Place,Orange,VT,440141N,0722446W,1381,Washington,,10/29/1980
South Windham,1459623,Populated Place,Windham,VT,430741N,0724240W,1440,Windham,,10/29/1980
South Woodbury,1459624,Populated Place,Washington,VT,442454N,0722517W,1027,Woodbury,,10/29/1980
South Woodstock,1459626,Populated Place,Windsor,VT,433356N,0723156W,1040,Woodstock South,,10/29/1980
Spooners Trailer Park and Campground,1919214,Locale,Washington,VT,441941N,0722242W,807,Plainfield,,5/8/2001
Spoonerville,1460459,Populated Place,Windsor,VT,431843N,0723247W,696,Chester,,10/29/1980
Spring Grove Campgrounds,1459646,Locale,Addison,VT,440507N,0731103W,348,Middlebury,,10/29/1980
Springfield,1459648,Populated Place,Windsor,VT,431754N,0722856W,400,Springfield,,10/29/1980
Springfield Pool,1922617,Locale,Windsor,VT,431823N,0722916W,682,Springfield,,5/11/2001
Springfield Shopping Plaza Shopping Center,1922619,Locale,Windsor,VT,431813N,0722932W,446,Springfield,,5/11/2001
Spruce Peak Ski Area,1918453,Locale,Lamoille,VT,443230N,0724644W,2270,Mount Mansfield,,5/8/2001
Stacy Crossroads,1460460,Populated Place,Rutland,VT,434518N,0731834W,325,Orwell,,10/29/1980
Stamford,1461460,Populated Place,Bennington,VT,424522N,0730404W,1129,Stamford,,10/29/1980
Stannard,1459669,Populated Place,Caledonia,VT,443232N,0721251W,1676,Stannard,,10/29/1980
Starksboro,1461467,Populated Place,Addison,VT,441338N,0730326W,594,Bristol,,10/29/1980
Starr Farm Beach,1459682,Populated Place,Chittenden,VT,443037N,0731624W,135,Colchester Point,,10/29/1980
State of Vermont,1779802,Civil,Washington,VT,440431N,0723945W,1906,Roxbury,1/1/1965,2/6/1998
Stephen A Douglas Birthplace,1922137,Locale,Rutland,VT,434801N,0730541W,407,Brandon,,5/11/2001
Stevens,1460461,Populated Place,Essex,VT,443553N,0713338W,883,Groveton,,10/29/1980
Stevens Mills,1459702,Populated Place,Orleans,VT,445943N,0723650W,489,Jay Peak,,10/29/1980
Stevensville,1459707,Populated Place,Chittenden,VT,443018N,0725159W,1142,Mount Mansfield,,10/29/1980
Stillwater Campground,1919725,Locale,Caledonia,VT,441647N,0721622W,1112,Marshfield,,5/8/2001
Stockbridge,1461473,Populated Place,Windsor,VT,434710N,0724513W,853,Rochester,,10/29/1980
Stocker Acres,1920465,Populated Place,Bennington,VT,430740N,0725226W,2195,Londonderry,,5/8/2001
Story Spring Shelter,1461475,Locale,Bennington,VT,430301N,0730043W,2818,Sunderland,,10/29/1980
Stowe,1459745,Populated Place,Lamoille,VT,442755N,0724104W,722,Stowe,,10/29/1980
Stowe Fork,1459747,Populated Place,Lamoille,VT,443008N,0724522W,955,Mount Mansfield,,10/29/1980
Stowe Golf Course,1918458,Locale,Lamoille,VT,442844N,0724218W,758,Stowe,,5/8/2001
Stowe Hollow Campground,1918460,Locale,Lamoille,VT,442625N,0724048W,883,Stowe,,5/8/2001
Strafford,1459751,Populated Place,Orange,VT,435159N,0722240W,922,Sharon,,10/29/1980
Stratton,1461476,Populated Place,Windham,VT,430234N,0725439W,1952,Stratton Mountain,,10/29/1980
Stratton Acres,1920467,Populated Place,Bennington,VT,430818N,0725252W,1516,Peru,,5/8/2001
Stratton Mountain,1920468,Populated Place,Bennington,VT,430700N,0725423W,2001,Stratton Mountain,,5/8/2001
Stratton Mountain Camp,1461480,Locale,Windham,VT,430244N,0725719W,2310,Stratton Mountain,,10/29/1980
Stratton Mountain Country Club,1920469,Locale,Bennington,VT,430727N,0725433W,1844,Stratton Mountain,,5/8/2001
Stratton Mountain Golf Course,1920470,Locale,Bennington,VT,430733N,0725406W,1811,Peru,,5/8/2001
Stratton Mountain Ski Center,1920471,Locale,Bennington,VT,430741N,0725432W,2024,Peru,,5/8/2001
Stratton Mountain Winter Sports Area,1461661,Locale,Windham,VT,430649N,0725440W,2178,Stratton Mountain,,5/1/1991
Stratton Valley,1920472,Populated Place,Bennington,VT,430808N,0725343W,1821,Peru,,5/8/2001
Stratton View Shelter,1461668,Locale,Windham,VT,430622N,0725816W,2572,Stratton Mountain,,5/1/1991
Strattonwald,1920473,Populated Place,Bennington,VT,430914N,0725253W,1470,Peru,,5/8/2001
Sucker Brook Shelter,1461487,Locale,Addison,VT,435327N,0725804W,2671,Bread Loaf,,10/29/1980
Sudbury,1459766,Populated Place,Rutland,VT,434757N,0731216W,558,Sudbury,,10/29/1980
Sugar Hollow,1922143,Populated Place,Rutland,VT,434543N,0730122W,745,Brandon,,5/11/2001
Sugar House Nordic Center,1918469,Locale,Lamoille,VT,443423N,0724627W,1555,Mount Mansfield,,5/8/2001
Sugarbush Ski Center,1919219,Locale,Washington,VT,441140N,0725328W,1047,Mount Ellen,,5/8/2001
Sugarbush Valley Ski Area,1461807,Locale,Washington,VT,440814N,0725424W,1988,Mount Ellen,,10/29/1980
Sugarbush Village,1919220,Populated Place,Washington,VT,440829N,0725344W,1778,Mount Ellen,,5/8/2001
Sugarwood Hill,1922146,Populated Place,Rutland,VT,433955N,0725908W,856,Chittenden,,5/11/2001
Suicide Six Ski Area,1922640,Locale,Windsor,VT,433953N,0723238W,751,Woodstock North,,5/11/2001
Summerville (historical),1919728,Populated Place,Caledonia,VT,Unknown,Unknown,,Unknown,,5/8/2001
Summit,1460384,Locale,Essex,VT,445359N,0715305W,1398,Morgan Center,,8/27/2002
Summit,1461494,Locale,Rutland,VT,432648N,0724652W,1516,Mount Holly,,10/29/1980
Summit,1919730,Populated Place,Caledonia,VT,444122N,0720323W,1214,Sutton,,5/8/2001
Summit Siding,1459777,Locale,Orleans,VT,445817N,0721726W,932,Newport Center,,10/29/1980
Sunderland,1461496,Populated Place,Bennington,VT,430648N,0730611W,663,Sunderland,,10/29/1980
Sunderland Station,1920479,Locale,Bennington,VT,430631N,0730711W,659,Sunderland,,5/8/2001
Sunmit,1459781,Populated Place,Caledonia,VT,444125N,0720326W,1220,Sutton,,10/29/1980
Sunnyside Shelter,1461744,Locale,Rutland,VT,432932N,0725532W,1798,Wallingford,,2/1/1991
Sunrise Camp,1461497,Locale,Addison,VT,434952N,0725737W,2543,Mount Carmel,,10/29/1980
Sunrise View Farm,2723160,Locale,Addison,VT,440917N,0732021W,187,Vergennes West,,5/8/2012
Sunset Drive-In,2630519,Locale,Chittenden,VT,443213N,0731505W,135,Colchester Point,,6/21/2010
Sutton,1459792,Populated Place,Caledonia,VT,443759N,0720132W,1214,Sutton,,10/29/1980
Sutton Station,1459796,Locale,Caledonia,VT,443934N,0720111W,1047,Sutton,,10/29/1980
Swanton,1459802,Populated Place,Franklin,VT,445505N,0730727W,144,Highgate Center,,10/29/1980
Swanton Junction,1460462,Populated Place,Franklin,VT,445240N,0730555W,190,Highgate Center,,10/29/1980
Swezey Camp,1461500,Locale,Bennington,VT,430900N,0725929W,2300,Peru,,10/29/1980
Taft Lodge,1459814,Locale,Lamoille,VT,443233N,0724834W,3596,Mount Mansfield,,10/29/1980
Tafts Corner,1918900,Populated Place,Chittenden,VT,442659N,0730637W,397,Essex Junction,,5/8/2001
Tafts Corner Shopping Center,1918901,Locale,Chittenden,VT,442659N,0730635W,397,Essex Junction,,5/8/2001
Taftsville,1459815,Populated Place,Windsor,VT,433750N,0722808W,643,Quechee,,10/29/1980
Talcville,1461507,Populated Place,Windsor,VT,435131N,0724819W,837,Rochester,,10/29/1980
Tampico Hill (historical),1919736,Populated Place,Caledonia,VT,Unknown,Unknown,,Unknown,,5/8/2001
Tarbellville,1461510,Populated Place,Rutland,VT,432431N,0725028W,1535,Mount Holly,,10/29/1980
Tater Hill Golf Course,1921201,Locale,Windham,VT,431325N,0724252W,1791,Windham,,5/8/2001
Tater Hill Ski Center,1921202,Locale,Windham,VT,431319N,0724304W,1759,Windham,,5/8/2001
Taylor Bridge,1459826,Populated Place,Caledonia,VT,442903N,0721733W,1165,Cabot,,10/29/1980
Taylor Lodge,1459830,Locale,Chittenden,VT,442914N,0724944W,1811,Bolton Mountain,,10/29/1980
Teela Wooket Camp,1459834,Locale,Washington,VT,440559N,0724343W,1076,Roxbury,,8/27/2002
Telemark Village,1922151,Populated Place,Rutland,VT,434007N,0724815W,1670,Pico Peak,,5/11/2001
Texas,1460463,Populated Place,Essex,VT,442504N,0714928W,1093,Miles Pond,,10/29/1980
Texas Falls Picnic Area,1918902,Locale,Chittenden,VT,435614N,0725417W,1280,Bread Loaf,,5/8/2001
Texas Falls Picnic Grounds,1461829,Locale,Addison,VT,435614N,0725418W,1276,Bread Loaf,,6/1/1991
Thayer Beach,1460504,Populated Place,Chittenden,VT,443303N,0731535W,128,Colchester Point,,10/1/1992
The Burning,1461671,Area,Bennington,VT,430607N,0730357W,2490,Sunderland,,6/1/1991
The Cedars,1459846,Locale,Chittenden,VT,444243N,0731218W,105,Georgia Plains,,10/29/1980
The Elbow,1461530,Locale,Bennington,VT,425041N,0730813W,2356,Pownal,,10/29/1980
The Farm Campground,1922649,Locale,Windsor,VT,431727N,0722728W,538,Springfield,,5/11/2001
The Four Corners,1459854,Populated Place,Orleans,VT,443539N,0721345W,1280,Stannard,,10/29/1980
The Island,1461532,Populated Place,Windsor,VT,431516N,0724741W,1191,Weston,,10/29/1980
The Market Place at Bridge Water Mill Shopping Center,1922651,Locale,Windsor,VT,433510N,0723705W,820,Woodstock South,,5/11/2001
The Moorings,1918906,Locale,Chittenden,VT,443304N,0731333W,98,Colchester,,5/8/2001
The White Horse Ski Touring Center,1921209,Locale,Windham,VT,425224N,0725106W,1863,Jacksonville,,5/8/2001
The Woods,1922154,Populated Place,Rutland,VT,433939N,0724735W,1745,Pico Peak,,5/11/2001
Thendara Camp,1461538,Locale,Bennington,VT,425048N,0730758W,2418,Pownal,,10/29/1980
Theron Dean Shelter,1918907,Locale,Chittenden,VT,441238N,0725553W,2392,Mount Ellen,,5/8/2001
Thetford Center,1459897,Populated Place,Orange,VT,434943N,0721446W,610,Lyme,,10/29/1980
Thetford Hill,1459896,Populated Place,Orange,VT,434910N,0721343W,922,Lyme,1/1/1977,10/29/1980
Thistle Hill Camping Area,1919222,Locale,Washington,VT,442217N,0721822W,1617,Marshfield,,5/8/2001
Thompsonburg,1461540,Populated Place,Windham,VT,431228N,0724648W,1204,Londonderry,,10/29/1980
Tice,1459903,Populated Place,Orleans,VT,445847N,0720206W,1148,West Charleston,,10/29/1980
Tillotson Camp,1459906,Locale,Orleans,VT,444801N,0723258W,2585,Hazens Notch,,10/29/1980
Tillotson Mill,1460464,Populated Place,Orleans,VT,444655N,0723103W,1319,Hazens Notch,,10/29/1980
Timber Creek Ski Resort,1921213,Locale,Windham,VT,425755N,0725313W,1919,Mount Snow,,5/8/2001
Timber Hill Estates,1922155,Populated Place,Rutland,VT,432749N,0725840W,614,Wallingford,,5/11/2001
Timber Village Shopping Center,1922654,Locale,Windsor,VT,433900N,0722443W,640,Quechee,,5/11/2001
Timbertrail Camp,1459909,Locale,Windham,VT,431311N,0723509W,810,Saxtons River,,10/29/1980
Tinmouth,1459912,Populated Place,Rutland,VT,432655N,0730258W,1253,Middletown Springs,,10/29/1980
Tolman Corner,1460465,Populated Place,Orleans,VT,443403N,0721824W,1473,Caspian Lake,,10/29/1980
Topnotch Ski Touring Center,1918472,Locale,Lamoille,VT,442953N,0724437W,896,Stowe,,5/8/2001
Topsham Four Corners,1459928,Populated Place,Orange,VT,440556N,0721328W,804,East Corinth,,10/29/1980
Town Farm,1459932,Locale,Chittenden,VT,443206N,0731045W,289,Colchester,,10/29/1980
Town of Addison,1462023,Civil,Addison,VT,440417N,0732042W,105,Snake Mountain,,9/1/1995
Town of Albany,1462024,Civil,Orleans,VT,444402N,0722017W,1358,Craftsbury,,9/1/1995
Town of Alburgh,1462025,Civil,Grand Isle,VT,445708N,0731705W,161,Rouses Point,,9/1/1995
Town of Andover,1462026,Civil,Windsor,VT,431711N,0724321W,1470,Andover,,9/1/1995
Town of Arlington,1462027,Civil,Bennington,VT,430430N,0731208W,1152,Arlington,,9/1/1995
Town of Athens,1462028,Civil,Windham,VT,430653N,0723542W,1234,Westminster West,,9/1/1995
Town of Averill,1462029,Civil,Essex,VT,445636N,0714057W,2090,Averill,,9/1/1995
Town of Bakersfield,1462031,Civil,Franklin,VT,444737N,0724646W,781,Bakersfield,,9/1/1995
Town of Baltimore,1462032,Civil,Windsor,VT,432135N,0723357W,965,Chester,,9/1/1995
Town of Barnard,1462033,Civil,Windsor,VT,434346N,0723728W,1335,Woodstock North,,9/1/1995
Town of Barnet,1462034,Civil,Caledonia,VT,441911N,0720444W,1122,Barnet,,9/1/1995
Town of Barre,1462036,Civil,Washington,VT,441109N,0722854W,965,Barre East,,9/1/1995
Town of Barton,1462037,Civil,Orleans,VT,444529N,0720958W,1220,Orleans,,9/1/1995
Town of Belvidere,1462038,Civil,Lamoille,VT,444531N,0724037W,1086,Cold Hollow Mountains,,9/1/1995
Town of Bennington,1462039,Civil,Bennington,VT,425307N,0731247W,807,Bennington,,9/1/1995
Town of Benson,1462040,Civil,Rutland,VT,434244N,0731830W,518,Benson,,9/1/1995
Town of Berkshire,1462041,Civil,Franklin,VT,445811N,0724529W,820,Enosburg Falls,,9/1/1995
Town of Berlin,1462042,Civil,Washington,VT,441234N,0723614W,1257,Barre West,,9/1/1995
Town of Bethel,1462043,Civil,Windsor,VT,435101N,0724022W,991,Bethel,,9/1/1995
Town of Bloomfield,1462044,Civil,Essex,VT,444843N,0713841W,1755,Bloomfield,,9/1/1995
Town of Bolton,1462045,Civil,Chittenden,VT,442356N,0725238W,997,Richmond,,9/1/1995
Town of Bradford,1462046,Civil,Orange,VT,440040N,0720929W,883,East Corinth,,9/1/1995
Town of Braintree,1462047,Civil,Orange,VT,435811N,0724314W,1007,Randolph,,9/1/1995
Town of Brandon,1462048,Civil,Rutland,VT,434758N,0730448W,453,Brandon,,9/1/1995
Town of Brattleboro,1462049,Civil,Windham,VT,425143N,0723652W,577,Brattleboro,,9/1/1995
Town of Bridgewater,1462050,Civil,Windsor,VT,433731N,0724001W,1099,Delectable Mountain,,9/1/1995
Town of Bridport,1462051,Civil,Addison,VT,435859N,0731959W,161,Bridport,,9/1/1995
Town of Brighton,1462052,Civil,Essex,VT,444807N,0715210W,1175,Spectacle Pond,,9/1/1995
Town of Bristol,1462053,Civil,Addison,VT,440723N,0730413W,1017,South Mountain,,9/1/1995
Town of Brookfield,1462054,Civil,Orange,VT,440143N,0723532W,1253,Brookfield,,9/1/1995
Town of Brookline,1462055,Civil,Windham,VT,430108N,0723636W,623,Westminster West,,9/1/1995
Town of Brownington,1462056,Civil,Orleans,VT,444952N,0720731W,1145,Orleans,,9/1/1995
Town of Brunswick,1462057,Civil,Essex,VT,444354N,0713945W,1037,Maidstone Lake,,9/1/1995
Town of Burke,1462059,Civil,Caledonia,VT,443651N,0715544W,978,Burke Mountain,,9/1/1995
Town of Cabot,1462061,Civil,Washington,VT,442405N,0721746W,1444,Cabot,,9/1/1995
Town of Calais,1462062,Civil,Washington,VT,442154N,0722757W,1158,Plainfield,,9/1/1995
Town of Cambridge,1462063,Civil,Lamoille,VT,443740N,0724907W,764,Jeffersonville,,9/1/1995
Town of Canaan,1462064,Civil,Essex,VT,445839N,0713442W,1286,Monadnock Mountain,,9/1/1995
Town of Castleton,1462065,Civil,Rutland,VT,433758N,0731027W,636,Bomoseen,,9/1/1995
Town of Cavendish,1462066,Civil,Windsor,VT,432419N,0723614W,938,Cavendish,,9/1/1995
Town of Charleston,1462067,Civil,Orleans,VT,445100N,0720113W,1325,Westmore,,9/1/1995
Town of Charlotte,1462068,Civil,Chittenden,VT,441832N,0731409W,614,Mount Philo,,9/1/1995
Town of Chelsea,1462069,Civil,Orange,VT,435938N,0722726W,1178,Chelsea,,9/1/1995
Town of Chester,1462070,Civil,Windsor,VT,431720N,0723701W,853,Chester,,9/1/1995
Town of Chittenden,1462071,Civil,Rutland,VT,434538N,0725515W,2198,Mount Carmel,,9/1/1995
Town of Clarendon,1462072,Civil,Rutland,VT,433149N,0725907W,607,Rutland,,9/1/1995
Town of Colchester,1462073,Civil,Chittenden,VT,443316N,0731300W,98,Colchester,,9/1/1995
Town of Concord,1462074,Civil,Essex,VT,442553N,0715001W,1362,Miles Pond,,9/1/1995
Town of Corinth,1462075,Civil,Orange,VT,440216N,0721725W,1430,West Topsham,,9/1/1995
Town of Cornwall,1462076,Civil,Addison,VT,435737N,0731258W,331,Cornwall,,9/1/1995
Town of Coventry,1462077,Civil,Orleans,VT,445308N,0721407W,932,Newport,,9/1/1995
Town of Craftsbury,1462078,Civil,Orleans,VT,443913N,0722346W,879,Albany,,9/1/1995
Town of Danby,1462079,Civil,Rutland,VT,432114N,0730332W,1467,Dorset,,9/1/1995
Town of Danville,1462080,Civil,Caledonia,VT,442556N,0720734W,1355,Joes Pond,,9/1/1995
Town of Derby,1462081,Civil,Orleans,VT,445704N,0720812W,997,Newport,,9/1/1995
Town of Dorset,1462082,Civil,Bennington,VT,431532N,0730305W,1384,Dorset,,9/1/1995
Town of Dover,1462083,Civil,Windham,VT,425726N,0725031W,2037,West Dover,,9/1/1995
Town of Dummerston,1462084,Civil,Windham,VT,425549N,0723530W,725,Putney,,9/1/1995
Town of Duxbury,1462085,Civil,Washington,VT,441818N,0724928W,2257,Waterbury,,9/1/1995
Town of East Haven,1462086,Civil,Essex,VT,443920N,0714923W,2162,Seneca Mountain,,9/1/1995
Town of East Montpelier,1462087,Civil,Washington,VT,441721N,0723026W,1102,Montpelier,,9/1/1995
Town of Eden,1462088,Civil,Lamoille,VT,444252N,0723223W,1168,Eden,,9/1/1995
Town of Elmore,1462089,Civil,Lamoille,VT,442928N,0723050W,1699,Mount Worcester,,9/1/1995
Town of Enosburgh,1462090,Civil,Franklin,VT,445248N,0724453W,748,Richford,,9/1/1995
Town of Essex,1462091,Civil,Chittenden,VT,443110N,0730356W,476,Essex Center,,9/1/1995
Town of Fair Haven,1462094,Civil,Rutland,VT,433701N,0731600W,364,Thorn Hill,,9/1/1995
Town of Fairfax,1462092,Civil,Franklin,VT,444159N,0730027W,712,Milton,,9/1/1995
Town of Fairfield,1462093,Civil,Franklin,VT,444828N,0725556W,472,Fairfield,,9/1/1995
Town of Fairlee,1462095,Civil,Orange,VT,435531N,0720947W,945,Fairlee,,9/1/1995
Town of Fayston,1462096,Civil,Washington,VT,441247N,0725230W,2047,Waitsfield,,9/1/1995
Town of Ferdinand,1462097,Civil,Essex,VT,444340N,0714526W,1936,Seneca Mountain,,9/1/1995
Town of Ferrisburgh,1462098,Civil,Addison,VT,441223N,0731638W,118,Vergennes West,,9/1/1995
Town of Fletcher,1462099,Civil,Franklin,VT,444239N,0725403W,919,Gilson Mountain,,9/1/1995
Town of Franklin,1462100,Civil,Franklin,VT,445835N,0725352W,607,Sheldon Springs,,9/1/1995
Town of Georgia,1462101,Civil,Franklin,VT,444342N,0730739W,338,Georgia Plains,,9/1/1995
Town of Glastenbury,1462102,Civil,Bennington,VT,425840N,0730428W,3638,Woodford,,9/1/1995
Town of Glover,1462103,Civil,Orleans,VT,444103N,0721351W,1614,Crystal Lake,,9/1/1995
Town of Goshen,1462104,Civil,Addison,VT,435157N,0730017W,1693,Brandon,,9/1/1995
Town of Grafton,1462105,Civil,Windham,VT,431103N,0723708W,1119,Saxtons River,,9/1/1995
Town of Granby,1462106,Civil,Essex,VT,443608N,0714314W,1772,Stone Mountain,,9/1/1995
Town of Grand Isle,1462107,Civil,Grand Isle,VT,444313N,0731756W,171,South Hero,,9/1/1995
Town of Granville,1462108,Civil,Addison,VT,440020N,0725025W,1654,Warren,,9/1/1995
Town of Greensboro,1462109,Civil,Orleans,VT,443614N,0721719W,1827,Caspian Lake,,9/1/1995
Town of Groton,1462110,Civil,Caledonia,VT,441403N,0721543W,1437,Knox Mountain,,9/1/1995
Town of Guildhall,1462111,Civil,Essex,VT,443251N,0713742W,1260,Stone Mountain,,9/1/1995
Town of Guilford,1462112,Civil,Windham,VT,424644N,0723725W,1115,Brattleboro,,9/1/1995
Town of Halifax,1462113,Civil,Windham,VT,424653N,0724440W,1608,Governors Mountain,,9/1/1995
Town of Hancock,1462114,Civil,Addison,VT,435511N,0725439W,2037,Bread Loaf,,9/1/1995
Town of Hardwick,1462115,Civil,Caledonia,VT,443125N,0722053W,1286,Caspian Lake,,9/1/1995
Town of Hartford,1462116,Civil,Windsor,VT,433952N,0722312W,751,Quechee,,9/1/1995
Town of Hartland,1462117,Civil,Windsor,VT,433427N,0722605W,1214,Hartland,,9/1/1995
Town of Highgate,1462118,Civil,Franklin,VT,445756N,0730324W,312,Highgate Center,,9/1/1995
Town of Hinesburg,1462119,Civil,Chittenden,VT,441928N,0730525W,531,Hinesburg,,9/1/1995
Town of Holland,1462277,Civil,Orleans,VT,445813N,0715902W,1745,Morgan Center,,4/1/1990
Town of Hubbardton,1462120,Civil,Rutland,VT,434246N,0731036W,627,Bomoseen,,9/1/1995
Town of Huntington,1462121,Civil,Chittenden,VT,441802N,0725714W,843,Huntington,,9/1/1995
Town of Hyde Park,1462122,Civil,Lamoille,VT,443728N,0723353W,1135,Morrisville,,9/1/1995
Town of Ira,1462123,Civil,Rutland,VT,433311N,0730455W,1378,West Rutland,,9/1/1995
Town of Irasburg,1462124,Civil,Orleans,VT,444851N,0721703W,974,Irasburg,,9/1/1995
Town of Isle La Motte,1462125,Civil,Grand Isle,VT,445147N,0732033W,105,North Hero,,9/1/1995
Town of Jamaica,1462126,Civil,Windham,VT,430602N,0724758W,1352,Jamaica,,9/1/1995
Town of Jay,1462127,Civil,Orleans,VT,445802N,0722902W,1489,North Troy,,9/1/1995
Town of Jericho,1462128,Civil,Chittenden,VT,442835N,0725746W,696,Richmond,,9/1/1995
Town of Johnson,1462129,Civil,Lamoille,VT,443854N,0724104W,715,Johnson,,9/1/1995
Town of Killington,1462208,Civil,Rutland,VT,433915N,0724721W,1788,Pico Peak,,9/1/1995
Town of Kirby,1462130,Civil,Caledonia,VT,443010N,0715454W,1568,Burke Mountain,,9/1/1995
Town of Landgrove,1462131,Civil,Bennington,VT,431550N,0725048W,1522,Weston,,9/1/1995
Town of Leicester,1462132,Civil,Addison,VT,435208N,0730551W,499,Brandon,,9/1/1995
Town of Lemington,1462133,Civil,Essex,VT,445327N,0713459W,1752,Monadnock Mountain,,9/1/1995
Town of Lewis,1462134,Civil,Essex,VT,445201N,0714456W,1450,Bloomfield,,9/1/1995
Town of Lincoln,1462135,Civil,Addison,VT,440544N,0725821W,1270,Lincoln,,9/1/1995
Town of Londonderry,1462136,Civil,Windham,VT,431213N,0724812W,1168,Londonderry,,9/1/1995
Town of Lowell,1462137,Civil,Orleans,VT,444730N,0722725W,1037,Lowell,,9/1/1995
Town of Ludlow,1462138,Civil,Windsor,VT,432344N,0724216W,1010,Ludlow,,9/1/1995
Town of Lunenburg,1462139,Civil,Essex,VT,442835N,0714239W,1240,Gilman,,9/1/1995
Town of Lyndon,1462140,Civil,Caledonia,VT,443242N,0720027W,745,Lyndonville,,9/1/1995
Town of Maidstone,1462141,Civil,Essex,VT,443824N,0713658W,1368,Stratford,,9/1/1995
Town of Manchester,1462142,Civil,Bennington,VT,430955N,0730404W,810,Manchester,,9/1/1995
Town of Marlboro,1462143,Civil,Windham,VT,425232N,0724422W,1457,Newfane,,9/1/1995
Town of Marshfield,1462144,Civil,Washington,VT,441855N,0722140W,1706,Marshfield,,9/1/1995
Town of Mendon,1462145,Civil,Rutland,VT,433734N,0725243W,1841,Chittenden,,9/1/1995
Town of Middlebury,1462146,Civil,Addison,VT,440015N,0730721W,436,South Mountain,,9/1/1995
Town of Middlesex,1462147,Civil,Washington,VT,441937N,0723750W,1027,Middlesex,,9/1/1995
Town of Middletown Springs,1462148,Civil,Rutland,VT,432855N,0730738W,820,Wells,,9/1/1995
Town of Milton,1462149,Civil,Chittenden,VT,443835N,0730915W,266,Georgia Plains,,9/1/1995
Town of Monkton,1462150,Civil,Addison,VT,441339N,0730756W,758,Vergennes East,,9/1/1995
Town of Montgomery,1462151,Civil,Franklin,VT,445135N,0723616W,896,Hazens Notch,,9/1/1995
Town of Moretown,1462153,Civil,Washington,VT,441524N,0724253W,1663,Middlesex,,9/1/1995
Town of Morgan,1462275,Civil,Orleans,VT,445343N,0715809W,1447,Morgan Center,,4/1/1990
Town of Morristown,1462154,Civil,Lamoille,VT,443254N,0723816W,1073,Sterling Mountain,,9/1/1995
Town of Mount Holly,1462155,Civil,Rutland,VT,432540N,0724816W,1919,Mount Holly,,9/1/1995
Town of Mount Tabor,1462156,Civil,Rutland,VT,432058N,0725541W,1821,Danby,,9/1/1995
Town of New Haven,1462160,Civil,Addison,VT,440615N,0730953W,348,Middlebury,,9/1/1995
Town of Newark,1462157,Civil,Caledonia,VT,444229N,0715529W,1421,West Burke,,9/1/1995
Town of Newbury,1462158,Civil,Orange,VT,440634N,0720710W,774,Newbury,,9/1/1995
Town of Newfane,1462159,Civil,Windham,VT,425812N,0724202W,1227,Newfane,,9/1/1995
Town of Newport,1462162,Civil,Orleans,VT,445610N,0721815W,919,Newport Center,,9/1/1995
Town of North Hero,1462164,Civil,Grand Isle,VT,445013N,0731555W,95,North Hero,,9/1/1995
Town of Northfield,1462163,Civil,Washington,VT,440843N,0724103W,1411,Northfield,,9/1/1995
Town of Norton,1462165,Civil,Essex,VT,445845N,0714859W,1339,Norton Pond,,9/1/1995
Town of Norwich,1462166,Civil,Windsor,VT,434508N,0721909W,1050,South Strafford,,9/1/1995
Town of Orange,1462167,Civil,Orange,VT,440922N,0722229W,1745,Knox Mountain,,9/1/1995
Town of Orwell,1462168,Civil,Addison,VT,434822N,0731735W,410,Orwell,,9/1/1995
Town of Panton,1462169,Civil,Addison,VT,440813N,0732011W,118,Vergennes West,,9/1/1995
Town of Pawlet,1462170,Civil,Rutland,VT,432132N,0731115W,600,Pawlet,,9/1/1995
Town of Peacham,1462171,Civil,Caledonia,VT,441959N,0721224W,1778,Peacham,,9/1/1995
Town of Peru,1462172,Civil,Bennington,VT,431519N,0725515W,2021,Danby,,9/1/1995
Town of Pittsfield,1462173,Civil,Rutland,VT,434736N,0724944W,2149,Rochester,,9/1/1995
Town of Pittsford,1462174,Civil,Rutland,VT,434236N,0730238W,358,Proctor,,9/1/1995
Town of Plainfield,1462175,Civil,Washington,VT,441438N,0722426W,1129,Barre East,,9/1/1995
Town of Plymouth,1462176,Civil,Windsor,VT,433121N,0724303W,1519,Plymouth,,9/1/1995
Town of Pomfret,1462177,Civil,Windsor,VT,434149N,0723022W,1444,Woodstock North,,9/1/1995
Town of Poultney,1462178,Civil,Rutland,VT,433158N,0731129W,581,Poultney,,9/1/1995
Town of Pownal,1462179,Civil,Bennington,VT,424730N,0731243W,1289,Pownal,,9/1/1995
Town of Proctor,1462180,Civil,Rutland,VT,433907N,0730212W,479,Proctor,,9/1/1995
Town of Putney,1462181,Civil,Windham,VT,425941N,0723151W,410,Putney,,9/1/1995
Town of Randolph,1462182,Civil,Orange,VT,435615N,0723624W,1362,Randolph Center,,9/1/1995
Town of Reading,1462183,Civil,Windsor,VT,432954N,0723540W,1972,Cavendish,,9/1/1995
Town of Readsboro,1462184,Civil,Bennington,VT,424756N,0725819W,1647,Readsboro,,9/1/1995
Town of Richford,1462185,Civil,Franklin,VT,445809N,0723705W,1168,Jay Peak,,9/1/1995
Town of Richmond,1462186,Civil,Chittenden,VT,442343N,0725938W,446,Richmond,,9/1/1995
Town of Ripton,1462187,Civil,Addison,VT,435919N,0725929W,1670,Bread Loaf,,9/1/1995
Town of Rochester,1462188,Civil,Windsor,VT,435232N,0724942W,1890,Hancock,,9/1/1995
Town of Rockingham,1462189,Civil,Windham,VT,431054N,0723005W,974,Saxtons River,,9/1/1995
Town of Roxbury,1462190,Civil,Washington,VT,440412N,0724338W,1690,Roxbury,,9/1/1995
Town of Royalton,1462191,Civil,Windsor,VT,434853N,0723307W,518,South Royalton,,9/1/1995
Town of Rupert,1462192,Civil,Bennington,VT,431549N,0731126W,1296,Pawlet,,9/1/1995
Town of Rutland,1462194,Civil,Rutland,VT,433449N,0725859W,518,Rutland,,9/1/1995
Town of Ryegate,1462195,Civil,Caledonia,VT,441320N,0720653W,1201,Woodsville,,9/1/1995
Town of Saint Albans,1462197,Civil,Franklin,VT,444839N,0730844W,98,Saint Albans Bay,,9/1/1995
Town of Saint George,1462198,Civil,Chittenden,VT,442252N,0730713W,771,Essex Junction,,9/1/1995
Town of Saint Johnsbury,1462199,Civil,Caledonia,VT,442719N,0720042W,614,Saint Johnsbury,,9/1/1995
Town of Salisbury,1462200,Civil,Addison,VT,435523N,0730641W,430,East Middlebury,,9/1/1995
Town of Sandgate,1462201,Civil,Bennington,VT,431008N,0731149W,1611,West Rupert,,9/1/1995
Town of Searsburg,1462202,Civil,Bennington,VT,425335N,0725800W,2218,Mount Snow,,9/1/1995
Town of Shaftsbury,1462203,Civil,Bennington,VT,425850N,0731229W,1076,Bennington,,9/1/1995
Town of Sharon,1462204,Civil,Windsor,VT,434659N,0722611W,1247,Sharon,,9/1/1995
Town of Sheffield,1462205,Civil,Caledonia,VT,443832N,0720739W,1516,Crystal Lake,,9/1/1995
Town of Shelburne,1462206,Civil,Chittenden,VT,442326N,0731429W,105,Burlington,,9/1/1995
Town of Sheldon,1462207,Civil,Franklin,VT,445357N,0725517W,495,Sheldon Springs,,9/1/1995
Town of Shoreham,1462209,Civil,Addison,VT,435341N,0731849W,325,Bridport,,9/1/1995
Town of Shrewsbury,1462210,Civil,Rutland,VT,433147N,0725120W,1601,Killington Peak,,9/1/1995
Town of Somerset,1462211,Civil,Windham,VT,425830N,0725744W,2169,Mount Snow,,9/1/1995
Town of South Hero,1462213,Civil,Grand Isle,VT,443748N,0731852W,95,South Hero,,9/1/1995
Town of Springfield,1462214,Civil,Windsor,VT,431726N,0722851W,531,Springfield,,9/1/1995
Town of Stamford,1462215,Civil,Bennington,VT,424717N,0730442W,2096,Stamford,,9/1/1995
Town of Stannard,1462216,Civil,Caledonia,VT,443214N,0721212W,1913,Stannard,,9/1/1995
Town of Starksboro,1462217,Civil,Addison,VT,441343N,0730056W,1713,Bristol,,9/1/1995
Town of Stockbridge,1462218,Civil,Windsor,VT,434523N,0724439W,1004,Bethel,,9/1/1995
Town of Stowe,1462219,Civil,Lamoille,VT,442853N,0724319W,883,Stowe,,9/1/1995
Town of Strafford,1462220,Civil,Orange,VT,435209N,0722200W,1299,South Strafford,,9/1/1995
Town of Stratton,1462221,Civil,Windham,VT,430348N,0725559W,2543,Stratton Mountain,,9/1/1995
Town of Sudbury,1462222,Civil,Rutland,VT,434728N,0731048W,814,Sudbury,,9/1/1995
Town of Sunderland,1462223,Civil,Bennington,VT,430417N,0730408W,2461,Sunderland,,9/1/1995
Town of Sutton,1462224,Civil,Caledonia,VT,443948N,0720221W,1437,Sutton,,9/1/1995
Town of Swanton,1462225,Civil,Franklin,VT,445429N,0730731W,128,East Alburg,,9/1/1995
Town of Thetford,1462226,Civil,Orange,VT,435007N,0721453W,568,Lyme,,9/1/1995
Town of Tinmouth,1462227,Civil,Rutland,VT,432641N,0730327W,1417,Middletown Springs,,9/1/1995
Town of Topsham,1462228,Civil,Orange,VT,440802N,0721459W,1562,Groton,,9/1/1995
Town of Townshend,1462229,Civil,Windham,VT,430417N,0724008W,1093,Townshend,,9/1/1995
Town of Troy,1462230,Civil,Orleans,VT,445621N,0722257W,961,North Troy,,9/1/1995
Town of Tunbridge,1462231,Civil,Orange,VT,435407N,0722907W,571,Chelsea,,9/1/1995
Town of Underhill,1462232,Civil,Chittenden,VT,443218N,0725310W,1050,Underhill,,9/1/1995
Town of Vernon,1462234,Civil,Windham,VT,424544N,0723133W,358,Brattleboro,,9/1/1995
Town of Vershire,1462235,Civil,Orange,VT,435722N,0721929W,1614,Vershire,,9/1/1995
Town of Victory,1462236,Civil,Essex,VT,443247N,0714911W,1194,Gallup Mills,,9/1/1995
Town of Waitsfield,1462237,Civil,Washington,VT,441053N,0724741W,1037,Waitsfield,,9/1/1995
Town of Walden,1462238,Civil,Caledonia,VT,442853N,0721410W,1880,Joes Pond,,9/1/1995
Town of Wallingford,1462239,Civil,Rutland,VT,432625N,0725640W,2175,Wallingford,,9/1/1995
Town of Waltham,1462240,Civil,Addison,VT,440754N,0731404W,436,Vergennes East,,9/1/1995
Town of Wardsboro,1462241,Civil,Windham,VT,430115N,0724836W,1968,Jamaica,,9/1/1995
Town of Warren,1462242,Civil,Washington,VT,440640N,0725139W,1165,Warren,,9/1/1995
Town of Washington,1462243,Civil,Orange,VT,440416N,0722521W,1939,Washington,,9/1/1995
Town of Waterbury,1462244,Civil,Washington,VT,442306N,0724446W,591,Stowe,,9/1/1995
Town of Waterford,1462245,Civil,Caledonia,VT,442245N,0715625W,1306,Concord,,9/1/1995
Town of Waterville,1462246,Civil,Lamoille,VT,444259N,0724515W,741,Jeffersonville,,9/1/1995
Town of Weathersfield,1462247,Civil,Windsor,VT,432318N,0722818W,1007,Windsor,,9/1/1995
Town of Wells,1462248,Civil,Rutland,VT,432557N,0731123W,1191,Wells,,9/1/1995
Town of West Fairlee,1462249,Civil,Orange,VT,435621N,0721338W,728,Fairlee,,9/1/1995
Town of West Haven,1462252,Civil,Rutland,VT,433804N,0732207W,249,Benson,,9/1/1995
Town of West Rutland,1462256,Civil,Rutland,VT,433650N,0730342W,486,West Rutland,,9/1/1995
Town of West Windsor,1462257,Civil,Windsor,VT,432906N,0722931W,1053,Windsor,,9/1/1995
Town of Westfield,1462250,Civil,Orleans,VT,445248N,0722820W,1795,North Troy,,9/1/1995
Town of Westford,1462251,Civil,Chittenden,VT,443604N,0730017W,466,Essex Center,,9/1/1995
Town of Westminster,1462253,Civil,Windham,VT,430431N,0723040W,892,Westminster West,,9/1/1995
Town of Westmore,1462254,Civil,Orleans,VT,444536N,0720138W,1804,Westmore,,9/1/1995
Town of Weston,1462255,Civil,Windsor,VT,431854N,0724821W,1788,Weston,,9/1/1995
Town of Weybridge,1462258,Civil,Addison,VT,440249N,0731338W,161,Middlebury,,9/1/1995
Town of Wheelock,1462259,Civil,Caledonia,VT,443406N,0720827W,1755,Stannard,,9/1/1995
Town of Whiting,1462260,Civil,Addison,VT,435219N,0731159W,371,Sudbury,,9/1/1995
Town of Whitingham,1462261,Civil,Windham,VT,424700N,0725201W,1903,Jacksonville,,9/1/1995
Town of Williamstown,1462262,Civil,Orange,VT,440634N,0723229W,866,Brookfield,,9/1/1995
Town of Williston,1462263,Civil,Chittenden,VT,442605N,0730522W,604,Essex Junction,,9/1/1995
Town of Wilmington,1462264,Civil,Windham,VT,425235N,0725144W,1526,West Dover,,9/1/1995
Town of Windham,1462265,Civil,Windham,VT,431028N,0724310W,1745,Windham,,9/1/1995
Town of Windsor,1462266,Civil,Windsor,VT,432837N,0722516W,1158,Windsor,,9/1/1995
Town of Winhall,1462267,Civil,Bennington,VT,430944N,0725603W,1814,Peru,,9/1/1995
Town of Wolcott,1462269,Civil,Lamoille,VT,443422N,0722717W,1253,Wolcott,,9/1/1995
Town of Woodbury,1462270,Civil,Washington,VT,442640N,0722424W,1312,Woodbury,,9/1/1995
Town of Woodford,1462271,Civil,Bennington,VT,425258N,0730448W,2241,Woodford,,9/1/1995
Town of Woodstock,1462272,Civil,Windsor,VT,433551N,0723308W,1145,Woodstock South,,9/1/1995
Town of Worcester,1462273,Civil,Washington,VT,442443N,0723426W,1348,Mount Worcester,,9/1/1995
Townsend Corners,1459943,Locale,Windsor,VT,433355N,0723425W,1736,Woodstock South,,10/29/1980
Townshend,1461549,Populated Place,Windham,VT,430250N,0724003W,577,Townshend,,10/29/1980
Townshend Dam,1461707,Locale,Windham,VT,430307N,0724135W,794,Townshend,,11/1/1992
Towtaid (historical),1918912,Populated Place,Addison,VT,435157N,0730627W,443,Brandon,,5/8/2001
Trail Head Ski Touring Center,1922656,Locale,Windsor,VT,434641N,0724751W,827,Rochester,,5/11/2001
Trail Head Winter Sports Area,1461832,Locale,Windsor,VT,434627N,0724654W,948,Rochester,,6/1/1991
Trapp Family Lodge and Cross Country Ski Center,1918474,Locale,Lamoille,VT,442754N,0724441W,1348,Stowe,,5/8/2001
Troy,1459958,Populated Place,Orleans,VT,445405N,0722405W,745,North Troy,,10/29/1980
Tucker Hill Ski Center,1919225,Locale,Washington,VT,441055N,0725206W,932,Waitsfield,,5/8/2001
Tucker Johnson Shelter,1461704,Locale,Rutland,VT,434055N,0725049W,2283,Pico Peak,,6/1/1992
Tudhopes Sailing Center,1918550,Locale,Grand Isle,VT,444606N,0731700W,105,North Hero,,5/8/2001
Tunbridge,1459963,Populated Place,Orange,VT,435327N,0722928W,584,Chelsea,,10/29/1980
Tupper,1461554,Populated Place,Rutland,VT,434826N,0724705W,778,Rochester,,10/29/1980
Twenty-Mile Encampment (historical),1922663,Locale,Windsor,VT,Unknown,Unknown,,Unknown,,5/11/2001
Twin City Plaza Shopping Center,1919226,Locale,Washington,VT,441337N,0723303W,541,Barre West,,5/8/2001
Twin Orchards,1459975,Populated Place,Chittenden,VT,442614N,0731236W,200,Burlington,,10/29/1980
Tyson,1922665,Populated Place,Windsor,VT,432755N,0724218W,1083,Ludlow,,5/11/2001
Underhill,1459983,Populated Place,Chittenden,VT,443133N,0725642W,705,Underhill,,10/29/1980
Underhill Center,1459984,Populated Place,Chittenden,VT,443027N,0725358W,791,Underhill,,8/27/2002
Union Station,1459992,Locale,Chittenden,VT,442832N,0731309W,121,Burlington,,10/29/1980
Union Village,1459994,Populated Place,Orange,VT,434719N,0721519W,476,South Strafford,,10/29/1980
United State Forest Service Silver Lake Campground,1918930,Locale,Addison,VT,435350N,0730258W,1270,East Middlebury,,5/8/2001
United States Forest Service Mount Moosalamoo Campground,1918929,Locale,Addison,VT,435508N,0730137W,1562,East Middlebury,,5/8/2001
University Mall Shopping Center,1918933,Locale,Chittenden,VT,442755N,0731101W,308,Burlington,,5/8/2001
University of Vermont Morgan Horse Farm,1459996,Locale,Addison,VT,440229N,0731102W,387,Middlebury,,10/29/1980
Upper Graniteville,1460000,Populated Place,Washington,VT,440830N,0722835W,1467,Barre East,,10/29/1980
Vergennes,1460018,Populated Place,Addison,VT,441002N,0731514W,194,Vergennes West,,10/29/1980
Vermont Shopping Center,1919241,Locale,Washington,VT,441347N,0723303W,541,Barre West,,5/8/2001
Vermont State Craft Center Shelburne Farms,1918938,Locale,Chittenden,VT,442843N,0731247W,217,Burlington,,5/8/2001
Vermont Technical College Farm,1921600,Locale,Orange,VT,435620N,0723638W,1358,Randolph Center,,5/8/2001
Vermont Thorpe Camp,1461563,Locale,Addison,VT,435122N,0730031W,1470,Brandon,,10/29/1980
Vermont Ventures,1920491,Populated Place,Bennington,VT,431008N,0725336W,1522,Peru,,5/8/2001
Vermont Yankee Nuclear Power Station,1921227,Locale,Windham,VT,424644N,0723051W,246,Brattleboro,,5/7/2001
Vernon,1460025,Populated Place,Windham,VT,424543N,0723048W,262,Brattleboro,,10/29/1980
Vershire,1460027,Populated Place,Orange,VT,435811N,0721921W,1191,Vershire,,10/29/1980
Vershire Center,1460466,Populated Place,Orange,VT,435710N,0722015W,1683,Vershire,,10/29/1980
Vershire Heights,1460467,Populated Place,Orange,VT,435915N,0722208W,1834,Vershire,,10/29/1980
Victory,1460468,Populated Place,Essex,VT,443034N,0715045W,1122,Gallup Mills,,10/29/1980
Viking Cross Country Ski Area,1461678,Locale,Windham,VT,431327N,0724742W,1194,Londonderry,,6/1/1991
Viking Ski Touring Center,1921231,Locale,Windham,VT,431328N,0724739W,1194,Londonderry,,5/8/2001
Viking Winter Sports Area,1461681,Locale,Windham,VT,431313N,0724820W,1335,Londonderry,,6/1/1991
Village of Albany,2378297,Civil,Orleans,VT,444349N,0722252W,942,Albany,,2/11/2008
Village of Alburg,2378298,Civil,Grand Isle,VT,445836N,0731809W,112,Rouses Point,,2/11/2008
Village of Alpenwald,1920494,Populated Place,Bennington,VT,424914N,0730157W,2497,Stamford,,5/8/2001
Village of Barton,2378299,Civil,Orleans,VT,444453N,0721031W,942,Crystal Lake,,2/11/2008
Village of Bellows Falls,2378300,Civil,Windham,VT,430804N,0722718W,531,Bellows Falls,,2/11/2008
Village of Bradford (historical),2057743,Civil,Orange,VT,435933N,0720742W,413,Fairlee,,1/12/2005
Village of Cabot (historical),2378301,Civil,Washington,VT,442418N,0721842W,1053,Cabot,,2/11/2008
Village of Cambridge,2378302,Civil,Lamoille,VT,443820N,0725244W,702,Gilson Mountain,,2/11/2008
Village of Derby Center,2378303,Civil,Orleans,VT,445718N,0720810W,1004,Newport,,2/11/2008
Village of Derby Line,2378304,Civil,Orleans,VT,450003N,0720612W,1024,West Charleston OE N,,2/11/2008
Village of Enosburg Falls,2378305,Civil,Franklin,VT,445430N,0724810W,427,Enosburg Falls,,2/11/2008
Village of Essex Junction,2378306,Civil,Chittenden,VT,442925N,0730650W,361,Essex Junction,,2/11/2008
Village of Hyde Park,2378307,Civil,Lamoille,VT,443546N,0723644W,738,Morrisville,,2/11/2008
Village of Jacksonville,2378308,Civil,Windham,VT,424751N,0724909W,1398,Jacksonville,,2/11/2008
Village of Jeffersonville,2378309,Civil,Lamoille,VT,443834N,0724942W,479,Jeffersonville,,2/11/2008
Village of Jericho,2378310,Civil,Chittenden,VT,443018N,0725916W,620,Underhill,,2/11/2008
Village of Johnson,2378311,Civil,Lamoille,VT,443812N,0724043W,495,Johnson,,2/11/2008
Village of Ludlow,2378312,Civil,Windsor,VT,432350N,0724149W,1033,Ludlow,,2/11/2008
Village of Lyndonville,2378313,Civil,Caledonia,VT,443207N,0720006W,709,Lyndonville,,2/11/2008
Village of Manchester,2378314,Civil,Bennington,VT,430940N,0730415W,876,Manchester,,2/11/2008
Village of Marshfield,2378315,Civil,Washington,VT,442107N,0722107W,886,Marshfield,,2/11/2008
Village of Milton (historical),2057742,Civil,Chittenden,VT,443823N,0730635W,302,Milton,,1/12/2005
Village of Morrisville,2378316,Civil,Lamoille,VT,443330N,0723539W,679,Morrisville,,2/11/2008
Village of Newbury,2378317,Civil,Orange,VT,440452N,0720333W,440,Newbury,,2/11/2008
Village of Newfane,2378318,Civil,Windham,VT,425915N,0723917W,571,Newfane,,2/11/2008
Village of North Bennington,2378319,Civil,Bennington,VT,425526N,0731428W,696,Bennington,,2/11/2008
Village of North Troy,2378321,Civil,Orleans,VT,445947N,0722414W,607,North Troy,,2/11/2008
Village of North Westminster (historical),2378322,Civil,Windham,VT,430715N,0722721W,469,Walpole,,2/11/2008
Village of Northfield,2378320,Civil,Washington,VT,440911N,0723921W,718,Northfield,,2/11/2008
Village of Old Bennington,2378323,Civil,Bennington,VT,425305N,0731251W,797,Bennington,,2/11/2008
Village of Orleans,2378324,Civil,Orleans,VT,444833N,0721205W,761,Orleans,,2/11/2008
Village of Perkinsville,2378325,Civil,Windsor,VT,432216N,0723057W,584,Chester,,2/11/2008
Village of Poultney,2378326,Civil,Rutland,VT,433105N,0731409W,430,Poultney,,2/11/2008
Village of Saxtons River,2378327,Civil,Windham,VT,430820N,0723037W,495,Saxtons River,,2/11/2008
Village of Swanton,2378328,Civil,Franklin,VT,445517N,0730712W,151,Highgate Center,,2/11/2008
Village of Waterbury,2378329,Civil,Washington,VT,442034N,0724435W,522,Middlesex,,2/11/2008
Village of Wells River,2378330,Civil,Orange,VT,440913N,0720342W,735,Woodsville,,2/11/2008
Village of West Burke,2378331,Civil,Caledonia,VT,443835N,0715845W,899,West Burke,,2/11/2008
Village of Westminster,2378332,Civil,Windham,VT,430426N,0722719W,243,Walpole,,2/11/2008
Village of Woodstock,2378333,Civil,Windsor,VT,433732N,0723100W,709,Woodstock North,,2/11/2008
Villiage Inn Winter Sports Area,1461702,Locale,Bennington,VT,431535N,0725131W,1401,Weston,,6/1/1992
Vondell Shelter,1461669,Locale,Windham,VT,430607N,0725804W,2625,Stratton Mountain,,5/1/1991
Vorsteveld Farm,2723113,Locale,Addison,VT,440748N,0732053W,161,Vergennes West,,5/8/2012
Waits River,1460037,Populated Place,Orange,VT,440522N,0721655W,932,West Topsham,,10/29/1980
Waitsfield,1461570,Populated Place,Washington,VT,441124N,0724929W,712,Waitsfield,,10/29/1980
Waitsfield Common,1461571,Populated Place,Washington,VT,441124N,0724751W,1083,Waitsfield,,10/29/1980
Walden,1919743,Populated Place,Caledonia,VT,442659N,0721323W,1637,Joes Pond,,5/8/2001
Walden Heights,1460041,Populated Place,Caledonia,VT,442708N,0721525W,1660,Cabot,,10/29/1980
Walden Station,1460042,Locale,Caledonia,VT,442659N,0721531W,1676,Cabot,,10/29/1980
Wallace Pond,1460367,Populated Place,Essex,VT,450033N,0713713W,1342,Monadnock Mountain OE N,,4/1/1990
Wallingford,1461573,Populated Place,Rutland,VT,432818N,0725838W,607,Wallingford,,10/29/1980
Walnut Ledge,1460056,Populated Place,Chittenden,VT,443600N,0731149W,197,Colchester,,10/29/1980
Wantastiquet Trout Club,1461808,Locale,Windsor,VT,431828N,0724909W,1762,Weston,,10/29/1980
Wardsboro,1461576,Populated Place,Windham,VT,430230N,0724728W,1053,Jamaica,1/1/1959,10/29/1980
Wardsboro Center,1461579,Populated Place,Windham,VT,430210N,0724828W,1158,Jamaica,1/1/1959,10/29/1980
Warner's Grant,1460374,Civil,Essex,VT,445520N,0715445W,2142,Morgan Center,,4/1/1990
Warners Campground,1919750,Locale,Caledonia,VT,441425N,0720328W,568,Woodsville,,5/8/2001
Warren,1461581,Populated Place,Washington,VT,440643N,0725121W,915,Warren,,10/29/1980
Warren's Gore,1462276,Civil,Essex,VT,445441N,0715233W,1384,Morgan Center,,4/1/1990
Washington,1460072,Populated Place,Orange,VT,440620N,0722557W,1280,Washington,,10/29/1980
Washington County,1461768,Civil,Washington,VT,441624N,0723654W,820,Montpelier,,2/1/1993
Washington Heights,1460469,Populated Place,Orange,VT,440523N,0722732W,1647,Washington,,10/29/1980
Waterbury,1460075,Populated Place,Washington,VT,442016N,0724522W,427,Waterbury,,10/29/1980
Waterbury Center,1460076,Populated Place,Washington,VT,442241N,0724257W,722,Stowe,,10/29/1980
Waterbury Last Block Sawmill,1919266,Locale,Washington,VT,442435N,0724848W,1923,Bolton Mountain,,5/8/2001
Waterford Hollow (historical),1919751,Populated Place,Caledonia,VT,Unknown,Unknown,,Unknown,,5/8/2001
Waterfront Plaza Shopping Center,1920137,Locale,Orleans,VT,Unknown,Unknown,,Unknown,,5/8/2001
Waterville,1460081,Populated Place,Lamoille,VT,444125N,0724608W,505,Jeffersonville,,10/29/1980
Weathersfield Bow,1460085,Populated Place,Windsor,VT,432114N,0722426W,374,Springfield,,10/29/1980
Weathersfield Center,1460086,Locale,Windsor,VT,432245N,0722758W,1201,Windsor,1/1/1960,10/29/1980
Webster Shelter,1461712,Locale,Windham,VT,430328N,0725614W,2356,Stratton Mountain,,2/1/1991
Websterville,1460094,Populated Place,Washington,VT,440938N,0722810W,1322,Barre East,,10/29/1980
Wells,1460102,Populated Place,Rutland,VT,432502N,0731215W,502,Wells,,10/29/1980
Wells River,1460106,Populated Place,Orange,VT,440915N,0720249W,433,Woodsville,,10/29/1980
Wenlock,1460470,Populated Place,Essex,VT,444635N,0714511W,1152,Spectacle Pond,,10/29/1980
West Addison,1460109,Populated Place,Addison,VT,440454N,0732339W,184,Port Henry,,10/29/1980
West Arlington,1461585,Populated Place,Bennington,VT,430612N,0731245W,561,Arlington,,10/29/1980
West Barnet,1460110,Populated Place,Caledonia,VT,441836N,0720814W,892,Peacham,,10/29/1980
West Berkshire,1460111,Populated Place,Franklin,VT,445921N,0724849W,528,Enosburg Falls,,10/29/1980
West Berlin,1459207,Populated Place,Washington,VT,441200N,0723758W,581,Northfield,1/1/1979,10/29/1980
West Bethel,1922702,Populated Place,Windsor,VT,435100N,0724138W,1089,Bethel,,5/11/2001
West Bolton,1460113,Populated Place,Chittenden,VT,442644N,0725352W,942,Richmond,,10/29/1980
West Bolton Golf Course,1918946,Locale,Chittenden,VT,442637N,0725402W,938,Richmond,,5/8/2001
West Braintree,1456547,Populated Place,Orange,VT,435820N,0724448W,778,Randolph,1/1/1978,10/29/1980
West Branch,1460115,Populated Place,Lamoille,VT,442827N,0724257W,761,Stowe,,10/29/1980
West Brattleboro,1460120,Populated Place,Windham,VT,425121N,0723611W,482,Brattleboro,,10/29/1980
West Bridgewater,1460121,Populated Place,Windsor,VT,433600N,0724455W,1050,Plymouth,,10/29/1980
West Bridport,1460471,Populated Place,Addison,VT,435724N,0732345W,226,Crown Point,,10/29/1980
West Brookfield,1460123,Populated Place,Orange,VT,440115N,0724019W,1063,Roxbury,,10/29/1980
West Burke,1460472,Populated Place,Caledonia,VT,443829N,0715843W,902,West Burke,,10/29/1980
West Castleton,1460124,Populated Place,Rutland,VT,433932N,0731354W,449,Bomoseen,,10/29/1980
West Charleston,1460126,Populated Place,Orleans,VT,445356N,0720334W,1010,West Charleston,,10/29/1980
West Corinth,1460128,Populated Place,Orange,VT,440229N,0722009W,1414,West Topsham,,10/29/1980
West Cornwall,1460129,Populated Place,Addison,VT,435637N,0731404W,466,Cornwall,,10/29/1980
West Danville,1460130,Populated Place,Caledonia,VT,442434N,0721142W,1588,Joes Pond,,10/29/1980
West Dover,1461590,Populated Place,Windham,VT,425621N,0725110W,1693,West Dover,,10/29/1980
West Dummerston,1460131,Populated Place,Windham,VT,425535N,0723655W,433,Putney,,10/29/1980
West Enosburg,1460133,Populated Place,Franklin,VT,445219N,0724752W,453,Bakersfield,,10/29/1980
West Fairlee,1460136,Populated Place,Orange,VT,435433N,0721547W,741,Vershire,,10/29/1980
West Fairlee Center,1460137,Populated Place,Orange,VT,435636N,0721331W,758,Fairlee,,10/29/1980
West Fletcher,1460138,Populated Place,Franklin,VT,444218N,0725612W,814,Gilson Mountain,,10/29/1980
West Georgia,1460139,Populated Place,Franklin,VT,444209N,0730914W,305,Georgia Plains,,10/29/1980
West Glover,1460140,Populated Place,Orleans,VT,444342N,0721326W,1312,Crystal Lake,,10/29/1980
West Groton,1460141,Populated Place,Caledonia,VT,441305N,0721436W,1122,Groton,,10/29/1980
West Guilford,1460142,Populated Place,Windham,VT,424830N,0723948W,971,Governors Mountain,1/1/1965,10/29/1980
West Halifax,1460143,Populated Place,Windham,VT,424714N,0724614W,1152,Jacksonville,,10/29/1980
West Hartford,1460144,Populated Place,Windsor,VT,434244N,0722503W,374,Quechee,,10/29/1980
West Haven,1460145,Populated Place,Rutland,VT,433905N,0732050W,351,Benson,,10/29/1980
West Hill,1460146,Populated Place,Franklin,VT,445153N,0723934W,1024,Cold Hollow Mountains,,10/29/1980
West Jamaica,1461593,Populated Place,Windham,VT,430406N,0725105W,1532,Jamaica,,10/29/1980
West Lincoln,1461594,Populated Place,Addison,VT,440708N,0730112W,886,South Mountain,,10/29/1980
West Milton,1460157,Populated Place,Chittenden,VT,443750N,0731018W,108,Georgia Plains,,10/29/1980
West Newbury,1460162,Populated Place,Orange,VT,440352N,0720729W,909,East Corinth,,10/29/1980
West Norwich,1460163,Populated Place,Windsor,VT,434548N,0722222W,1152,South Strafford,,10/29/1980
West Pawlet,1460165,Populated Place,Rutland,VT,432113N,0731507W,535,West Pawlet,,10/29/1980
West Rupert,1460168,Populated Place,Bennington,VT,431419N,0731434W,741,West Rupert,,10/29/1980
West Rutland,1460169,Populated Place,Rutland,VT,433535N,0730242W,495,West Rutland,,10/29/1980
West Salisbury,1460170,Populated Place,Addison,VT,435522N,0730904W,420,Cornwall,,10/29/1980
West Sandgate,1460171,Populated Place,Bennington,VT,430946N,0731445W,843,West Rupert,,10/29/1980
West Settlement,1460473,Populated Place,Lamoille,VT,443712N,0724316W,1165,Sterling Mountain,,10/29/1980
West Springfield,1460172,Populated Place,Windsor,VT,431728N,0723118W,784,Chester,,10/29/1980
West Swanton,1460174,Populated Place,Franklin,VT,445808N,0731244W,108,East Alburg,1/1/1965,10/29/1980
West Tinmouth,1460474,Populated Place,Rutland,VT,432508N,0730709W,1066,Middletown Springs,,10/29/1980
West Topsham,1460175,Populated Place,Orange,VT,440654N,0721842W,1217,West Topsham,,10/29/1980
West Townshend,1461597,Populated Place,Windham,VT,430503N,0724242W,600,Townshend,,10/29/1980
West View,1460176,Populated Place,Chittenden,VT,443732N,0730811W,331,Georgia Plains,,10/29/1980
West Wardsboro,1461598,Populated Place,Windham,VT,430146N,0725109W,1444,Jamaica,,10/29/1980
West Waterford,1460475,Populated Place,Caledonia,VT,442127N,0715720W,732,Lower Waterford,,10/29/1980
West Woodstock,1460177,Populated Place,Windsor,VT,433701N,0723231W,705,Woodstock South,,10/29/1980
Westfield,1460178,Populated Place,Orleans,VT,445322N,0722542W,814,North Troy,,10/29/1980
Westford,1460179,Populated Place,Chittenden,VT,443643N,0730031W,459,Essex Center,,10/29/1980
Westminster,1460185,Populated Place,Windham,VT,430404N,0722731W,302,Walpole,,10/29/1980
Westminster Station,1460186,Populated Place,Windham,VT,430508N,0722621W,259,Walpole,,10/29/1980
Westminster West,1460187,Populated Place,Windham,VT,430350N,0723226W,797,Westminster West,,10/29/1980
Westmore,1460188,Populated Place,Orleans,VT,444617N,0720317W,1188,Westmore,,10/29/1980
Weston,1461600,Populated Place,Windsor,VT,431728N,0724735W,1299,Weston,,10/29/1980
Weston Bowl Mill,1922710,Locale,Windsor,VT,431757N,0724713W,1309,Weston,,5/11/2001
Westport View Farm,2723108,Locale,Addison,VT,441030N,0732028W,164,Vergennes West,,5/8/2012
Weybridge,1460190,Populated Place,Addison,VT,440359N,0731256W,164,Middlebury,,10/29/1980
Weybridge Hill,1460191,Populated Place,Addison,VT,440218N,0731247W,407,Middlebury,,10/29/1980
Wheelock,1460202,Populated Place,Caledonia,VT,443517N,0720518W,801,Lyndonville,,10/29/1980
Whetstone Factory (historical),1920151,Locale,Orleans,VT,Unknown,Unknown,,Unknown,,5/8/2001
White Caps Campground,1920152,Locale,Orleans,VT,444300N,0720146W,1194,Sutton,,5/8/2001
White Creek Station,1460219,Locale,Bennington,VT,425632N,0731627W,564,Hoosick Falls,,10/29/1980
White Face Lodge,1460220,Locale,Lamoille,VT,443443N,0724424W,3107,Sterling Mountain,,10/29/1980
White River Golf Course,1922721,Locale,Windsor,VT,434934N,0724737W,781,Rochester,,5/11/2001
White River Junction,1460224,Populated Place,Windsor,VT,433856N,0721909W,361,Hanover,,10/29/1980
White River National Fish Hatchery,1922727,Locale,Windsor,VT,434838N,0723928W,568,Bethel,,5/11/2001
White River Valley Camping Area,1922728,Locale,Windsor,VT,434638N,0724154W,689,Bethel,,5/11/2001
White Rocks Picnic Grounds,1461739,Locale,Rutland,VT,432704N,0725640W,1145,Wallingford,,2/1/1991
Whites Corner,1460229,Populated Place,Essex,VT,442444N,0715304W,1663,Concord,,10/29/1980
Whitesville,1460230,Populated Place,Windsor,VT,432330N,0723539W,764,Cavendish,,10/29/1980
Whiting,1460232,Populated Place,Addison,VT,435150N,0731201W,390,Sudbury,,10/29/1980
Whitingham,1461613,Populated Place,Windham,VT,424721N,0725306W,1581,Readsboro,,10/29/1980
Whitneyville,1460476,Populated Place,Windham,VT,424738N,0724434W,1519,Governors Mountain,,10/29/1980
Wilcox Cove Golf Course,1918551,Locale,Grand Isle,VT,444155N,0732058W,131,South Hero,,5/8/2001
Wild Wings Ski Touring Center,1920505,Locale,Bennington,VT,431535N,0725428W,1729,Danby,,5/8/2001
Wild Wings Winter Sports Area,1461717,Locale,Bennington,VT,431547N,0725444W,1870,Danby,,2/1/1991
Wilder,1460253,Populated Place,Windsor,VT,434022N,0721831W,427,Hanover,,10/29/1980
Wildersburg Common,1919278,Populated Place,Washington,VT,441112N,0722846W,997,Barre East,,5/8/2001
Wiley Lodge,1460257,Locale,Chittenden,VT,442137N,0725235W,814,Huntington,,10/29/1980
Will-O-Wood Campground,1920155,Locale,Orleans,VT,444710N,0720453W,1263,Westmore,,5/8/2001
Williamstown,1460274,Populated Place,Orange,VT,440718N,0723229W,883,Brookfield,,10/29/1980
Williamsville,1460276,Populated Place,Windham,VT,425648N,0724044W,551,Newfane,,10/29/1980
Williamsville Station,1460277,Populated Place,Windham,VT,425649N,0723829W,371,Newfane,,10/29/1980
Willis Ross Camp,1461620,Locale,Windham,VT,430612N,0725757W,2569,Stratton Mountain,,10/29/1980
Williston,1460279,Populated Place,Chittenden,VT,442615N,0730405W,495,Essex Junction,,10/29/1980
Williston Golf Course,1918954,Locale,Chittenden,VT,442615N,0730301W,528,Essex Junction,,5/8/2001
Willoughby,1920157,Populated Place,Orleans,VT,444214N,0720631W,1125,Sutton,,5/8/2001
Willow Point,1460477,Populated Place,Addison,VT,440121N,0732400W,95,Port Henry,,10/29/1980
Wilmington,1460388,Populated Place,Windham,VT,425206N,0725217W,1503,Jacksonville,,10/29/1980
Windham,1460295,Populated Place,Windham,VT,431045N,0724333W,1936,Windham,1/1/1960,10/29/1980
Windham County,1461769,Civil,Windham,VT,425926N,0724250W,1276,Newfane,,2/1/1993
Windsor,1460299,Populated Place,Windsor,VT,432849N,0722305W,331,Windsor,,10/29/1980
Windsor Country Club,1461809,Locale,Windsor,VT,433006N,0722336W,390,Hartland,,10/29/1980
Windsor County,1461770,Civil,Windsor,VT,433448N,0723510W,1591,Woodstock South,,2/1/1993
Winhall Station,1461626,Locale,Windham,VT,430928N,0724755W,951,Londonderry,,10/29/1980
Winnisquam Camp (historical),1918956,Locale,Chittenden,VT,Unknown,Unknown,,Unknown,,5/8/2001
Winnisquam Orchard,1460301,Locale,Chittenden,VT,443550N,0731334W,161,Colchester,,10/29/1980
Winooski,1460302,Populated Place,Chittenden,VT,442929N,0731108W,190,Burlington,,10/29/1980
Wolcott,1461873,Populated Place,Lamoille,VT,443247N,0722730W,659,Wolcott,,10/29/1980
Wolf Run Country Club,1920816,Locale,Franklin,VT,444938N,0724636W,823,Bakersfield,,5/8/2001
Wolf Run Cross Country Ski Center,1920817,Locale,Franklin,VT,444938N,0724636W,823,Bakersfield,,5/8/2001
Woodbury,1460309,Populated Place,Washington,VT,442627N,0722459W,1188,Woodbury,,10/29/1980
Woodford,1461632,Populated Place,Bennington,VT,425249N,0730446W,2205,Woodford,,10/29/1980
Woodford Furnace (historical),1920509,Locale,Bennington,VT,Unknown,Unknown,,Unknown,,5/8/2001
Woodstock,1460316,Populated Place,Windsor,VT,433727N,0723106W,702,Woodstock South,,10/29/1980
Woodstock Country Club and Ski Touring Center,1922749,Locale,Windsor,VT,433653N,0723055W,712,Woodstock South,,5/11/2001
Woodstock Ski Jump (historical),1922753,Locale,Windsor,VT,Unknown,Unknown,,Unknown,,5/11/2001
Worcester,1460321,Populated Place,Washington,VT,442225N,0723259W,761,Montpelier,,10/29/1980
Worth Mountain Lodge,1461639,Locale,Addison,VT,435550N,0725740W,2602,Bread Loaf,,10/29/1980
Wrightsville,1460334,Populated Place,Washington,VT,441841N,0723443W,718,Montpelier,,10/29/1980
Wrightsville Beach Recreation Area,1919287,Locale,Washington,VT,441925N,0723435W,630,Montpelier,,5/8/2001
YMCA Meeting Waters Day Camp,1922758,Locale,Windsor,VT,431530N,0722625W,404,Springfield,,5/11/2001
Yaw Brook Cabin,1461640,Locale,Bennington,VT,425204N,0730108W,2152,Stamford,,10/29/1980